time,relativehumidity,dewpointtemperature,precipitation,sunshinetime,felttemperature,ghi_backwards,pictocode,snowfraction,isdaylight,highclouds,cape,referenceevapotranspiration_fao,gust,winddirection,liftedindex,windspeed,precipitation_spread,totalcloudcover,windspeed_spread,visibility,skintemperature,precipitation_probability,evapotranspiration,totalcloudcover_spread,uvindex,lowclouds,temperature,midclouds,sealevelpressure,temperature_spread,extraterrestrialradiation_backwards
2026-05-11 00:00:00.000,46,9.52,0.0,40,21.19,611.0,3,0.0,1,99,3,0.37,1.8,74,3.07,0.87,0.0,29,0.36,19820,28.37,0,0.16,29,4,0,21.53,0,1018,0.24,813.31
2026-05-11 01:00:00.000,42,9.49,0.0,46,23.58,781.98,3,0.0,1,70,4,0.5,2.15,34,2.59,0.91,0.0,21,0.42,21020,30.92,0,0.22,33,4,6,22.86,0,1017,0.31,1021.66
2026-05-11 02:00:00.000,40,9.41,0.0,46,25.03,906.7,5,0.0,1,29,5,0.59,2.96,10,2.04,0.96,0.0,21,0.5,21220,32.2,0,0.25,39,6,21,23.57,0,1017,0.42,1175.83
2026-05-11 03:00:00.000,39,9.34,0.0,35,25.52,952.03,4,0.0,1,0,6,0.63,3.6,359,1.59,1.03,0.0,38,0.57,21220,32.68,0,0.28,43,7,38,23.87,0,1016,0.49,1265.32
2026-05-11 04:00:00.000,39,9.24,0.0,34,25.28,925.52,4,0.0,1,0,5,0.61,4.45,353,1.37,1.15,0.0,39,0.61,21020,32.71,0,0.28,40,8,39,23.93,0,1016,0.52,1284.07
2026-05-11 05:00:00.000,39,9.1,0.0,33,24.58,857.2,7,0.0,1,0,5,0.57,5.04,352,0.98,1.32,0.0,40,0.63,20820,31.77,0,0.27,35,6,40,23.85,0,1015,0.51,1230.8
2026-05-11 06:00:00.000,39,8.98,0.0,40,23.62,764.18,4,0.0,1,0,5,0.5,4.9,353,0.81,1.38,0.0,30,0.64,21020,30.36,0,0.24,29,5,30,23.53,0,1015,0.5,1109.17
2026-05-11 07:00:00.000,41,9.29,0.0,50,22.3,635.2,4,0.0,1,0,3,0.41,4.76,352,0.74,1.38,0.0,14,0.63,21220,28.18,0,0.21,21,4,14,22.92,0,1014,0.47,927.49
2026-05-11 08:00:00.000,45,9.72,0.0,54,20.89,446.91,1,0.0,1,0,12,0.28,4.84,359,0.5,1.36,0.0,8,0.61,21220,25.38,0,0.16,12,2,8,21.91,0,1014,0.44,698.16
2026-05-11 09:00:00.000,51,10.35,0.0,59,19.85,238.17,1,0.0,1,0,29,0.15,4.55,15,0.41,1.27,0.0,1,0.57,20020,22.82,0,0.11,6,1,1,20.63,0,1014,0.4,436.81
2026-05-11 10:00:00.000,58,11.08,0.0,60,18.99,62.74,1,0.0,1,0,5,0.04,3.76,21,0.73,1.02,0.0,0,0.49,17630,19.39,0,0.05,2,0,0,19.37,0,1014,0.37,161.27
2026-05-11 11:00:00.000,64,11.64,0.0,9,18.27,0.0,4,0.0,0,0,1,0.0,2.94,14,1.6,0.86,0.0,11,0.41,14620,13.57,0,0.01,0,0,11,18.37,0,1014,0.33,0.0
2026-05-11 12:00:00.000,70,11.99,0.0,0,17.61,0.0,4,0.0,0,6,0,0.0,2.81,102,2.1,0.75,0.0,16,0.36,13630,12.66,0,0.0,0,0,16,17.52,0,1015,0.3,0.0
2026-05-11 13:00:00.000,74,12.24,0.0,0,17.09,0.0,5,0.0,0,30,2,0.0,2.09,137,2.14,0.69,0.0,16,0.39,12880,12.17,0,0.0,1,0,16,16.87,0,1014,0.27,0.0
2026-05-11 14:00:00.000,77,12.35,0.0,0,16.56,0.0,6,0.0,0,63,4,0.0,2.04,150,1.92,0.62,0.0,24,0.46,12890,11.75,0,0.0,5,0,24,16.26,0,1014,0.23,0.0
2026-05-11 15:00:00.000,80,12.41,0.0,0,16.11,0.0,9,0.0,0,86,7,0.0,1.9,165,1.82,0.65,0.0,55,0.5,13490,11.27,0,0.0,8,0,55,15.81,8,1014,0.21,0.0
2026-05-11 16:00:00.000,83,12.49,0.0,0,15.58,0.0,9,0.0,0,89,15,0.0,2.07,166,1.69,0.69,0.0,57,0.49,14300,10.82,0,0.0,9,0,57,15.28,29,1014,0.2,0.0
2026-05-11 17:00:00.000,86,12.53,0.0,0,15.09,0.0,9,0.0,0,83,23,0.0,2.0,166,2.1,0.77,0.0,73,0.45,15090,10.45,0,0.0,9,0,47,14.84,73,1013,0.21,0.0
2026-05-11 18:00:00.000,86,12.41,0.0,0,14.7,0.0,21,0.0,0,80,33,0.0,2.05,172,2.7,0.89,0.0,82,0.42,15490,10.3,0,0.0,12,0,54,14.57,82,1013,0.21,0.0
2026-05-11 19:00:00.000,87,12.36,0.0,0,14.53,0.0,22,0.0,0,88,31,0.0,1.39,166,2.22,0.87,0.0,89,0.41,15650,10.26,0,0.0,17,0,62,14.4,89,1013,0.2,0.0
2026-05-11 20:00:00.000,85,12.31,0.0,0,14.93,0.0,9,0.0,1,100,30,0.0,1.34,155,2.01,0.81,0.0,70,0.42,16030,9.66,0,0.0,23,0,57,14.77,70,1013,0.2,0.0
2026-05-11 21:00:00.000,77,12.01,0.0,16,16.1,12.18,9,0.0,1,100,28,0.02,1.7,140,1.74,0.77,0.0,56,0.45,16030,15.19,0,0.0,27,0,54,16.01,56,1013,0.21,65.65
2026-05-11 22:00:00.000,66,11.7,0.0,22,18.07,115.14,9,0.0,1,71,22,0.07,1.98,143,1.61,0.78,0.0,58,0.5,17830,21.17,0,0.05,24,0,58,18.09,29,1013,0.23,296.4
2026-05-11 23:00:00.000,56,11.39,0.0,29,20.1,295.57,8,0.0,1,29,17,0.18,2.47,97,1.78,0.83,0.0,48,0.57,19230,25.24,0,0.11,19,0,48,20.26,9,1013,0.28,567.33
2026-05-12 00:00:00.000,50,11.11,0.0,35,21.57,466.47,4,0.0,1,7,15,0.3,2.5,66,1.32,0.93,0.0,38,0.67,19830,28.06,0,0.16,17,1,38,21.88,2,1013,0.4,815.22
2026-05-12 01:00:00.000,46,10.97,0.0,12,22.66,586.47,8,0.0,1,22,73,0.39,2.57,39,0.9,1.1,0.01,75,0.81,20030,27.15,0,0.17,20,3,27,22.91,75,1013,0.68,1023.17
2026-05-12 02:00:00.000,45,10.92,0.0,0,23.58,681.76,22,0.0,1,56,108,0.46,3.08,18,0.73,1.29,0.03,100,0.97,19830,26.77,0,0.15,27,2,33,23.38,100,1012,1.02,1177.04
2026-05-12 03:00:00.000,45,10.97,0.0,0,23.01,602.03,22,0.0,1,84,197,0.42,3.6,8,0.67,1.43,0.06,100,1.14,20220,26.96,0,0.17,31,2,31,23.4,100,1012,1.25,1266.36
2026-05-12 04:00:00.000,46,11.04,0.0,0,22.29,548.1,22,0.0,1,94,241,0.39,4.12,1,1.58,1.6,0.1,100,1.29,19620,24.71,0,0.14,28,3,28,23.09,100,1011,1.22,1285.05
2026-05-12 05:00:00.000,47,11.09,0.0,0,21.84,513.16,22,0.0,1,98,285,0.36,4.49,347,2.0,1.66,0.15,100,1.44,19020,24.64,1,0.11,23,2,18,22.67,100,1010,1.07,1231.87
2026-05-12 06:00:00.000,49,11.15,0.0,0,21.32,364.35,22,0.0,1,100,330,0.27,4.8,347,1.72,1.66,0.19,100,1.58,18620,24.1,5,0.12,21,3,14,22.12,100,1010,1.0,1110.46
2026-05-12 07:00:00.000,53,11.58,0.0,0,20.9,244.52,22,0.0,1,100,246,0.19,5.19,349,1.69,1.55,0.23,100,1.73,18020,22.45,25,0.1,23,2,32,21.5,100,1010,1.14,929.11
2026-05-12 08:00:00.000,57,12.08,0.0,3,20.43,179.97,22,0.0,1,100,206,0.14,4.96,348,0.98,1.36,0.27,88,1.87,15830,21.15,25,0.07,27,1,45,20.74,88,1010,1.37,700.19
2026-05-12 09:00:00.000,63,12.68,0.0,6,19.85,94.62,21,0.0,1,100,239,0.09,4.7,306,1.27,1.26,0.29,84,1.91,13230,19.1,25,0.05,29,1,46,19.88,84,1010,1.5,439.32
2026-05-12 10:00:00.000,69,13.32,0.0,0,19.32,31.87,22,0.0,1,83,195,0.04,4.35,296,0.64,1.18,0.28,92,1.75,10630,17.05,20,0.02,25,0,55,19.09,92,1010,1.43,164.3
2026-05-12 11:00:00.000,74,13.82,0.0,0,18.87,0.07,21,0.0,0,59,179,0.03,3.32,298,0.69,1.17,0.25,86,1.48,10430,16.25,25,0.0,19,0,51,18.45,86,1010,1.26,0.55
2026-05-12 12:00:00.000,78,14.07,0.0,0,18.26,0.0,20,0.0,0,38,189,0.0,3.32,295,0.34,1.3,0.23,78,1.27,10640,16.38,19,0.0,17,0,43,17.84,78,1010,1.11,0.0
2026-05-12 13:00:00.000,82,14.26,0.25,0,17.9,0.0,31,0.0,0,22,249,0.0,3.33,292,-0.27,1.11,0.24,66,1.22,10070,16.31,25,0.0,19,0,61,17.29,66,1010,1.02,0.0
2026-05-12 14:00:00.000,86,14.4,0.51,0,17.56,0.0,31,0.0,0,9,337,0.0,3.99,201,-0.41,0.9,0.27,64,1.23,9460,14.97,25,0.0,25,0,64,16.74,56,1010,0.95,0.0
2026-05-12 15:00:00.000,88,14.49,0.0,0,17.33,0.0,7,0.0,0,0,427,0.0,3.02,146,-0.4,0.75,0.29,63,1.22,9080,14.02,5,0.0,29,0,63,16.37,47,1010,0.9,0.0
2026-05-12 16:00:00.000,90,14.49,0.25,0,17.0,0.0,31,0.0,0,0,375,0.0,2.56,135,-0.53,0.7,0.31,56,1.12,8670,14.95,25,0.0,28,0,56,16.01,27,1010,0.89,0.0
2026-05-12 17:00:00.000,92,14.49,0.13,0,16.66,0.0,31,0.0,0,0,349,0.0,2.42,85,-0.83,0.73,0.32,50,1.01,8670,14.93,25,0.0,27,0,49,15.69,16,1009,0.91,0.0
2026-05-12 18:00:00.000,93,14.32,0.0,0,16.34,0.0,16,0.0,0,0,364,0.0,2.91,337,-1.11,0.74,0.33,44,0.92,8490,13.42,4,0.0,27,0,44,15.44,6,1009,0.9,0.0
2026-05-12 19:00:00.000,93,14.16,0.0,0,16.1,0.0,16,0.0,0,0,320,0.0,2.31,194,-1.51,0.73,0.33,46,0.86,8850,12.86,3,0.0,29,0,46,15.25,2,1009,0.82,0.0
2026-05-12 20:00:00.000,90,14.01,0.0,0,16.26,0.0,16,0.0,1,0,254,0.0,2.07,154,-1.37,0.75,0.31,45,0.82,9030,11.5,3,0.0,34,0,45,15.48,0,1010,0.72,0.0
2026-05-12 21:00:00.000,83,13.68,0.0,23,17.1,14.79,16,0.0,1,0,183,0.01,2.24,140,-0.98,0.69,0.29,40,0.85,9220,16.43,2,0.0,37,0,40,16.4,0,1010,0.71,67.2
2026-05-12 22:00:00.000,74,13.31,0.0,44,18.58,135.83,16,0.0,1,1,140,0.07,2.19,112,-0.7,0.62,0.24,24,0.97,10020,21.1,2,0.04,36,0,24,17.95,0,1010,0.86,299.27
2026-05-12 23:00:00.000,64,12.87,0.0,45,20.23,323.62,4,0.0,1,3,101,0.19,2.2,17,-0.2,0.56,0.19,22,1.16,12220,21.54,1,0.05,34,1,22,19.71,0,1010,1.1,569.69
2026-05-13 00:00:00.000,57,12.47,0.0,36,21.55,501.13,4,0.0,1,4,90,0.31,2.4,6,0.33,0.65,0.14,37,1.35,12620,22.99,1,0.07,33,2,37,21.24,0,1010,1.3,817.11
2026-05-13 01:00:00.000,52,12.25,0.0,47,23.04,644.71,4,0.0,1,3,90,0.41,2.78,0,0.78,0.94,0.1,20,1.49,15430,29.43,3,0.12,32,3,20,22.39,0,1010,1.45,1024.67
2026-05-13 02:00:00.000,50,12.12,0.0,40,24.02,757.99,4,0.0,1,1,97,0.5,3.26,346,1.57,1.33,0.07,30,1.63,18630,30.7,6,0.2,31,4,30,23.01,0,1010,1.57,1178.24
2026-05-13 03:00:00.000,49,12.22,0.0,45,24.6,848.96,4,0.0,1,0,105,0.56,3.45,340,2.48,1.62,0.06,23,1.77,22430,32.33,7,0.26,30,5,23,23.24,0,1010,1.61,1267.38
2026-05-13 04:00:00.000,50,12.46,0.0,49,24.9,899.45,4,0.0,1,0,106,0.58,3.78,341,3.24,1.78,0.08,17,1.93,23630,32.44,7,0.27,27,6,17,23.31,0,1009,1.52,1286.03
2026-05-13 05:00:00.000,51,12.66,0.0,55,24.39,812.02,1,0.0,1,0,137,0.53,4.22,344,3.32,1.87,0.12,6,2.09,24830,31.72,5,0.27,25,6,6,23.32,0,1009,1.36,1232.93
2026-05-13 06:00:00.000,51,12.74,0.0,58,23.75,729.86,1,0.0,1,0,205,0.48,4.5,342,3.61,1.92,0.15,2,2.16,24830,30.25,4,0.24,24,5,2,23.17,0,1009,1.21,1111.74
2026-05-13 07:00:00.000,54,13.09,0.0,58,22.65,599.46,1,0.0,1,0,160,0.39,4.34,340,4.01,1.93,0.14,2,2.1,24220,27.91,2,0.21,26,3,2,22.72,0,1009,1.12,930.71
2026-05-13 08:00:00.000,58,13.33,0.0,57,21.65,431.01,1,0.0,1,0,128,0.28,4.16,334,4.32,1.85,0.12,4,1.94,22420,25.09,2,0.16,30,2,4,21.88,0,1009,1.05,702.21
2026-05-13 09:00:00.000,63,13.6,0.0,54,20.68,235.55,1,0.0,1,0,97,0.15,3.62,332,4.76,1.66,0.09,9,1.75,19620,21.33,1,0.1,31,1,9,20.69,0,1009,1.0,441.83
2026-05-13 10:00:00.000,70,13.9,0.0,55,19.83,62.79,1,0.0,1,0,76,0.05,3.74,338,5.29,1.34,0.08,6,1.47,14820,14.65,1,0.03,26,0,6,19.5,0,1010,0.96,167.32
2026-05-13 11:00:00.000,75,14.13,0.0,12,19.05,0.23,1,0.0,0,0,55,0.03,4.06,192,5.73,1.14,0.07,2,1.15,12630,12.09,0,0.0,18,0,2,18.5,0,1010,0.94,2.19
2026-05-13 12:00:00.000,79,14.2,0.0,0,18.41,0.0,1,0.0,0,0,39,0.0,3.42,175,5.84,0.96,0.05,9,0.89,12060,11.58,0,0.0,13,0,9,17.71,0,1011,0.9,0.0
2026-05-13 13:00:00.000,83,14.22,0.0,0,17.83,0.0,4,0.0,0,0,34,0.0,3.04,178,6.24,0.86,0.04,18,0.78,11680,11.04,0,0.0,11,0,18,17.05,0,1011,0.84,0.0
2026-05-13 14:00:00.000,86,14.16,0.0,0,17.29,0.0,4,0.0,0,0,31,0.0,2.87,171,6.37,0.79,0.02,19,0.77,10880,10.57,0,0.0,10,0,19,16.49,0,1011,0.76,0.0
2026-05-13 15:00:00.000,87,14.08,0.0,0,16.95,0.0,4,0.0,0,0,30,0.0,2.25,163,6.01,0.7,0.0,23,0.78,9880,9.67,0,0.0,10,0,23,16.11,0,1011,0.71,0.0
2026-05-13 16:00:00.000,89,14.01,0.0,0,16.55,0.0,4,0.0,0,0,24,0.0,1.62,157,5.58,0.68,0.0,32,0.78,9680,8.89,0,0.0,7,0,32,15.72,0,1011,0.7,0.0
2026-05-13 17:00:00.000,90,13.93,0.0,0,16.21,0.0,16,0.0,0,0,18,0.0,1.55,157,5.41,0.65,0.0,33,0.78,10280,8.63,0,0.0,4,0,33,15.39,0,1011,0.7,0.0
2026-05-13 18:00:00.000,91,13.73,0.0,0,15.81,0.0,16,0.0,0,0,14,0.0,1.75,160,5.4,0.72,0.0,35,0.78,11280,8.43,0,0.0,2,0,35,15.11,0,1011,0.71,0.0
2026-05-13 19:00:00.000,92,13.61,0.0,0,15.54,0.0,16,0.0,0,0,9,0.0,1.76,171,5.09,0.7,0.0,26,0.75,13450,8.13,0,0.0,1,0,26,14.86,0,1011,0.71,0.0
2026-05-13 20:00:00.000,89,13.42,0.0,0,15.65,0.0,4,0.0,1,0,5,0.0,1.8,173,3.7,0.77,0.0,23,0.72,17430,7.92,0,0.0,0,0,23,15.09,0,1012,0.71,0.0
2026-05-13 21:00:00.000,82,13.07,0.0,29,16.43,17.57,4,0.0,1,0,1,0.01,1.8,171,2.84,0.88,0.0,27,0.72,21030,13.55,0,0.0,1,0,27,16.07,0,1012,0.71,68.74
2026-05-13 22:00:00.000,72,12.71,0.0,44,17.95,148.4,4,0.0,1,0,1,0.08,2.06,160,2.62,0.99,0.0,23,0.78,22830,20.2,0,0.05,1,0,23,17.8,0,1013,0.7,302.13
2026-05-13 23:00:00.000,62,12.33,0.0,50,19.69,343.6,4,0.0,1,0,2,0.2,2.27,22,2.39,1.08,0.01,14,0.89,27030,25.38,0,0.12,2,1,14,19.72,0,1013,0.7,572.04
2026-05-14 00:00:00.000,55,12.01,0.0,44,21.17,544.83,4,0.0,1,0,4,0.34,1.67,353,1.94,1.23,0.02,23,1.0,29230,29.05,0,0.18,3,2,23,21.41,0,1014,0.72,818.99
2026-05-14 01:00:00.000,50,11.99,0.0,38,23.02,676.6,4,0.0,1,0,11,0.44,2.5,7,2.06,1.55,0.03,33,1.14,29630,31.62,1,0.23,1,3,33,22.72,12,1014,0.8,1026.15
2026-05-14 02:00:00.000,48,12.03,0.0,37,24.2,805.44,4,0.0,1,0,20,0.53,3.82,3,2.23,1.98,0.05,34,1.34,28430,32.87,2,0.27,0,4,34,23.47,19,1014,0.91,1179.42
2026-05-14 03:00:00.000,48,12.3,0.0,38,24.73,886.88,4,0.0,1,0,30,0.58,4.85,3,2.12,2.39,0.06,34,1.53,27030,33.26,3,0.28,1,6,34,23.79,23,1014,0.99,1268.38
2026-05-14 04:00:00.000,49,12.61,0.0,40,24.65,903.36,4,0.0,1,0,55,0.59,5.31,5,2.37,2.78,0.08,30,1.68,24020,32.89,4,0.28,7,6,30,23.84,20,1014,1.02,1286.98
2026-05-14 05:00:00.000,50,12.88,0.0,43,24.05,862.35,4,0.0,1,0,98,0.56,5.57,9,2.62,3.18,0.11,26,1.81,21220,31.81,4,0.26,15,6,26,23.71,15,1014,1.03,1233.98
2026-05-14 06:00:00.000,52,13.01,0.0,45,22.98,766.87,4,0.0,1,0,143,0.5,5.65,13,3.06,3.42,0.13,23,1.89,1820,30.04,5,0.23,23,5,23,23.29,10,1014,1.0,1113.0
2026-05-14 07:00:00.000,56,13.36,0.0,45,21.49,623.92,4,0.0,1,0,115,0.4,5.81,18,3.44,3.47,0.14,22,1.89,2420,27.61,5,0.18,27,3,22,22.46,6,1014,0.91,932.3
2026-05-14 08:00:00.000,61,13.58,0.0,44,20.12,446.78,4,0.0,1,0,78,0.28,5.88,24,3.69,3.36,0.15,23,1.85,1020,24.37,4,0.13,29,2,23,21.32,2,1014,0.8,704.23
2026-05-14 09:00:00.000,67,13.84,0.0,45,19.12,251.36,4,0.0,1,0,49,0.16,5.75,30,3.33,3.09,0.15,23,1.77,2620,20.96,4,0.08,29,1,23,20.04,0,1015,0.71,444.33
2026-05-14 10:00:00.000,73,14.11,0.0,47,18.42,67.91,4,0.0,1,0,55,0.06,4.93,36,3.31,2.68,0.15,20,1.61,2230,15.81,3,0.02,23,0,20,18.95,0,1015,0.69,170.33
2026-05-14 11:00:00.000,78,14.28,0.0,10,18.05,2.33,4,0.0,0,0,47,0.0,4.71,45,3.72,2.16,0.14,15,1.39,240,16.99,2,0.0,15,0,15,18.16,0,1016,0.7,3.83
2026-05-14 12:00:00.000,81,14.3,0.0,0,17.68,0.0,4,0.0,0,0,39,0.01,4.03,56,4.11,1.79,0.15,12,1.22,260,16.5,1,0.0,9,0,12,17.53,0,1016,0.71,0.0
2026-05-14 13:00:00.000,83,14.25,0.0,0,17.42,0.0,13,0.0,0,0,26,0.0,3.29,62,4.41,1.45,0.22,9,1.12,1090,15.22,1,0.0,5,0,9,17.05,0,1017,0.71,0.0
2026-05-14 14:00:00.000,85,14.14,0.0,0,17.0,0.0,13,0.0,0,0,14,0.0,2.72,64,4.19,1.32,0.31,7,1.07,8880,11.58,1,0.0,3,0,7,16.58,0,1017,0.71,0.0
2026-05-14 15:00:00.000,86,13.97,0.0,0,16.71,0.0,13,0.0,0,0,11,0.0,2.15,69,3.62,1.2,0.34,7,1.04,8880,11.01,1,0.0,3,0,7,16.26,0,1017,0.71,0.0
2026-05-14 16:00:00.000,87,13.79,0.0,0,16.38,0.0,4,0.0,0,0,6,0.0,1.43,79,3.62,1.05,0.26,11,1.02,9070,10.14,1,0.0,3,0,11,15.89,0,1017,0.71,0.0
2026-05-14 17:00:00.000,87,13.62,0.0,0,16.19,0.0,4,0.0,0,0,3,0.0,1.22,88,3.26,0.88,0.11,16,1.01,9670,9.92,1,0.0,4,0,16,15.64,0,1018,0.7,0.0
2026-05-14 18:00:00.000,87,13.38,0.0,0,15.95,0.0,4,0.0,0,0,0,0.0,1.55,94,2.8,0.84,0.02,20,0.98,10270,10.06,1,0.0,5,0,20,15.45,0,1018,0.71,0.0
2026-05-14 19:00:00.000,87,13.18,0.0,0,15.76,0.0,4,0.0,0,0,0,0.0,1.93,101,3.07,0.84,0.03,20,0.91,10650,9.82,1,0.0,4,0,20,15.33,0,1018,0.73,0.0
2026-05-14 20:00:00.000,84,13.07,0.0,0,15.99,0.0,16,0.0,1,0,1,0.0,2.22,110,3.26,0.87,0.08,98,0.81,11420,9.52,0,0.0,2,0,98,15.62,0,1018,0.76,0.0
2026-05-14 21:00:00.000,77,12.85,0.0,0,17.06,16.69,16,0.0,1,0,2,0.02,2.4,108,3.19,0.89,0.12,98,0.76,12620,15.12,0,0.0,2,0,98,16.78,0,1019,0.8,70.29
2026-05-14 22:00:00.000,67,12.72,0.0,0,19.03,128.71,16,0.0,1,0,8,0.07,2.46,87,3.11,0.85,0.1,98,0.8,14220,21.25,0,0.04,2,0,98,18.77,0,1019,0.86,304.98
2026-05-14 23:00:00.000,58,12.59,0.0,56,21.17,314.97,1,0.0,1,0,9,0.19,2.14,62,3.07,0.9,0.07,4,0.88,17430,26.17,0,0.1,3,1,4,20.98,0,1019,0.93,574.38
2026-05-15 00:00:00.000,52,12.55,0.0,59,22.84,520.95,1,0.0,1,0,8,0.33,2.5,43,2.81,1.03,0.04,0,1.0,19430,29.78,0,0.16,4,2,0,22.77,0,1020,1.02,820.86
2026-05-15 01:00:00.000,48,12.52,0.0,60,24.8,695.2,1,0.0,1,0,14,0.46,3.09,27,2.74,1.36,0.02,0,1.15,21420,32.32,0,0.22,3,4,0,24.08,0,1020,1.15,1027.62
2026-05-15 02:00:00.000,46,12.65,0.0,60,26.09,835.26,1,0.0,1,0,69,0.56,3.94,16,2.56,1.88,0.01,0,1.34,22430,33.65,1,0.25,1,5,0,24.9,0,1020,1.29,1180.59
2026-05-15 03:00:00.000,45,12.79,0.0,60,26.78,928.1,1,0.0,1,0,110,0.63,4.44,10,2.39,2.28,0.04,0,1.58,23030,34.21,1,0.28,2,6,0,25.34,0,1020,1.4,1269.37
2026-05-15 04:00:00.000,45,13.0,0.0,56,26.78,927.39,1,0.0,1,0,99,0.63,4.75,8,2.16,2.53,0.18,5,1.88,22830,33.9,2,0.28,5,6,0,25.49,5,1020,1.47,1287.92
2026-05-15 05:00:00.000,46,13.19,0.0,51,26.3,868.5,4,0.0,1,0,90,0.59,4.74,6,1.88,2.69,0.37,12,2.21,22420,33.16,5,0.27,10,6,2,25.41,12,1019,1.51,1235.0
2026-05-15 06:00:00.000,48,13.39,0.0,48,25.36,757.57,4,0.0,1,0,20,0.52,5.0,4,1.63,2.74,0.46,17,2.47,1420,31.7,6,0.24,16,5,3,25.06,17,1019,1.5,1114.24
2026-05-15 07:00:00.000,51,13.71,0.0,48,24.02,611.49,4,0.0,1,0,105,0.42,4.73,5,1.64,2.63,0.37,17,2.64,2820,29.18,5,0.2,22,3,5,24.33,17,1019,1.4,933.88
2026-05-15 08:00:00.000,56,14.04,0.0,50,22.9,434.39,4,0.0,1,0,32,0.29,4.34,9,1.71,2.39,0.18,15,2.75,1230,25.42,2,0.14,30,2,7,23.26,15,1019,1.25,706.23
2026-05-15 09:00:00.000,61,14.42,0.0,51,22.05,242.92,4,0.0,1,0,85,0.16,3.9,15,1.62,2.06,0.04,13,2.7,5420,21.54,1,0.08,34,1,8,22.04,13,1019,1.11,446.82
2026-05-15 10:00:00.000,68,14.83,0.0,52,21.42,67.27,4,0.0,1,0,67,0.06,3.76,18,1.71,1.62,0.0,12,2.41,4430,17.18,0,0.03,30,0,6,20.95,12,1020,0.99,173.34
2026-05-15 11:00:00.000,72,15.16,0.0,12,21.09,2.5,4,0.0,0,0,40,0.0,4.47,22,2.07,1.21,0.01,11,1.96,240,16.79,0,0.0,23,0,3,20.2,11,1020,0.88,5.46
2026-05-15 12:00:00.000,76,15.34,0.0,0,20.78,0.0,1,0.0,0,0,30,0.0,4.28,32,2.24,0.91,0.01,9,1.56,240,17.39,0,0.0,18,0,2,19.62,9,1021,0.8,0.0
2026-05-15 13:00:00.000,78,15.42,0.0,0,20.49,0.0,1,0.0,0,0,22,0.0,3.86,58,1.91,0.77,0.01,6,1.29,70,17.07,0,0.0,16,0,4,19.2,6,1021,0.77,0.0
2026-05-15 14:00:00.000,80,15.4,0.0,0,20.07,0.0,16,0.0,0,0,18,0.0,3.07,89,1.59,0.73,0.0,98,1.08,60,16.64,0,0.0,17,0,98,18.75,2,1021,0.78,0.0
2026-05-15 15:00:00.000,82,15.3,0.0,0,19.64,0.0,16,0.0,0,0,13,0.0,2.43,120,1.62,0.74,0.0,98,0.92,280,16.29,0,0.0,18,0,98,18.37,0,1021,0.8,0.0
2026-05-15 16:00:00.000,84,15.17,0.0,0,19.06,0.0,16,0.0,0,0,16,0.0,2.23,145,1.82,0.75,0.0,98,0.83,480,15.67,0,0.0,18,0,98,17.85,0,1022,0.83,0.0
2026-05-15 17:00:00.000,85,14.99,0.0,0,18.56,0.0,13,0.0,0,0,18,0.0,2.06,157,2.31,0.75,0.0,6,0.8,9680,12.42,0,0.0,18,0,6,17.41,0,1022,0.87,0.0
2026-05-15 18:00:00.000,85,14.7,0.0,0,18.14,0.0,13,0.0,0,0,10,0.0,1.35,164,3.06,0.74,0.0,5,0.78,8270,11.88,0,0.0,18,0,5,17.1,0,1022,0.9,0.0
2026-05-15 19:00:00.000,85,14.44,0.0,0,17.89,0.0,13,0.0,0,0,10,0.0,1.21,169,4.12,0.71,0.0,6,0.76,14080,11.01,0,0.0,16,0,6,16.92,0,1022,0.9,0.0
2026-05-15 20:00:00.000,82,14.26,0.0,0,18.13,0.0,13,0.0,1,0,4,0.0,1.1,173,5.38,0.66,0.0,9,0.76,15030,10.07,0,0.0,13,0,9,17.19,0,1022,0.88,0.0
2026-05-15 21:00:00.000,76,13.98,0.0,38,19.13,18.03,1,0.0,1,0,0,0.01,0.9,178,6.36,0.63,0.0,10,0.78,15630,16.01,0,0.0,12,0,10,18.27,0,1022,0.87,71.72
2026-05-15 22:00:00.000,66,13.76,0.0,55,20.96,133.78,1,0.0,1,0,1,0.08,1.27,204,6.28,0.58,0.0,7,0.84,16830,21.83,0,0.04,12,0,7,20.15,0,1023,0.87,307.6
2026-05-15 23:00:00.000,58,13.56,0.0,58,22.9,319.5,1,0.0,1,0,3,0.2,1.55,304,5.74,0.64,0.0,3,0.92,18230,26.45,0,0.11,13,1,3,22.2,0,1023,0.87,576.49
2026-05-16 00:00:00.000,52,13.46,0.0,60,24.42,518.75,1,0.0,1,0,5,0.34,2.45,328,5.23,0.8,0.0,0,1.03,21420,29.88,0,0.17,14,2,0,23.88,0,1023,0.89,822.5
2026-05-16 01:00:00.000,48,13.45,0.0,60,26.24,694.98,1,0.0,1,0,32,0.47,3.32,341,4.5,1.17,0.0,0,1.16,23830,32.3,0,0.22,14,3,0,25.05,0,1023,0.95,1028.88
2026-05-16 02:00:00.000,47,13.54,0.0,59,27.45,838.97,1,0.0,1,0,63,0.57,3.8,349,4.07,1.61,0.01,0,1.32,23820,33.62,1,0.26,14,5,0,25.7,0,1023,1.04,1181.58
2026-05-16 03:00:00.000,46,13.66,0.0,59,28.02,936.16,1,0.0,1,0,93,0.64,4.5,352,3.67,1.97,0.02,1,1.52,24020,34.25,2,0.28,14,6,1,25.97,0,1022,1.09,1270.21
2026-05-16 04:00:00.000,47,13.83,0.0,59,27.93,947.33,1,0.0,1,0,107,0.65,5.11,353,3.13,2.23,0.03,1,1.82,22820,34.02,3,0.28,13,7,1,25.99,0,1022,1.09,1288.74
2026-05-16 05:00:00.000,47,13.9,0.0,59,27.45,898.65,1,0.0,1,0,122,0.61,5.8,353,3.01,2.36,0.05,0,2.17,23020,33.07,4,0.27,13,7,0,25.87,0,1022,1.05,1235.94
2026-05-16 06:00:00.000,48,13.88,0.0,59,26.41,794.69,1,0.0,1,0,138,0.54,6.6,356,3.29,2.37,0.06,0,2.42,2220,31.02,4,0.24,14,5,0,25.43,0,1021,1.0,1115.42
2026-05-16 07:00:00.000,51,14.01,0.0,59,24.96,643.25,1,0.0,1,0,110,0.44,7.16,2,3.39,2.3,0.06,0,2.55,7620,28.01,4,0.19,16,4,0,24.74,0,1021,0.94,935.4
2026-05-16 08:00:00.000,55,14.19,0.0,59,23.63,458.89,1,0.0,1,0,83,0.31,6.93,8,2.99,2.13,0.06,0,2.61,18620,25.23,3,0.15,20,2,0,23.76,0,1021,0.86,708.17
2026-05-16 09:00:00.000,59,14.39,0.0,59,22.85,257.97,1,0.0,1,0,55,0.17,6.35,16,2.76,1.9,0.06,0,2.52,16620,22.01,3,0.1,22,1,0,22.74,0,1021,0.8,449.23
2026-05-16 10:00:00.000,63,14.54,0.0,59,22.1,72.25,1,0.0,1,0,37,0.06,5.14,30,3.21,1.63,0.05,0,2.22,11020,17.69,2,0.03,19,0,0,21.75,0,1021,0.76,176.23
2026-05-16 11:00:00.000,66,14.48,0.0,14,21.39,2.99,1,0.0,0,0,18,0.01,4.58,60,3.43,1.37,0.05,0,1.78,12830,16.32,2,0.0,16,0,0,20.88,0,1021,0.73,7.02
2026-05-16 12:00:00.000,69,14.27,0.0,0,20.68,0.0,1,0.0,0,0,9,0.01,3.7,102,4.01,1.18,0.04,0,1.42,16250,15.49,1,0.0,14,0,0,20.11,0,1022,0.71,0.0
2026-05-16 13:00:00.000,70,13.98,0.0,0,19.79,0.0,1,0.0,0,0,0,0.01,3.01,134,5.36,1.25,0.03,0,1.16,19680,14.03,0,0.0,15,0,0,19.37,0,1022,0.71,0.0
2026-05-16 14:00:00.000,71,13.6,0.0,0,19.05,0.0,1,0.0,0,0,0,0.01,3.26,144,6.63,1.24,0.03,0,0.93,21480,13.15,0,0.0,19,0,0,18.76,0,1021,0.71,0.0
2026-05-16 15:00:00.000,72,13.28,0.0,0,18.42,0.0,1,0.0,0,0,0,0.01,3.2,147,5.62,1.21,0.02,0,0.78,24490,12.3,0,0.0,21,0,0,18.22,0,1021,0.71,0.0
2026-05-16 16:00:00.000,74,13.12,0.0,0,17.92,0.0,1,0.0,0,0,0,0.0,3.13,146,5.81,1.1,0.01,2,0.76,28890,11.35,0,0.0,18,0,2,17.7,0,1021,0.68,0.0
2026-05-16 17:00:00.000,76,12.92,0.0,0,17.42,0.0,1,0.0,0,0,0,0.0,3.05,140,9.61,0.98,0.01,4,0.81,30890,9.9,0,0.0,13,0,4,17.18,0,1021,0.63,0.0
2026-05-16 18:00:00.000,76,12.55,0.0,0,16.85,0.0,1,0.0,0,0,0,0.0,2.65,134,9.69,0.91,0.0,5,0.85,31090,8.87,0,0.0,11,0,5,16.69,0,1021,0.61,0.0
2026-05-16 19:00:00.000,77,12.25,0.0,0,16.33,0.0,1,0.0,0,0,0,0.0,2.69,139,9.99,0.87,0.0,4,0.82,31470,8.24,0,0.0,14,0,4,16.24,0,1021,0.63,0.0
2026-05-16 20:00:00.000,75,12.0,0.0,0,16.4,0.0,1,0.0,1,0,0,0.0,3.24,142,9.16,0.9,0.0,2,0.78,32440,7.84,0,0.0,19,0,2,16.4,0,1021,0.67,0.0
2026-05-16 21:00:00.000,68,11.65,0.0,43,17.45,19.76,1,0.0,1,0,0,0.02,4.0,137,7.33,0.89,0.0,0,0.78,31830,14.27,0,0.0,23,0,0,17.57,0,1021,0.71,72.97
2026-05-16 22:00:00.000,58,11.36,0.0,59,19.59,143.66,1,0.0,1,0,0,0.09,4.15,121,7.22,0.87,0.0,0,0.85,30830,20.79,0,0.06,21,0,0,19.78,0,1021,0.71,309.89
2026-05-16 23:00:00.000,50,11.22,0.0,59,21.84,340.02,1,0.0,1,0,0,0.21,4.35,95,7.36,0.84,0.0,0,0.97,39630,25.99,0,0.13,17,1,0,22.06,0,1021,0.71,578.32
2026-05-17 00:00:00.000,44,11.1,0.0,60,23.61,549.56,1,0.0,1,0,0,0.36,4.55,66,8.97,0.94,0.0,0,1.14,42420,29.66,0,0.2,15,2,0,23.94,0,1021,0.75,823.92
2026-05-17 01:00:00.000,40,10.98,0.0,60,25.87,729.61,1,0.0,1,0,1,0.49,4.88,50,11.44,1.16,0.01,0,1.39,41220,32.82,0,0.25,16,3,0,25.25,0,1021,0.86,1029.97
2026-05-17 02:00:00.000,38,11.02,0.0,60,27.38,873.0,1,0.0,1,0,2,0.6,5.27,37,11.24,1.47,0.03,0,1.69,40630,35.15,0,0.29,18,5,0,26.12,0,1020,1.01,1182.44
2026-05-17 03:00:00.000,38,11.18,0.0,60,28.17,965.9,1,0.0,1,0,3,0.67,5.7,22,10.68,1.81,0.04,0,1.98,39030,36.22,0,0.31,21,6,0,26.61,0,1020,1.18,1270.95
2026-05-17 04:00:00.000,38,11.35,0.0,59,28.08,973.53,1,0.0,1,0,2,0.68,6.51,4,9.76,2.16,0.06,1,2.29,28830,35.02,0,0.3,21,7,1,26.74,1,1019,1.37,1289.5
2026-05-17 05:00:00.000,38,11.56,0.0,57,27.58,920.17,1,0.0,1,0,1,0.64,4.56,347,9.01,2.36,0.07,3,2.61,24420,34.0,0,0.28,20,7,3,26.66,2,1019,1.58,1236.84
2026-05-17 06:00:00.000,40,11.83,0.0,57,26.57,811.1,1,0.0,1,0,1,0.57,4.3,332,8.39,2.41,0.08,4,2.83,2220,32.65,0,0.24,21,5,4,26.22,3,1018,1.71,1116.56
2026-05-17 07:00:00.000,43,12.15,0.0,57,25.1,650.11,1,0.0,1,0,0,0.45,4.08,321,7.66,2.31,0.07,3,2.93,3020,30.18,0,0.2,22,4,3,25.47,2,1018,1.74,936.89
2026-05-17 08:00:00.000,47,12.43,0.0,59,23.72,459.2,1,0.0,1,0,0,0.32,4.28,311,7.53,2.06,0.06,1,2.94,1620,26.79,0,0.15,24,2,1,24.4,1,1018,1.7,710.09
2026-05-17 09:00:00.000,51,12.68,0.0,60,22.65,257.6,1,0.0,1,0,0,0.18,3.88,301,7.76,1.82,0.04,0,2.84,4820,23.15,0,0.09,26,1,0,23.08,0,1018,1.61,451.61
2026-05-17 10:00:00.000,57,12.9,0.0,60,21.54,74.37,1,0.0,1,0,0,0.07,4.03,279,8.39,1.61,0.03,0,2.57,4020,17.68,0,0.03,26,0,0,21.75,0,1018,1.46,179.1
2026-05-17 11:00:00.000,61,13.03,0.0,15,20.47,3.29,1,0.0,0,0,0,0.02,5.09,224,9.43,1.55,0.01,0,2.18,11040,14.18,0,0.0,25,0,0,20.59,0,1018,1.26,8.57
2026-05-17 12:00:00.000,65,12.96,0.0,0,19.59,0.0,1,0.0,0,0,0,0.02,4.19,169,11.06,1.51,0.0,0,1.84,4850,13.42,0,0.0,26,0,0,19.71,0,1018,1.11,0.0
2026-05-17 13:00:00.000,67,12.77,0.0,0,18.98,0.0,1,0.0,0,0,0,0.01,2.78,155,12.18,1.3,0.01,0,1.62,18690,12.82,0,0.0,28,0,0,19.01,0,1018,1.05,0.0
2026-05-17 14:00:00.000,68,12.59,0.0,0,18.38,0.0,1,0.0,0,0,0,0.01,2.45,145,12.69,1.24,0.02,0,1.45,21690,11.49,0,0.0,31,0,0,18.44,0,1019,1.03,0.0
2026-05-17 15:00:00.000,70,12.46,0.0,0,17.9,0.0,1,0.0,0,2,0,0.01,2.75,149,11.82,1.21,0.03,0,1.35,25090,10.78,0,0.0,33,0,0,17.97,0,1019,1.0,0.0
2026-05-17 16:00:00.000,71,12.38,0.0,0,17.42,0.0,1,0.0,0,6,0,0.01,2.47,156,9.84,1.16,0.03,1,1.32,26280,14.05,0,0.0,29,0,0,17.49,0,1018,0.94,0.0
2026-05-17 17:00:00.000,73,12.43,0.0,0,17.09,0.0,2,0.0,0,11,0,0.0,3.13,166,8.92,1.11,0.02,3,1.35,24690,11.28,0,0.0,24,0,0,17.11,0,1018,0.86,0.0
2026-05-17 18:00:00.000,75,12.47,0.0,0,16.8,0.0,2,0.0,0,20,0,0.0,3.65,168,8.71,1.1,0.01,6,1.36,23490,14.54,0,0.0,23,0,0,16.8,0,1017,0.8,0.0
2026-05-17 19:00:00.000,77,12.6,0.0,0,16.63,0.0,2,0.0,0,40,0,0.0,2.88,166,8.37,1.07,0.01,12,1.28,22840,11.85,0,0.0,27,0,0,16.57,3,1017,0.74,0.0
2026-05-17 20:00:00.000,77,12.7,0.0,0,16.84,0.0,3,0.0,1,64,1,0.0,2.73,161,8.03,1.04,0.0,19,1.16,22230,11.07,0,0.0,35,0,0,16.72,7,1017,0.7,0.0
2026-05-17 21:00:00.000,71,12.58,0.0,34,17.9,21.52,6,0.0,1,73,3,0.02,2.3,147,7.6,0.97,0.0,22,1.14,21030,16.79,0,0.0,40,0,0,17.77,10,1017,0.71,74.22
2026-05-17 22:00:00.000,62,12.36,0.0,49,19.75,150.47,3,0.0,1,55,0,0.09,2.41,123,7.11,0.94,0.0,16,1.28,19420,22.73,0,0.05,38,0,0,19.67,8,1017,0.8,312.18
2026-05-17 23:00:00.000,54,12.07,0.0,55,21.69,331.53,2,0.0,1,23,0,0.21,2.39,91,7.7,0.97,0.0,7,1.5,19020,25.52,0,0.09,34,1,0,21.73,4,1017,0.94,580.14
2026-05-18 00:00:00.000,47,11.65,0.0,59,23.3,536.88,1,0.0,1,0,1,0.35,2.4,68,7.51,0.99,0.0,1,1.7,22220,30.8,0,0.16,32,2,0,23.49,1,1016,1.11,825.33
2026-05-18 01:00:00.000,45,12.34,0.0,46,25.68,657.9,3,0.0,1,72,1,0.44,2.2,321,9.35,0.72,0.0,21,1.84,24100,27.21,0,0.01,33,3,0,24.75,0,1016,1.33,1031.05
2026-05-18 02:00:00.000,44,12.61,0.0,60,27.3,842.19,1,0.0,1,0,1,0.57,2.34,319,10.49,1.21,0.0,0,1.96,24100,28.69,0,0.02,35,5,0,25.51,0,1016,1.58,1183.29
2026-05-18 03:00:00.000,44,12.94,0.0,60,27.72,904.65,1,0.0,1,0,1,0.62,2.5,320,11.4,1.61,0.0,0,2.05,24100,29.37,1,0.02,37,6,0,25.78,0,1016,1.8,1271.69
2026-05-18 04:00:00.000,46,13.24,0.0,53,27.18,857.3,5,0.0,1,11,1,0.59,2.69,320,11.83,1.95,0.01,10,2.12,24100,29.22,1,0.03,35,7,0,25.71,10,1015,2.0,1290.25
2026-05-18 05:00:00.000,47,13.48,0.0,40,26.08,728.31,6,0.0,1,100,2,0.51,2.91,320,12.03,2.19,0.02,30,2.17,24100,28.61,2,0.03,32,7,0,25.48,10,1014,2.17,1237.72
2026-05-18 06:00:00.000,49,13.72,0.0,40,25.28,648.44,6,0.0,1,100,3,0.46,3.1,318,12.3,2.26,0.02,30,2.2,24100,27.78,3,0.03,31,5,0,25.1,10,1014,2.21,1117.7
2026-05-18 07:00:00.000,52,13.97,0.0,40,24.18,533.45,6,0.0,1,100,4,0.37,3.31,317,12.81,2.15,0.02,30,2.24,24100,26.6,3,0.03,34,4,0,24.4,10,1014,2.01,938.38
2026-05-18 08:00:00.000,56,14.25,0.0,52,23.39,428.01,4,0.0,1,0,5,0.29,3.5,314,13.38,1.96,0.02,11,2.26,24100,25.01,3,0.02,39,2,0,23.37,11,1014,1.68,712.0
2026-05-18 09:00:00.000,61,14.56,0.0,52,22.62,244.4,4,0.0,1,0,6,0.16,3.5,310,13.8,1.68,0.01,11,2.19,24100,23.48,3,0.02,42,1,0,22.3,11,1014,1.4,454.0
2026-05-18 10:00:00.000,66,14.88,0.0,53,22.08,69.16,4,0.0,1,0,6,0.05,3.14,302,13.94,1.2,0.02,10,1.97,24100,22.18,3,0.01,37,0,0,21.29,10,1014,1.26,181.96
2026-05-18 11:00:00.000,71,15.12,0.0,12,21.65,5.36,3,0.0,0,68,6,0.0,2.59,287,13.93,0.61,0.03,20,1.66,24100,21.05,3,0.01,29,0,0,20.36,0,1014,1.18,10.12
2026-05-18 12:00:00.000,75,15.23,0.0,0,21.17,-0.24,3,0.0,0,100,6,0.0,2.2,236,13.9,0.33,0.03,30,1.42,24100,20.18,3,0.0,24,0,0,19.64,0,1015,1.11,0.0
2026-05-18 13:00:00.000,78,15.22,0.0,0,20.59,0.0,3,0.0,0,100,6,0.0,2.12,202,13.91,0.38,0.02,30,1.33,24100,19.52,2,0.0,23,0,0,19.1,0,1015,1.03,0.0
2026-05-18 14:00:00.000,80,15.17,0.0,0,20.07,0.0,15,0.0,0,100,6,0.0,2.2,199,13.92,0.48,0.01,30,1.3,24100,19.03,1,0.0,25,0,0,18.67,0,1014,0.97,0.0
2026-05-18 15:00:00.000,81,15.13,0.0,0,19.6,0.0,15,0.0,0,100,6,0.0,2.3,194,13.9,0.61,0.0,30,1.3,24100,18.61,1,0.0,27,0,0,18.31,0,1014,0.92,0.0
2026-05-18 16:00:00.000,83,15.13,0.0,0,19.16,0.0,6,0.0,0,100,6,0.0,2.4,187,13.89,0.78,0.0,30,1.32,24100,18.23,0,0.0,28,0,10,17.99,0,1014,0.88,0.0
2026-05-18 17:00:00.000,84,15.15,0.0,0,18.77,0.0,6,0.0,0,100,6,0.0,2.51,185,13.85,1.03,0.0,30,1.37,24100,17.95,0,0.0,31,0,10,17.76,0,1014,0.85,0.0
2026-05-18 18:00:00.000,84,15.19,0.0,0,18.66,0.0,6,0.0,0,100,6,0.0,2.6,185,13.7,1.31,0.0,30,1.39,24100,17.99,0,0.0,33,0,10,17.83,0,1013,0.86,0.0
2026-05-18 19:00:00.000,81,15.24,0.0,0,19.12,0.0,6,0.0,0,100,5,0.0,2.61,187,13.37,1.5,0.0,30,1.36,24100,18.57,0,0.0,33,0,10,18.41,0,1013,0.93,0.0
2026-05-18 20:00:00.000,76,15.19,0.0,0,20.07,-1.76,6,0.0,1,100,4,0.01,2.6,189,12.94,1.63,0.01,30,1.31,24100,19.64,0,0.0,33,0,11,19.47,0,1014,1.05,0.0
2026-05-18 21:00:00.000,69,14.93,0.0,30,21.22,6.42,6,0.0,1,100,4,0.05,2.6,190,12.5,1.64,0.02,30,1.3,24100,20.91,0,0.0,33,0,11,20.73,0,1014,1.19,75.47
2026-05-18 22:00:00.000,63,14.54,0.0,40,22.36,85.73,6,0.0,1,100,3,0.08,2.63,192,12.07,1.42,0.04,30,1.36,24100,22.06,1,0.0,32,0,10,21.85,0,1014,1.34,314.46
2026-05-18 23:00:00.000,58,14.16,0.0,40,23.49,207.78,3,0.0,1,100,2,0.15,2.68,200,11.65,0.97,0.06,30,1.45,24100,23.04,2,0.0,32,1,0,22.81,0,1014,1.52,581.96
2026-05-19 00:00:00.000,55,13.93,0.0,40,24.18,388.22,3,0.0,1,100,3,0.26,2.8,214,11.3,0.75,0.09,30,1.58,24100,23.7,4,0.0,32,2,0,23.44,0,1014,1.74,826.74
2026-05-19 01:00:00.000,55,14.12,0.0,40,24.23,470.56,3,0.0,1,100,3,0.32,3.02,248,11.07,0.78,0.12,30,1.75,24100,23.72,5,0.0,31,3,0,23.43,0,1014,2.05,1032.12
2026-05-19 02:00:00.000,57,14.32,0.0,40,23.96,518.26,6,0.0,1,100,4,0.36,3.31,271,10.92,1.02,0.16,30,1.96,24100,23.57,7,0.0,30,5,0,23.26,18,1013,2.42,1184.13
2026-05-19 03:00:00.000,58,14.53,0.0,24,23.6,452.84,9,0.0,1,99,6,0.32,3.6,281,10.8,1.26,0.2,56,2.16,24100,23.31,9,0.01,30,6,0,22.98,56,1013,2.74,1272.42
2026-05-19 04:00:00.000,60,14.8,0.0,0,23.56,318.18,22,0.0,1,99,7,0.24,3.9,280,10.73,1.41,0.25,94,2.39,24079,23.31,11,0.01,29,6,0,22.96,94,1013,3.04,1290.99
2026-05-19 05:00:00.000,60,15.08,0.0,0,23.8,293.07,22,0.0,1,99,9,0.23,4.2,275,10.69,1.5,0.31,100,2.62,24059,23.52,14,0.01,29,5,0,23.15,100,1012,3.29,1238.6
2026-05-19 06:00:00.000,61,15.33,0.0,0,23.95,266.86,22,0.0,1,99,11,0.21,4.4,266,10.6,1.49,0.37,100,2.75,24100,23.59,16,0.01,29,4,0,23.2,100,1012,3.4,1118.83
2026-05-19 07:00:00.000,63,15.48,0.0,0,23.73,224.47,22,0.0,1,100,11,0.18,4.44,251,10.43,1.39,0.43,100,2.72,24283,23.24,18,0.01,29,3,0,22.85,100,1012,3.28,939.86
2026-05-19 08:00:00.000,66,15.63,0.0,0,23.12,166.91,22,0.0,1,100,11,0.14,4.37,231,10.22,1.38,0.49,100,2.59,24527,22.57,19,0.01,29,1,0,22.17,100,1012,3.01,713.9
2026-05-19 09:00:00.000,70,15.85,0.0,0,22.38,98.59,22,0.0,1,100,11,0.09,4.3,215,10.0,1.48,0.55,100,2.47,24650,21.82,20,0.01,30,0,0,21.42,100,1012,2.71,456.37
2026-05-19 10:00:00.000,75,16.16,0.0,0,21.61,30.3,22,0.0,1,100,11,0.05,4.23,203,9.79,1.7,0.61,100,2.38,24677,21.08,21,0.01,30,0,0,20.68,100,1012,2.38,184.82
2026-05-19 11:00:00.000,80,16.43,0.0,0,20.91,3.56,22,0.0,0,100,11,0.01,4.16,191,9.57,1.86,0.68,100,2.3,24581,20.39,23,0.01,31,0,0,19.97,100,1012,2.02,11.66
2026-05-19 12:00:00.000,83,16.6,0.0,0,20.36,-0.24,22,0.0,0,100,11,0.01,4.1,185,9.3,1.99,0.72,100,2.2,24100,19.86,24,0.0,32,0,0,19.44,100,1012,1.71,0.0
2026-05-19 13:00:00.000,86,16.67,0.0,0,19.98,0.0,22,0.0,0,100,10,0.0,4.08,182,8.93,1.98,0.72,100,2.06,23041,19.47,24,0.0,31,0,0,19.04,100,1012,1.49,0.0
2026-05-19 14:00:00.000,88,16.68,0.0,0,19.71,0.0,22,0.0,0,100,10,0.0,4.09,183,8.5,1.92,0.7,100,1.91,21597,19.16,24,0.0,31,0,18,18.71,100,1012,1.32,0.0
2026-05-19 15:00:00.000,89,16.72,0.0,0,19.47,0.0,22,0.0,0,100,11,0.0,4.1,184,8.1,1.89,0.68,100,1.79,20070,18.9,24,0.0,31,0,56,18.44,100,1011,1.19,0.0
2026-05-19 16:00:00.000,91,16.84,0.0,0,19.32,0.0,22,0.0,0,100,11,0.0,4.13,185,7.74,1.9,0.66,100,1.72,18491,18.71,24,0.0,30,0,94,18.24,100,1011,1.08,0.0
2026-05-19 17:00:00.000,93,17.0,0.0,0,19.22,0.0,22,0.0,0,100,11,0.0,4.17,186,7.41,1.98,0.64,100,1.68,16830,18.61,25,0.01,30,0,100,18.13,100,1011,1.01,0.0
2026-05-19 18:00:00.000,93,17.13,0.0,0,19.24,0.0,22,0.0,0,100,12,0.0,4.2,188,7.2,2.13,0.64,100,1.66,15300,18.67,26,0.01,30,0,100,18.19,100,1011,1.0,0.0
2026-05-19 19:00:00.000,91,17.21,0.0,0,19.55,0.0,22,0.0,0,100,12,0.0,4.2,190,7.16,2.27,0.68,100,1.63,13972,19.04,28,0.01,29,0,100,18.57,100,1011,1.06,0.0
2026-05-19 20:00:00.000,87,17.21,0.0,0,20.2,-1.76,22,0.0,1,100,12,0.0,4.19,191,7.24,2.37,0.74,100,1.62,12775,19.77,30,0.01,28,0,100,19.29,100,1011,1.18,0.0
2026-05-19 21:00:00.000,82,17.11,0.0,0,21.07,-3.39,22,0.0,1,100,13,0.03,4.2,191,7.3,2.37,0.81,100,1.66,11710,20.66,32,0.01,27,0,100,20.2,100,1011,1.34,76.72
2026-05-19 22:00:00.000,77,16.97,0.0,0,21.94,14.66,22,0.0,1,100,13,0.05,4.24,192,7.36,2.13,0.88,100,1.75,10721,21.4,35,0.01,26,0,100,20.97,100,1011,1.52,316.74
2026-05-19 23:00:00.000,74,16.89,0.0,0,22.81,38.13,22,0.0,1,100,14,0.06,4.31,194,7.41,1.67,0.95,100,1.9,9864,21.96,38,0.01,25,0,100,21.54,100,1011,1.73,583.78
2026-05-20 00:00:00.000,73,16.83,0.0,0,23.28,114.41,22,0.0,1,100,15,0.1,4.4,197,7.3,1.39,1.01,100,2.06,9300,22.23,41,0.01,25,1,100,21.85,100,1011,1.99,828.14
2026-05-20 01:00:00.000,74,16.82,0.0,0,23.19,126.45,22,0.0,1,100,14,0.11,4.52,213,6.94,1.15,1.04,100,2.24,9176,21.94,43,0.01,24,1,100,21.6,100,1011,2.34,1033.18
2026-05-20 02:00:00.000,75,16.71,0.0,0,22.87,129.33,22,0.0,1,100,13,0.11,4.67,233,6.43,1.03,1.06,100,2.43,9344,21.54,46,0.01,24,2,100,21.23,100,1011,2.74,1184.96
2026-05-20 03:00:00.000,76,16.62,0.0,0,22.43,136.55,22,0.0,1,100,13,0.11,4.8,248,5.9,1.0,1.07,100,2.61,9520,21.07,48,0.01,24,2,100,20.81,100,1011,3.09,1273.13
2026-05-20 04:00:00.000,77,16.68,0.0,0,22.32,143.55,22,0.0,1,100,12,0.12,4.94,254,5.38,1.01,1.07,100,2.79,9728,20.89,50,0.01,23,2,100,20.68,100,1010,3.41,1291.71
2026-05-20 05:00:00.000,77,16.82,0.0,0,22.5,154.52,22,0.0,1,100,12,0.12,5.06,251,4.84,1.02,1.08,100,2.96,9944,20.97,52,0.01,23,2,100,20.81,100,1010,3.69,1239.46
2026-05-20 06:00:00.000,78,16.97,0.0,0,22.65,153.83,22,0.0,1,100,12,0.12,5.1,240,4.3,1.02,1.09,100,3.02,9800,21.01,54,0.01,24,2,100,20.9,100,1010,3.8,1119.94
2026-05-20 07:00:00.000,79,17.07,0.0,0,22.47,135.78,22,0.0,1,100,12,0.11,4.99,222,3.76,1.06,1.1,100,2.93,9041,20.77,54,0.01,23,1,100,20.71,100,1010,3.64,941.33
2026-05-20 08:00:00.000,82,17.17,0.0,0,21.97,105.83,22,0.0,1,100,13,0.09,4.79,205,3.21,1.23,1.12,100,2.74,7922,20.3,54,0.01,23,1,100,20.28,100,1010,3.31,715.8
2026-05-20 09:00:00.000,85,17.31,0.0,0,21.39,65.58,22,0.0,1,100,14,0.06,4.6,194,2.7,1.45,1.13,100,2.56,6840,19.77,54,0.0,24,0,100,19.8,100,1010,2.94,458.74
2026-05-20 10:00:00.000,89,17.5,0.0,0,20.81,21.78,22,0.0,1,100,15,0.03,4.44,187,2.21,1.74,1.15,100,2.39,5779,19.27,54,0.0,24,0,100,19.34,100,1010,2.55,187.68
2026-05-20 11:00:00.000,92,17.67,0.0,0,20.33,3.14,22,0.0,0,100,16,0.01,4.29,180,1.76,1.97,1.17,100,2.22,4755,18.82,53,0.0,25,0,100,18.94,100,1010,2.13,13.2
2026-05-20 12:00:00.000,94,17.77,0.0,0,19.99,-0.24,22,0.0,0,100,17,0.0,4.2,176,1.4,2.09,1.15,100,2.1,4200,18.49,52,0.0,26,0,100,18.64,100,1010,1.8,0.0
2026-05-20 13:00:00.000,96,17.73,0.0,0,19.76,0.0,22,0.0,0,100,16,0.0,4.19,175,1.16,2.0,1.09,100,2.04,4420,18.18,51,0.0,26,0,100,18.37,100,1010,1.61,0.0
2026-05-20 14:00:00.000,96,17.61,0.0,0,19.58,0.0,22,0.0,0,100,16,0.0,4.23,177,1.01,1.81,0.99,100,2.02,5108,17.89,49,0.0,27,0,100,18.1,100,1010,1.5,0.0
2026-05-20 15:00:00.000,97,17.52,0.0,0,19.41,0.0,22,0.0,0,100,16,0.0,4.3,178,0.9,1.69,0.91,100,2.01,5780,17.65,48,0.0,29,0,100,17.89,100,1010,1.43,0.0
2026-05-20 16:00:00.000,98,17.51,0.0,0,19.3,0.0,22,0.0,0,100,15,0.0,4.42,178,0.83,1.64,0.83,100,2.03,6486,17.49,46,0.0,30,0,100,17.74,100,1009,1.38,0.0
2026-05-20 17:00:00.000,99,17.52,0.0,0,19.2,0.0,22,0.0,0,100,15,0.0,4.58,181,0.81,1.68,0.76,100,2.07,7174,17.41,45,0.0,31,0,100,17.68,100,1009,1.38,0.0
2026-05-20 18:00:00.000,98,17.56,0.0,0,19.25,0.0,22,0.0,0,100,16,0.0,4.7,184,0.8,1.81,0.74,100,2.11,7200,17.51,44,0.0,32,0,100,17.79,100,1009,1.4,0.0
2026-05-20 19:00:00.000,96,17.62,0.0,0,19.63,0.0,22,0.0,0,100,16,0.0,4.76,187,0.79,1.95,0.79,100,2.14,6044,17.96,44,0.0,31,0,100,18.25,100,1009,1.45,0.0
2026-05-20 20:00:00.000,91,17.65,0.0,0,20.38,-1.76,22,0.0,1,100,17,0.0,4.78,189,0.78,2.1,0.89,100,2.17,4224,18.78,45,0.0,29,0,100,19.09,94,1009,1.53,0.0
2026-05-20 21:00:00.000,85,17.58,0.0,0,21.32,-4.08,22,0.0,1,100,18,0.03,4.8,190,0.8,2.15,1.0,100,2.22,2650,19.8,46,0.0,28,0,100,20.1,56,1010,1.64,77.86
2026-05-20 22:00:00.000,80,17.43,0.0,0,22.24,13.83,22,0.0,1,100,19,0.05,4.84,192,0.86,1.99,1.11,100,2.31,1258,20.68,47,0.0,26,0,100,20.97,18,1010,1.76,318.8
2026-05-20 23:00:00.000,76,17.32,0.0,0,23.12,45.32,22,0.0,1,100,20,0.06,4.87,198,0.93,1.64,1.23,100,2.42,112,21.39,48,0.0,24,0,100,21.66,0,1010,1.91,585.37
2026-05-21 00:00:00.000,74,17.26,0.0,0,23.64,139.97,22,0.0,1,100,22,0.12,4.9,205,1.0,1.46,1.3,100,2.5,300,21.89,50,0.0,24,1,100,22.08,0,1010,2.12,829.33
2026-05-21 01:00:00.000,75,17.35,0.0,0,23.64,158.77,22,0.0,1,100,22,0.13,4.91,222,1.04,1.35,1.28,100,2.54,2582,21.92,51,0.0,23,3,100,21.96,0,1010,2.42,1034.06
2026-05-21 02:00:00.000,76,17.39,0.0,0,23.43,166.19,22,0.0,1,100,22,0.13,4.91,239,1.07,1.35,1.21,100,2.56,6200,21.91,53,0.0,24,4,100,21.73,0,1009,2.77,1185.63
2026-05-21 03:00:00.000,77,17.43,0.0,0,23.11,175.48,22,0.0,1,100,22,0.14,4.9,250,1.1,1.41,1.13,100,2.58,9960,21.8,55,0.0,25,4,100,21.43,0,1009,3.09,1273.71
2026-05-21 04:00:00.000,78,17.59,0.0,0,23.09,182.03,22,0.0,1,100,22,0.14,4.89,254,1.16,1.51,1.05,100,2.62,13810,21.97,56,0.01,25,3,100,21.41,0,1009,3.38,1292.34
2026-05-21 05:00:00.000,78,17.83,0.0,0,23.37,190.16,22,0.0,1,100,22,0.15,4.87,251,1.22,1.59,0.96,100,2.67,17802,22.38,58,0.01,27,2,100,21.64,0,1009,3.63,1240.24
2026-05-21 06:00:00.000,79,18.03,3.12,0,23.57,184.62,23,0.0,1,100,23,0.14,4.8,244,1.2,1.65,0.89,100,2.66,20900,22.6,58,0.01,28,0,100,21.79,0,1008,3.71,1120.99
2026-05-21 07:00:00.000,80,18.13,0.0,0,23.42,163.61,22,0.0,1,100,24,0.13,4.66,234,1.05,1.64,0.84,100,2.57,22551,22.34,57,0.01,28,0,100,21.6,0,1008,3.54,942.73
2026-05-21 08:00:00.000,83,18.18,0.0,0,22.96,127.84,22,0.0,1,100,25,0.1,4.47,222,0.83,1.69,0.81,100,2.43,23308,21.71,54,0.02,28,0,100,21.14,0,1009,3.2,717.62
2026-05-21 09:00:00.000,86,18.29,0.0,0,22.4,79.34,22,0.0,1,100,27,0.07,4.3,212,0.6,1.79,0.78,100,2.3,23780,21.0,52,0.02,28,0,100,20.61,0,1009,2.83,461.0
2026-05-21 10:00:00.000,90,18.45,0.0,0,21.84,26.23,22,0.0,1,100,28,0.03,4.14,204,0.39,1.96,0.75,100,2.22,24080,20.29,49,0.02,27,0,100,20.09,0,1009,2.44,190.38
2026-05-21 11:00:00.000,93,18.61,0.0,0,21.36,3.47,22,0.0,0,100,30,0.01,3.99,195,0.19,2.07,0.73,100,2.15,24097,19.62,46,0.02,27,0,100,19.61,0,1009,2.03,14.66
2026-05-21 12:00:00.000,96,18.7,0.0,0,20.99,-0.24,22,0.0,0,100,33,0.0,3.9,190,0.0,2.12,0.7,100,2.08,24100,19.1,43,0.02,28,0,100,19.24,0,1009,1.71,0.0
2026-05-21 13:00:00.000,98,18.69,0.0,0,20.72,0.0,22,0.0,0,100,35,0.0,3.89,188,-0.14,2.01,0.67,100,2.0,24190,18.68,40,0.02,28,0,100,18.89,0,1009,1.54,0.0
2026-05-21 14:00:00.000,100,18.55,0.0,0,20.44,0.0,22,0.0,0,100,38,0.0,3.93,189,-0.26,1.84,0.64,100,1.91,24267,18.33,37,0.02,29,0,100,18.56,10,1009,1.47,0.0
2026-05-21 15:00:00.000,100,18.27,0.0,0,20.11,0.0,22,0.0,0,100,41,0.0,4.0,191,-0.4,1.72,0.61,100,1.86,24300,18.06,35,0.01,30,0,100,18.28,11,1009,1.42,0.0
2026-05-21 16:00:00.000,100,18.08,0.0,0,19.87,0.0,22,0.0,0,100,44,0.0,4.11,194,-0.58,1.66,0.59,100,1.84,24255,17.87,33,0.01,30,0,100,18.08,11,1008,1.39,0.0
2026-05-21 17:00:00.000,100,17.96,0.0,0,19.67,0.0,22,0.0,0,100,47,0.0,4.26,200,-0.78,1.7,0.57,100,1.86,24166,17.8,31,0.0,31,0,100,17.97,10,1008,1.39,0.0
2026-05-21 18:00:00.000,100,18.08,0.0,0,19.74,0.0,22,0.0,0,100,50,0.0,4.4,203,-1.0,1.85,0.57,100,1.92,24100,17.96,30,0.0,32,0,100,18.08,10,1008,1.4,0.0
2026-05-21 19:00:00.000,99,18.46,0.0,0,20.32,0.0,22,0.0,0,100,50,0.0,4.53,203,-1.25,2.03,0.6,100,2.04,24085,18.56,29,0.0,30,0,100,18.61,10,1008,1.4,0.0
2026-05-21 20:00:00.000,92,18.37,0.0,0,21.11,-1.76,22,0.0,1,100,50,0.0,4.67,201,-1.53,2.19,0.64,100,2.2,24092,19.59,29,0.0,28,0,100,19.56,10,1008,1.41,0.0
2026-05-21 21:00:00.000,85,18.15,0.0,0,22.09,-2.26,22,0.0,1,100,51,0.03,4.8,200,-1.8,2.26,0.68,100,2.39,24100,20.81,29,0.0,27,0,100,20.69,0,1009,1.44,78.84
2026-05-21 22:00:00.000,78,17.85,0.0,0,23.04,26.18,22,0.0,1,100,51,0.05,4.94,202,-2.09,2.13,0.72,100,2.6,24100,21.9,29,0.0,25,0,100,21.69,0,1009,1.48,320.56
2026-05-21 23:00:00.000,73,17.56,0.0,0,23.95,73.7,22,0.0,1,100,52,0.08,5.09,209,-2.39,1.82,0.77,100,2.83,24100,22.81,30,0.0,23,0,100,22.51,0,1009,1.55,586.72
2026-05-22 00:00:00.000,70,17.32,0.0,0,24.49,185.12,22,0.0,1,100,53,0.15,5.2,217,-2.6,1.67,0.8,100,3.0,24100,23.43,32,0.01,23,0,100,23.05,0,1009,1.68,830.32
2026-05-22 01:00:00.000,70,17.26,0.0,0,24.48,219.31,22,0.0,1,100,54,0.17,5.26,235,-2.69,1.62,0.8,100,3.09,24100,23.47,34,0.01,23,0,100,23.03,0,1009,1.92,1034.79
2026-05-22 02:00:00.000,70,17.18,0.0,6,24.25,282.02,21,0.0,1,100,56,0.21,5.28,253,-2.69,1.7,0.79,84,3.12,24100,23.39,37,0.02,25,0,84,22.89,0,1008,2.23,1186.18
2026-05-22 03:00:00.000,70,17.12,0.0,33,23.9,433.49,9,0.0,1,100,58,0.3,5.3,265,-2.7,1.84,0.77,40,3.14,24100,23.2,40,0.02,28,0,40,22.66,0,1008,2.51,1274.22
2026-05-22 04:00:00.000,71,17.17,0.0,40,23.88,483.43,3,0.0,1,100,59,0.33,5.35,269,-2.71,1.96,0.77,30,3.17,24088,23.27,43,0.03,30,0,0,22.7,0,1008,2.77,1292.91
2026-05-22 05:00:00.000,70,17.27,0.0,40,24.14,483.67,3,0.0,1,100,61,0.33,5.4,269,-2.71,2.03,0.76,30,3.18,24076,23.54,45,0.03,33,0,0,22.96,0,1008,3.01,1240.99
2026-05-22 06:00:00.000,70,17.38,0.0,40,24.34,451.03,3,0.0,1,100,63,0.31,5.4,264,-2.8,2.0,0.75,30,3.14,24100,23.65,47,0.03,35,0,0,23.1,0,1008,3.11,1122.02
2026-05-22 07:00:00.000,71,17.47,0.0,40,24.21,381.91,3,0.0,1,100,62,0.26,5.3,253,-3.02,1.86,0.73,30,3.01,24206,23.3,47,0.03,35,0,0,22.84,0,1008,2.99,944.11
2026-05-22 08:00:00.000,74,17.57,0.0,40,23.73,285.63,3,0.0,1,100,61,0.19,5.14,238,-3.31,1.78,0.71,30,2.82,24348,22.6,46,0.03,35,0,0,22.26,0,1008,2.74,719.42
2026-05-22 09:00:00.000,78,17.71,0.0,40,23.11,169.95,3,0.0,1,100,60,0.12,5.0,224,-3.6,1.82,0.69,30,2.64,24420,21.81,45,0.03,36,0,0,21.6,0,1008,2.46,463.25
2026-05-22 10:00:00.000,82,17.88,0.0,40,22.43,52.82,15,0.0,1,100,59,0.05,4.89,211,-3.89,1.96,0.69,30,2.49,24457,21.02,43,0.03,36,0,0,20.94,0,1008,2.17,193.07
2026-05-22 11:00:00.000,86,18.01,0.0,12,21.8,5.21,15,0.0,0,100,58,0.01,4.8,200,-4.17,2.06,0.69,30,2.34,24423,20.27,42,0.02,36,0,0,20.32,0,1009,1.85,16.1
2026-05-22 12:00:00.000,89,18.08,0.0,0,21.29,-0.24,15,0.0,0,100,59,0.0,4.7,192,-4.3,2.14,0.71,30,2.2,24100,19.69,41,0.02,37,0,0,19.83,0,1009,1.61,0.0
2026-05-22 13:00:00.000,92,18.07,0.0,0,20.91,0.0,15,0.0,0,100,61,0.0,4.59,189,-4.21,2.06,0.76,30,2.06,23292,19.23,41,0.02,36,0,0,19.4,0,1009,1.5,0.0
2026-05-22 14:00:00.000,94,18.02,0.0,0,20.6,0.0,15,0.0,0,100,65,0.0,4.49,188,-3.97,1.91,0.83,30,1.93,22194,18.85,41,0.01,36,0,0,19.01,0,1008,1.46,0.0
2026-05-22 15:00:00.000,95,17.99,0.0,0,20.34,0.0,9,0.0,0,100,70,0.0,4.4,188,-3.7,1.8,0.91,40,1.84,21170,18.56,42,0.01,36,0,40,18.69,0,1008,1.45,0.0
2026-05-22 16:00:00.000,97,18.03,0.0,0,20.16,0.0,21,0.0,0,100,74,0.0,4.34,188,-3.41,1.74,0.99,84,1.79,20196,18.36,42,0.01,35,0,84,18.45,0,1008,1.45,0.0
2026-05-22 17:00:00.000,98,18.09,0.0,0,20.04,0.0,22,0.0,0,100,79,0.0,4.3,191,-3.09,1.75,1.08,100,1.79,19295,18.27,43,0.01,35,0,100,18.3,0,1008,1.47,0.0
2026-05-22 18:00:00.000,98,18.16,0.0,0,20.08,0.0,22,0.0,0,100,83,0.0,4.3,193,-2.8,1.85,1.17,100,1.8,18900,18.42,45,0.0,35,0,100,18.39,0,1008,1.5,0.0
2026-05-22 19:00:00.000,95,18.2,0.0,0,20.52,0.0,22,0.0,0,100,84,0.0,4.33,194,-2.57,1.97,1.26,100,1.82,19295,18.97,46,0.0,34,0,100,18.89,0,1008,1.51,0.0
2026-05-22 20:00:00.000,90,18.17,0.0,0,21.36,-1.76,22,0.0,1,100,84,0.0,4.4,193,-2.37,2.07,1.36,100,1.86,20196,19.94,48,0.0,34,0,100,19.81,0,1008,1.52,0.0
2026-05-22 21:00:00.000,83,18.01,0.0,0,22.4,-0.9,22,0.0,1,100,84,0.03,4.5,193,-2.2,2.07,1.44,100,1.94,21170,21.13,50,0.0,35,0,100,20.93,0,1008,1.56,79.81
2026-05-22 22:00:00.000,77,17.75,0.0,0,23.41,32.11,22,0.0,1,100,83,0.06,4.64,195,-2.04,1.87,1.52,100,2.08,22194,22.2,52,0.0,35,0,100,21.92,0,1008,1.61,322.32
2026-05-22 23:00:00.000,72,17.49,0.0,0,24.39,80.55,22,0.0,1,100,83,0.09,4.82,201,-1.91,1.47,1.59,100,2.26,23292,23.12,54,0.0,35,0,100,22.73,0,1009,1.68,588.06
2026-05-23 00:00:00.000,69,17.3,5.84,0,24.97,186.34,23,0.0,1,100,83,0.15,5.0,209,-1.8,1.28,1.64,100,2.44,24100,23.83,56,0.01,36,1,100,23.27,0,1009,1.83,831.31
2026-05-23 01:00:00.000,69,17.31,5.89,0,24.98,217.83,23,0.0,1,100,84,0.17,5.18,228,-1.71,1.24,1.67,100,2.62,24423,24.09,56,0.01,36,3,100,23.24,0,1009,2.11,1035.51
2026-05-23 02:00:00.000,69,17.3,5.88,0,24.76,234.16,23,0.0,1,100,85,0.18,5.36,245,-1.65,1.34,1.69,100,2.8,24457,24.3,56,0.02,35,3,100,23.09,0,1008,2.47,1186.74
2026-05-23 03:00:00.000,70,17.31,5.84,0,24.43,247.97,23,0.0,1,100,87,0.19,5.5,255,-1.6,1.48,1.69,100,2.97,24420,24.38,56,0.03,36,2,100,22.85,0,1008,2.8,1274.72
2026-05-23 04:00:00.000,71,17.44,5.8,0,24.42,254.41,23,0.0,1,100,88,0.2,5.63,258,-1.58,1.62,1.68,100,3.16,24346,24.71,56,0.03,36,-1,100,22.88,0,1008,3.11,1293.47
2026-05-23 05:00:00.000,71,17.63,5.74,0,24.68,258.0,23,0.0,1,100,89,0.2,5.73,256,-1.57,1.73,1.66,100,3.35,24202,25.24,56,0.04,36,None,100,23.15,0,1008,3.38,1241.73
2026-05-23 06:00:00.000,71,17.79,5.64,0,24.86,243.96,23,0.0,1,100,90,0.19,5.7,250,-1.5,1.79,1.61,100,3.41,24100,25.47,56,0.04,37,None,100,23.29,0,1008,3.5,1123.03
2026-05-23 07:00:00.000,72,17.84,5.48,0,24.65,211.75,23,0.0,1,100,88,0.17,5.48,240,-1.29,1.77,1.51,100,3.28,24096,25.05,56,0.04,36,None,100,23.05,0,1008,3.37,945.49
2026-05-23 08:00:00.000,75,17.88,5.28,6,24.11,186.06,23,0.0,1,100,87,0.14,5.13,229,-1.02,1.79,1.37,84,3.03,24134,24.15,55,0.04,36,None,84,22.5,0,1008,3.08,721.21
2026-05-23 09:00:00.000,78,17.96,5.12,34,23.48,150.32,31,0.0,1,100,85,0.11,4.8,219,-0.8,1.83,1.26,40,2.78,24160,23.14,55,0.03,36,-1,40,21.86,0,1008,2.76,465.49
2026-05-23 10:00:00.000,82,18.09,0.0,40,22.85,50.1,15,0.0,1,100,83,0.05,4.49,209,-0.65,1.91,1.16,30,2.57,24162,22.12,54,0.03,35,0,0,21.23,0,1008,2.42,195.76
2026-05-23 11:00:00.000,85,18.19,0.0,13,22.29,5.14,15,0.0,0,100,81,0.01,4.2,198,-0.55,1.92,1.07,30,2.36,24151,21.12,54,0.02,35,0,0,20.63,0,1009,2.06,17.55
2026-05-23 12:00:00.000,88,18.21,0.0,0,21.81,-0.24,15,0.0,0,100,79,0.0,4.0,191,-0.6,1.92,1.06,30,2.2,24100,20.34,52,0.02,36,0,0,20.14,0,1009,1.8,0.0
2026-05-23 13:00:00.000,90,18.12,0.0,0,21.39,0.0,15,0.0,0,100,76,0.0,3.96,188,-0.87,1.82,1.17,30,2.09,23989,19.77,49,0.01,36,0,0,19.69,0,1009,1.7,0.0
2026-05-23 14:00:00.000,92,17.98,0.0,0,20.98,0.0,15,0.0,0,100,73,0.0,4.01,189,-1.28,1.68,1.36,30,2.03,23837,19.34,46,0.01,36,0,0,19.25,0,1009,1.69,0.0
2026-05-23 15:00:00.000,93,17.85,0.0,0,20.61,0.0,15,0.0,0,100,71,0.0,4.1,189,-1.7,1.61,1.55,30,2.01,23670,19.01,42,0.01,37,0,0,18.89,0,1009,1.71,0.0
2026-05-23 16:00:00.000,95,17.8,0.0,0,20.33,0.0,15,0.0,0,100,68,0.0,4.21,187,-2.14,1.59,1.73,30,2.05,23459,18.79,39,0.0,37,0,0,18.61,0,1008,1.74,0.0
2026-05-23 17:00:00.000,95,17.77,0.0,0,20.08,0.0,15,0.0,0,100,65,0.0,4.36,186,-2.59,1.66,1.91,30,2.12,23234,18.69,35,0.0,38,0,0,18.43,0,1008,1.78,0.0
2026-05-23 18:00:00.000,95,17.77,0.0,0,20.03,0.0,15,0.0,0,100,63,0.0,4.5,187,-2.9,1.82,2.01,30,2.19,23100,18.84,33,0.0,39,0,0,18.49,0,1008,1.8,0.0
2026-05-23 19:00:00.000,92,17.77,0.0,0,20.42,0.0,15,0.0,0,100,59,0.0,4.6,188,-2.99,1.97,1.97,30,2.25,23185,19.4,32,0.0,39,0,0,18.98,0,1008,1.75,0.0
2026-05-23 20:00:00.000,87,17.72,0.0,0,21.22,-1.76,6,0.0,1,100,56,0.0,4.7,187,-2.95,2.1,1.84,30,2.3,23362,20.38,32,0.0,39,0,19,19.9,0,1009,1.68,0.0
2026-05-23 21:00:00.000,80,17.53,0.0,15,22.24,1.57,9,0.0,1,100,54,0.04,4.8,187,-2.9,2.13,1.7,63,2.37,23350,21.58,32,0.0,39,0,63,21.03,0,1009,1.62,80.78
2026-05-23 22:00:00.000,74,17.24,0.0,0,23.24,30.17,22,0.0,1,100,52,0.06,4.92,188,-2.84,1.96,1.54,100,2.48,23248,22.67,33,0.0,39,0,100,22.03,0,1009,1.58,324.07
2026-05-23 23:00:00.000,69,16.97,0.0,0,24.23,77.13,22,0.0,1,100,51,0.09,5.06,191,-2.78,1.58,1.37,100,2.61,22958,23.62,34,0.0,39,0,100,22.87,0,1009,1.55,589.4
2026-05-24 00:00:00.000,66,16.79,0.0,0,24.88,183.03,22,0.0,1,100,52,0.15,5.2,197,-2.8,1.39,1.22,100,2.75,21900,24.37,35,0.0,39,1,100,23.47,0,1010,1.61,832.3
2026-05-24 01:00:00.000,66,16.85,0.0,0,25.07,217.74,22,0.0,1,100,56,0.17,5.37,217,-2.98,1.27,1.12,100,2.88,19547,24.68,35,0.01,38,1,100,23.55,0,1009,1.81,1036.22
2026-05-24 02:00:00.000,66,16.89,0.0,0,25.03,239.08,22,0.0,1,100,62,0.19,5.54,239,-3.25,1.34,1.04,100,3.02,16425,24.96,36,0.02,38,2,100,23.54,0,1009,2.1,1187.29
2026-05-24 03:00:00.000,66,16.95,0.0,0,24.85,258.82,22,0.0,1,100,69,0.2,5.7,252,-3.5,1.5,0.98,100,3.14,13530,25.1,36,0.03,38,3,100,23.44,0,1009,2.37,1275.21
2026-05-24 04:00:00.000,66,17.1,0.0,15,24.95,365.17,9,0.0,1,100,75,0.27,5.85,256,-3.73,1.68,0.93,69,3.26,10758,25.49,37,0.04,37,3,69,23.61,0,1009,2.63,1294.03
2026-05-24 05:00:00.000,66,17.3,0.0,36,25.32,472.82,6,0.0,1,100,83,0.33,5.97,256,-3.94,1.83,0.9,36,3.37,8212,26.08,38,0.05,37,3,36,23.99,0,1008,2.88,1242.46
2026-05-24 06:00:00.000,66,17.51,0.0,40,25.57,461.7,6,0.0,1,100,89,0.32,6.0,251,-4.0,1.89,0.87,30,3.4,7200,26.34,39,0.06,37,3,16,24.2,0,1008,3.0,1124.05
2026-05-24 07:00:00.000,68,17.71,0.0,40,25.43,383.65,6,0.0,1,100,92,0.27,5.86,241,-3.81,1.83,0.86,30,3.3,8662,25.91,39,0.06,36,2,19,23.92,0,1008,2.92,946.86
2026-05-24 08:00:00.000,72,17.95,0.0,36,24.91,271.71,6,0.0,1,100,94,0.19,5.63,227,-3.47,1.8,0.85,36,3.13,11656,24.98,39,0.05,35,1,36,23.28,0,1008,2.72,723.0
2026-05-24 09:00:00.000,76,18.21,0.0,24,24.25,142.71,9,0.0,1,100,96,0.11,5.4,215,-3.1,1.84,0.85,56,2.95,14660,23.93,40,0.05,35,0,56,22.54,0,1009,2.5,467.72
2026-05-24 10:00:00.000,81,18.48,0.0,8,23.54,38.66,21,0.0,1,100,97,0.05,5.2,203,-2.74,1.99,0.86,81,2.8,17710,22.87,40,0.04,34,0,81,21.8,0,1009,2.26,198.44
2026-05-24 11:00:00.000,86,18.67,0.0,0,22.85,4.22,22,0.0,0,100,98,0.02,5.01,191,-2.36,2.09,0.89,92,2.64,20769,21.82,41,0.04,34,0,92,21.09,0,1009,2.0,18.99
2026-05-24 12:00:00.000,89,18.78,0.0,0,22.28,-0.24,22,0.0,0,100,99,0.0,4.9,184,-2.0,2.19,0.91,100,2.51,22200,21.0,41,0.03,34,0,100,20.54,0,1009,1.8,0.0
2026-05-24 13:00:00.000,92,18.8,0.0,0,21.88,0.0,22,0.0,0,100,99,0.0,4.91,182,-1.67,2.15,0.53,100,2.4,20907,20.41,49,0.03,33,0,100,20.1,0,1009,1.7,0.0
2026-05-24 14:00:00.000,94,18.76,0.0,0,21.56,0.0,22,0.0,0,100,99,0.0,4.99,185,-1.36,2.05,0.51,100,2.32,17985,19.95,49,0.02,33,0,100,19.73,0,1009,1.65,0.0
2026-05-24 15:00:00.000,95,18.72,0.0,0,21.27,0.0,22,0.0,0,100,99,0.0,5.1,187,-1.1,2.0,0.5,100,2.28,15080,19.6,49,0.02,34,0,100,19.43,0,1009,1.62,0.0
2026-05-24 16:00:00.000,97,18.74,0.0,0,21.06,0.0,22,0.0,0,100,99,0.0,5.24,187,-0.89,2.01,0.49,100,2.3,12221,19.35,48,0.01,34,0,100,19.21,0,1008,1.6,0.0
2026-05-24 17:00:00.000,98,18.77,0.0,0,20.89,0.0,22,0.0,0,100,99,0.0,5.4,189,-0.72,2.1,0.5,100,2.37,9377,19.25,48,0.01,34,0,100,19.09,0,1008,1.61,0.0
2026-05-24 18:00:00.000,97,18.79,0.0,0,20.9,0.0,22,0.0,0,100,99,0.0,5.5,190,-0.6,2.25,0.53,100,2.42,8100,19.4,48,0.01,35,0,100,19.19,0,1008,1.61,0.0
2026-05-24 19:00:00.000,94,18.8,0.0,0,21.32,0.0,22,0.0,0,100,98,0.0,5.5,192,-0.51,2.35,0.63,100,2.43,9360,20.02,46,0.0,35,0,100,19.68,0,1008,1.6,0.0
2026-05-24 20:00:00.000,89,18.73,0.0,0,22.14,-1.76,22,0.0,1,100,97,0.0,5.45,192,-0.47,2.41,0.77,100,2.44,12186,21.08,45,0.0,35,0,100,20.58,0,1008,1.59,0.0
2026-05-24 21:00:00.000,82,18.53,0.0,0,23.16,-1.29,22,0.0,1,100,97,0.03,5.4,191,-0.5,2.37,0.9,100,2.47,15210,22.33,44,0.0,36,0,100,21.66,0,1009,1.6,81.76
2026-05-24 22:00:00.000,76,18.27,0.0,0,24.19,29.08,22,0.0,1,100,96,0.06,5.35,192,-0.61,2.09,1.02,100,2.55,18333,23.44,42,0.0,36,0,100,22.61,0,1009,1.63,325.82
2026-05-24 23:00:00.000,72,18.05,0.0,0,25.2,73.68,22,0.0,1,100,96,0.08,5.3,197,-0.78,1.59,1.15,100,2.67,21655,24.38,41,0.01,36,1,100,23.38,0,1009,1.68,590.74
2026-05-25 00:00:00.000,69,17.88,0.0,0,25.81,176.72,22,0.0,1,100,97,0.15,5.3,203,-1.0,1.33,1.23,100,2.8,24100,24.96,41,0.01,37,2,100,23.88,0,1009,1.8,833.28
