time,relativehumidity,dewpointtemperature,precipitation,sunshinetime,felttemperature,ghi_backwards,pictocode,snowfraction,isdaylight,highclouds,cape,referenceevapotranspiration_fao,gust,winddirection,liftedindex,windspeed,precipitation_spread,totalcloudcover,windspeed_spread,visibility,skintemperature,precipitation_probability,evapotranspiration,totalcloudcover_spread,uvindex,lowclouds,temperature,midclouds,sealevelpressure,temperature_spread,extraterrestrialradiation_backwards
2026-05-15 00:00:00.000,64,14.51,0.0,29,21.69,655.0,7,0.0,1,0,1,0.39,6.8,55,5.69,2.61,0.0,48,0.54,13430,26.6,5,0.14,0,4,48,21.45,0,1020,0.41,820.86
2026-05-15 01:00:00.000,57,14.25,0.0,56,24.3,872.0,1,0.0,1,0,3,0.55,7.16,43,5.19,2.7,0.0,4,0.56,15630,29.54,5,0.18,0,4,4,23.03,0,1020,0.39,1027.62
2026-05-15 02:00:00.000,52,14.1,0.0,59,25.47,874.92,1,0.0,1,0,6,0.57,7.09,34,5.06,2.79,0.0,1,0.6,17630,31.83,2,0.23,0,6,1,24.31,0,1019,0.37,1180.59
2026-05-15 03:00:00.000,50,14.0,0.0,57,26.39,966.63,1,0.0,1,0,10,0.64,7.15,27,5.11,2.95,0.02,3,0.64,20430,33.27,1,0.26,0,8,3,24.91,0,1019,0.37,1269.37
2026-05-15 04:00:00.000,48,13.83,0.0,55,26.62,965.56,1,0.0,1,0,7,0.65,7.56,23,5.07,3.1,0.07,6,0.67,17820,32.73,0,0.27,0,9,6,25.33,0,1019,0.41,1287.92
2026-05-15 05:00:00.000,48,13.62,0.0,60,25.96,884.15,1,0.0,1,0,5,0.6,7.95,21,4.94,3.18,0.15,0,0.69,14020,30.83,0,0.24,0,8,0,25.24,0,1019,0.47,1235.0
2026-05-15 06:00:00.000,49,13.55,0.0,60,24.83,749.27,1,0.0,1,0,3,0.51,8.2,22,5.33,3.18,0.2,0,0.71,13420,29.07,0,0.2,0,7,0,24.87,0,1018,0.5,1114.24
2026-05-15 07:00:00.000,51,13.52,0.0,60,23.4,644.63,1,0.0,1,0,2,0.43,8.32,24,5.61,3.18,0.22,0,0.72,12620,26.68,0,0.17,1,4,0,24.0,0,1018,0.48,933.88
2026-05-15 08:00:00.000,55,13.58,0.0,60,21.95,463.15,1,0.0,1,0,1,0.31,7.06,28,6.0,3.04,0.22,0,0.73,11420,23.79,0,0.12,2,2,0,22.93,0,1019,0.43,706.23
2026-05-15 09:00:00.000,59,13.69,0.0,60,21.1,255.5,1,0.0,1,0,0,0.18,6.5,33,6.21,2.72,0.2,0,0.72,10630,20.61,0,0.07,4,1,0,21.82,0,1019,0.4,446.82
2026-05-15 10:00:00.000,63,13.66,0.0,60,20.29,69.54,1,0.0,1,0,0,0.07,6.13,39,6.43,2.36,0.14,0,0.67,9230,16.96,0,0.02,3,0,0,20.76,0,1019,0.39,173.34
2026-05-15 11:00:00.000,66,13.51,0.0,13,19.64,0.79,1,0.0,0,0,0,0.04,5.16,49,6.62,1.97,0.06,0,0.6,9630,15.6,0,0.0,2,0,0,19.89,0,1020,0.39,5.46
2026-05-15 12:00:00.000,69,13.38,0.0,0,18.97,0.0,1,0.0,0,0,0,0.02,4.68,69,7.07,1.7,0.0,0,0.54,9840,14.94,0,0.0,2,0,0,19.07,0,1020,0.4,0.0
2026-05-15 13:00:00.000,71,13.2,0.0,0,18.49,0.0,1,0.0,0,0,0,0.01,4.62,92,7.59,1.49,0.0,1,0.49,9880,13.86,0,0.0,1,0,1,18.51,0,1020,0.43,0.0
2026-05-15 14:00:00.000,72,12.97,0.0,0,18.02,0.0,1,0.0,0,0,0,0.01,4.23,113,5.99,1.39,0.0,1,0.44,9680,13.13,0,0.0,0,0,1,18.06,0,1020,0.47,0.0
2026-05-15 15:00:00.000,75,13.17,0.0,0,17.58,0.0,1,0.0,0,0,0,0.01,2.76,128,4.32,1.33,0.0,0,0.41,9890,12.84,0,0.0,0,0,0,17.49,0,1020,0.5,0.0
2026-05-15 16:00:00.000,79,13.3,0.0,0,17.2,0.0,1,0.0,0,0,0,0.0,2.29,138,4.42,1.18,0.0,0,0.41,11490,12.18,0,0.0,0,0,0,16.97,0,1020,0.5,0.0
2026-05-15 17:00:00.000,81,13.37,0.0,0,16.83,0.0,13,0.0,0,0,0,0.0,2.33,147,4.9,1.02,0.0,0,0.44,13480,11.56,0,0.0,0,0,0,16.46,0,1020,0.48,0.0
2026-05-15 18:00:00.000,83,13.35,0.0,0,16.44,0.0,13,0.0,0,0,0,0.0,2.41,159,4.6,1.02,0.0,0,0.45,14280,11.06,0,0.0,0,0,0,16.08,0,1020,0.46,0.0
2026-05-15 19:00:00.000,85,13.41,0.0,0,16.21,0.0,13,0.0,0,0,0,0.0,2.05,173,4.34,1.01,0.0,0,0.42,14270,10.55,0,0.0,0,0,0,15.83,0,1021,0.45,0.0
2026-05-15 20:00:00.000,83,13.46,0.0,0,16.77,0.0,13,0.0,1,0,0,0.0,1.86,176,4.64,0.92,0.0,0,0.37,13830,10.29,0,0.0,0,0,0,16.3,0,1021,0.44,0.0
2026-05-15 21:00:00.000,75,13.41,0.0,43,18.3,19.49,1,0.0,1,0,0,0.02,1.85,175,5.09,0.79,0.0,0,0.36,13630,15.95,0,0.0,0,0,0,17.76,0,1021,0.43,71.72
2026-05-15 22:00:00.000,65,13.39,0.0,60,20.78,155.48,1,0.0,1,0,0,0.08,1.85,170,5.5,0.61,0.0,0,0.42,13630,21.52,0,0.05,0,0,0,20.13,0,1021,0.43,307.6
2026-05-15 23:00:00.000,57,13.52,0.0,60,23.22,354.4,1,0.0,1,0,0,0.21,2.49,339,5.23,0.5,0.0,0,0.53,14830,26.15,0,0.12,0,1,0,22.44,0,1022,0.43,576.49
2026-05-16 00:00:00.000,51,13.69,0.0,60,25.15,556.32,1,0.0,1,0,0,0.36,2.35,338,4.7,0.56,0.0,0,0.64,15620,29.27,0,0.15,0,2,0,24.31,0,1022,0.44,822.5
2026-05-16 01:00:00.000,48,13.83,0.0,60,27.1,732.54,1,0.0,1,0,1,0.49,3.03,338,4.36,0.9,0.0,0,0.73,16230,31.48,0,0.2,0,4,0,25.33,0,1022,0.48,1028.88
2026-05-16 02:00:00.000,48,14.09,0.0,60,28.13,860.68,1,0.0,1,0,2,0.59,3.94,339,4.11,1.4,0.0,0,0.82,1820,32.67,0,0.22,0,6,0,25.88,0,1021,0.52,1181.58
2026-05-16 03:00:00.000,48,14.27,0.0,60,28.1,901.1,1,0.0,1,0,3,0.62,4.5,339,3.93,1.86,0.0,0,0.92,4230,33.34,0,0.24,0,8,0,25.94,0,1021,0.55,1270.21
2026-05-16 04:00:00.000,48,14.33,0.0,60,28.14,911.76,1,0.0,1,0,2,0.63,4.76,340,3.83,2.05,0.01,0,1.05,1830,33.12,0,0.24,0,8,0,26.06,0,1020,0.54,1288.74
2026-05-16 05:00:00.000,48,14.24,0.0,60,27.65,874.56,1,0.0,1,0,2,0.6,5.2,341,3.8,2.16,0.02,0,1.22,3030,32.0,0,0.22,0,8,0,25.91,0,1020,0.51,1235.94
2026-05-16 06:00:00.000,49,14.09,0.0,59,26.69,773.76,1,0.0,1,0,2,0.53,5.15,336,3.98,2.16,0.02,1,1.34,1230,30.33,0,0.2,0,7,1,25.58,0,1019,0.5,1115.42
2026-05-16 07:00:00.000,50,13.8,0.0,57,24.87,615.53,1,0.0,1,0,1,0.42,4.84,326,4.29,2.02,0.02,4,1.36,3030,28.17,0,0.17,0,4,4,24.68,0,1019,0.53,935.4
2026-05-16 08:00:00.000,53,13.6,0.0,52,23.53,440.74,4,0.0,1,0,0,0.3,4.23,312,4.74,1.79,0.01,12,1.31,1430,25.14,0,0.12,0,2,12,23.63,0,1019,0.58,708.17
2026-05-16 09:00:00.000,56,13.44,0.0,53,22.49,247.82,4,0.0,1,0,0,0.16,3.6,298,5.3,1.52,0.0,10,1.22,3620,21.35,0,0.07,1,1,10,22.46,0,1019,0.61,449.23
2026-05-16 10:00:00.000,60,13.42,0.0,59,21.76,70.41,1,0.0,1,0,0,0.05,2.66,289,5.96,1.18,0.0,0,1.06,3020,15.9,0,0.02,1,0,0,21.49,0,1020,0.59,176.23
2026-05-16 11:00:00.000,63,13.43,0.0,14,20.97,0.88,1,0.0,0,0,0,0.03,2.54,273,6.64,1.0,0.0,0,0.85,8030,13.2,0,0.0,0,0,0,20.57,0,1020,0.55,7.02
2026-05-16 12:00:00.000,67,13.56,0.0,0,20.21,0.0,1,0.0,0,0,0,0.0,2.13,160,6.81,0.85,0.0,0,0.71,6650,11.9,0,0.0,1,0,0,19.66,0,1020,0.5,0.0
2026-05-16 13:00:00.000,71,13.6,0.0,0,19.57,0.0,1,0.0,0,0,0,0.0,1.24,149,6.81,0.76,0.0,0,0.67,8080,11.17,0,0.0,1,0,0,18.94,0,1020,0.43,0.0
2026-05-16 14:00:00.000,73,13.62,0.0,0,19.09,0.0,1,0.0,0,0,0,0.0,1.21,160,6.9,0.63,0.0,0,0.68,280,15.57,0,0.0,1,0,0,18.37,0,1020,0.36,0.0
2026-05-16 15:00:00.000,75,13.64,0.0,0,18.76,0.0,1,0.0,0,0,0,0.0,1.15,171,7.07,0.6,0.0,0,0.71,80,15.38,0,0.0,2,0,0,18.01,0,1020,0.3,0.0
2026-05-16 16:00:00.000,77,13.65,0.0,0,18.36,0.0,1,0.0,0,0,0,0.0,1.26,173,7.27,0.58,0.0,0,0.73,80,14.84,0,0.0,1,0,0,17.59,0,1020,0.28,0.0
2026-05-16 17:00:00.000,79,13.7,0.0,0,17.97,0.0,1,0.0,0,0,0,0.0,1.64,176,7.32,0.63,0.0,2,0.77,90,14.51,0,0.0,0,0,2,17.22,0,1020,0.29,0.0
2026-05-16 18:00:00.000,81,13.73,0.0,0,17.65,0.0,13,0.0,0,0,0,0.0,1.82,187,7.66,0.66,0.0,4,0.78,90,14.13,0,0.0,0,0,4,16.9,0,1020,0.3,0.0
2026-05-16 19:00:00.000,82,13.8,0.0,0,17.55,0.0,13,0.0,0,0,0,0.0,1.98,196,8.16,0.68,0.0,4,0.73,40,13.81,0,0.0,0,0,4,16.8,0,1020,0.33,0.0
2026-05-16 20:00:00.000,80,13.85,0.0,0,17.95,0.0,13,0.0,1,0,0,0.0,1.89,200,8.82,0.73,0.0,5,0.66,240,13.67,0,0.0,0,0,5,17.21,0,1020,0.38,0.0
2026-05-16 21:00:00.000,74,13.78,0.0,41,19.15,20.26,1,0.0,1,0,0,0.01,1.95,193,9.91,0.68,0.0,5,0.64,30,15.35,0,0.0,0,0,5,18.4,0,1020,0.4,72.97
2026-05-16 22:00:00.000,65,13.6,0.0,58,21.06,158.61,1,0.0,1,0,0,0.08,1.9,183,11.06,0.63,0.0,2,0.71,2630,18.75,0,0.02,5,0,2,20.34,0,1020,0.38,309.89
2026-05-16 23:00:00.000,56,13.34,0.0,59,23.19,361.83,1,0.0,1,0,0,0.21,1.97,67,10.5,0.43,0.0,0,0.83,12230,24.27,0,0.1,12,1,0,22.42,0,1020,0.34,578.32
2026-05-17 00:00:00.000,48,12.77,0.0,60,25.03,567.42,1,0.0,1,0,0,0.36,1.7,351,10.09,0.46,0.0,0,0.94,4830,28.26,0,0.14,16,2,0,24.37,0,1020,0.33,823.92
2026-05-17 01:00:00.000,42,12.08,0.0,60,27.06,749.31,1,0.0,1,0,1,0.5,2.17,347,9.69,0.8,0.0,0,1.04,7230,31.21,0,0.2,12,4,0,25.68,0,1020,0.39,1029.97
2026-05-17 02:00:00.000,38,11.44,0.0,60,28.31,887.65,1,0.0,1,0,3,0.61,2.92,342,9.11,1.21,0.0,0,1.14,4430,33.04,0,0.25,6,7,0,26.61,0,1019,0.48,1182.44
2026-05-17 03:00:00.000,36,10.85,0.0,60,28.69,972.57,1,0.0,1,0,5,0.68,3.55,338,8.29,1.59,0.0,0,1.27,35820,34.06,0,0.28,2,8,0,26.99,0,1019,0.59,1270.95
2026-05-17 04:00:00.000,34,10.33,0.0,60,28.68,986.93,1,0.0,1,0,4,0.7,4.29,332,7.8,1.81,0.0,0,1.49,37220,34.27,0,0.29,2,9,0,27.24,0,1018,0.73,1289.5
2026-05-17 05:00:00.000,34,10.09,0.0,60,28.0,936.89,1,0.0,1,0,2,0.66,4.52,320,9.76,1.98,0.0,0,1.73,38220,33.46,0,0.29,5,9,0,27.09,0,1018,0.89,1236.84
2026-05-17 06:00:00.000,35,10.09,0.0,60,26.83,825.26,1,0.0,1,0,1,0.58,4.5,308,10.72,2.02,0.02,0,1.86,33220,31.86,1,0.26,10,7,0,26.6,0,1018,1.0,1116.56
2026-05-17 07:00:00.000,37,10.24,0.0,60,25.11,670.52,1,0.0,1,0,1,0.46,3.89,300,11.58,1.91,0.09,0,1.79,24230,29.44,0,0.21,16,5,0,25.66,0,1017,1.04,936.89
2026-05-17 08:00:00.000,41,10.53,0.0,60,23.37,474.52,1,0.0,1,0,0,0.32,3.38,291,11.08,1.68,0.18,0,1.61,19630,26.51,0,0.15,23,3,0,24.38,0,1017,1.03,710.09
2026-05-17 09:00:00.000,46,10.88,0.0,60,22.29,262.25,1,0.0,1,0,0,0.17,2.8,282,10.2,1.31,0.22,0,1.43,16630,22.63,0,0.09,28,1,0,22.94,0,1017,1.0,451.61
2026-05-17 10:00:00.000,51,11.26,0.0,60,21.29,73.51,1,0.0,1,0,0,0.05,2.14,274,9.77,1.0,0.17,0,1.26,13630,16.11,0,0.03,28,0,0,21.61,0,1017,0.94,179.1
2026-05-17 11:00:00.000,55,11.44,0.0,15,20.42,0.96,1,0.0,0,0,0,0.04,1.87,259,10.13,0.87,0.07,0,1.07,11830,12.89,0,0.0,26,0,0,20.59,0,1017,0.87,8.57
2026-05-17 12:00:00.000,59,11.53,0.0,0,19.63,0.0,1,0.0,0,0,0,0.0,1.73,244,10.43,0.77,0.0,0,0.94,12640,12.15,0,0.0,26,0,0,19.69,0,1018,0.8,0.0
2026-05-17 13:00:00.000,62,11.53,0.0,0,18.93,0.0,1,0.0,0,0,0,0.0,1.56,226,10.52,0.72,0.0,0,0.93,14480,11.35,0,0.0,28,0,0,18.96,0,1018,0.76,0.0
2026-05-17 14:00:00.000,64,11.4,0.0,0,18.27,0.0,1,0.0,0,0,0,0.0,1.41,215,10.52,0.66,0.0,0,1.01,16480,10.61,0,0.0,32,0,0,18.3,0,1018,0.74,0.0
2026-05-17 15:00:00.000,66,11.43,0.0,0,17.74,0.0,1,0.0,0,0,0,0.0,1.55,208,10.54,0.64,0.0,0,1.08,16280,10.04,0,0.0,35,0,0,17.75,0,1018,0.71,0.0
2026-05-17 16:00:00.000,69,11.53,0.0,0,17.19,0.0,1,0.0,0,0,0,0.0,1.59,204,10.57,0.67,0.07,0,1.09,15890,9.66,0,0.0,32,0,0,17.19,0,1017,0.67,0.0
2026-05-17 17:00:00.000,72,11.69,0.0,0,16.7,0.0,1,0.0,0,0,0,0.0,1.44,199,10.41,0.64,0.17,0,1.06,16290,9.3,0,0.0,28,0,0,16.62,0,1017,0.64,0.0
2026-05-17 18:00:00.000,75,11.78,0.0,0,16.28,0.0,1,0.0,0,1,0,0.0,1.35,196,10.41,0.61,0.22,1,1.03,16890,8.91,0,0.0,27,0,1,16.16,0,1017,0.61,0.0
2026-05-17 19:00:00.000,78,12.03,0.0,0,16.03,0.0,1,0.0,0,2,0,0.0,1.41,190,10.43,0.6,0.17,0,0.98,17260,8.58,0,0.0,30,0,0,15.82,0,1017,0.59,0.0
2026-05-17 20:00:00.000,76,12.19,0.0,0,16.55,0.0,1,0.0,1,4,0,0.0,1.42,186,10.49,0.64,0.07,1,0.92,17630,8.4,0,0.0,36,0,0,16.32,0,1017,0.59,0.0
2026-05-17 21:00:00.000,69,12.15,0.0,43,18.08,21.8,1,0.0,1,5,0,0.02,1.35,177,10.71,0.67,0.0,1,0.89,19430,15.05,0,0.0,40,0,0,17.88,0,1018,0.61,74.22
2026-05-17 22:00:00.000,58,12.04,0.0,59,20.61,163.5,1,0.0,1,4,0,0.09,1.07,175,10.91,0.54,0.0,1,0.92,21230,21.89,0,0.04,38,0,0,20.36,0,1018,0.67,312.18
2026-05-17 23:00:00.000,50,11.93,0.0,59,23.1,368.26,1,0.0,1,4,0,0.22,1.05,288,11.2,0.35,0.01,1,0.99,24230,27.14,0,0.11,35,1,0,22.75,0,1018,0.75,580.14
2026-05-18 00:00:00.000,44,11.75,0.0,59,25.25,572.66,1,0.0,1,3,0,0.36,1.1,337,11.14,0.31,0.02,1,1.08,27430,30.85,0,0.17,34,2,0,24.78,0,1018,0.84,825.33
2026-05-18 01:00:00.000,40,11.55,0.0,59,27.36,729.85,1,0.0,1,4,1,0.49,2.23,339,10.91,0.53,0.02,1,1.22,27630,33.42,0,0.22,35,4,0,26.06,0,1018,0.93,1031.05
2026-05-18 02:00:00.000,37,11.45,0.0,59,28.83,872.12,1,0.0,1,5,2,0.6,3.57,333,10.76,0.93,0.02,1,1.39,28420,34.73,0,0.26,38,7,0,26.98,0,1017,1.02,1183.29
2026-05-18 03:00:00.000,37,11.47,0.0,59,29.48,964.4,1,0.0,1,5,3,0.68,3.85,332,10.28,1.28,0.02,1,1.56,28030,35.38,0,0.28,40,9,0,27.36,0,1017,1.11,1271.69
2026-05-18 04:00:00.000,36,11.47,0.0,58,29.74,976.48,1,0.0,1,3,2,0.69,4.19,333,9.38,1.53,0.03,1,1.72,26820,35.31,1,0.28,37,10,1,27.77,0,1016,1.19,1290.25
2026-05-18 05:00:00.000,36,11.45,0.0,57,29.16,926.93,1,0.0,1,1,1,0.66,4.27,335,7.88,1.79,0.03,3,1.88,4830,34.33,1,0.27,34,9,3,27.73,0,1016,1.26,1237.72
2026-05-18 06:00:00.000,37,11.49,0.0,56,28.04,820.4,1,0.0,1,0,0,0.58,4.15,336,7.33,1.92,0.04,4,1.97,1630,32.61,1,0.24,32,7,4,27.35,0,1015,1.3,1117.7
2026-05-18 07:00:00.000,39,11.57,0.0,57,26.07,664.61,1,0.0,1,0,0,0.47,3.77,339,7.3,1.94,0.04,3,1.94,3820,30.27,1,0.2,33,5,3,26.28,0,1015,1.3,938.38
2026-05-18 08:00:00.000,43,11.65,0.0,58,24.2,474.88,1,0.0,1,0,0,0.33,3.86,343,7.44,1.84,0.04,1,1.81,2020,27.12,1,0.15,37,3,1,24.98,0,1015,1.27,712.0
2026-05-18 09:00:00.000,47,11.75,0.0,59,23.06,268.74,1,0.0,1,0,0,0.19,3.56,350,7.18,1.6,0.04,0,1.66,5430,23.16,1,0.09,39,1,0,23.64,0,1015,1.21,454.0
2026-05-18 10:00:00.000,51,11.9,0.0,55,22.21,76.8,2,0.0,1,22,0,0.07,3.26,348,7.23,1.3,0.04,6,1.48,4230,17.54,0,0.03,36,0,0,22.53,3,1015,1.12,181.96
2026-05-18 11:00:00.000,54,12.16,0.0,13,21.62,3.51,3,0.0,0,52,0,0.01,2.34,218,7.58,0.95,0.04,15,1.27,9430,14.31,0,0.0,31,0,0,21.62,7,1016,1.0,10.12
2026-05-18 12:00:00.000,59,12.47,0.0,0,20.99,0.0,3,0.0,0,70,0,0.0,1.17,188,7.68,0.67,0.04,21,1.13,9420,13.64,0,0.0,29,0,0,20.69,9,1016,0.9,0.0
2026-05-18 13:00:00.000,63,12.7,0.0,0,20.5,0.0,3,0.0,0,60,0,0.0,1.19,166,7.81,0.43,0.03,18,1.13,10070,13.44,0,0.0,31,0,0,19.95,7,1016,0.83,0.0
2026-05-18 14:00:00.000,66,12.89,0.0,0,19.94,0.0,2,0.0,0,37,0,0.0,1.44,152,7.93,0.41,0.03,11,1.19,10480,13.13,0,0.0,36,0,0,19.31,3,1015,0.77,0.0
2026-05-18 15:00:00.000,69,13.14,0.0,0,19.54,0.0,2,0.0,0,26,0,0.0,1.5,150,8.09,0.45,0.02,7,1.22,10670,12.7,0,0.0,40,0,0,18.86,0,1015,0.71,0.0
2026-05-18 16:00:00.000,72,13.19,0.0,0,18.94,0.0,2,0.0,0,47,0,0.0,1.75,159,8.14,0.55,0.01,14,1.16,11070,12.45,0,0.0,39,0,0,18.31,0,1015,0.63,0.0
2026-05-18 17:00:00.000,74,13.18,0.0,0,18.38,0.0,3,0.0,0,80,0,0.0,2.28,166,8.2,0.7,0.01,24,1.06,12270,12.3,0,0.0,37,0,0,17.85,0,1014,0.56,0.0
2026-05-18 18:00:00.000,75,13.12,0.0,0,17.93,0.0,3,0.0,0,95,0,0.0,2.65,167,8.22,0.78,0.0,28,1.0,13670,11.88,0,0.0,36,0,0,17.48,0,1014,0.5,0.0
2026-05-18 19:00:00.000,76,13.13,0.0,0,17.65,0.0,3,0.0,0,72,0,0.0,2.64,168,8.46,0.8,0.0,21,1.02,14440,11.25,0,0.0,36,0,0,17.21,0,1014,0.47,0.0
2026-05-18 20:00:00.000,75,13.11,0.0,0,17.99,0.0,2,0.0,1,30,0,0.0,2.37,171,8.61,0.79,0.0,9,1.08,14630,10.49,0,0.0,38,0,0,17.55,0,1014,0.45,0.0
2026-05-18 21:00:00.000,67,12.83,0.0,45,19.2,22.12,1,0.0,1,0,0,0.02,2.05,171,8.82,0.8,0.0,0,1.17,14230,17.01,0,0.0,38,0,0,18.87,0,1014,0.5,75.47
2026-05-18 22:00:00.000,57,12.44,0.0,60,21.35,152.94,1,0.0,1,0,0,0.09,2.78,163,8.93,0.69,0.0,0,1.28,15220,22.83,0,0.04,32,0,0,21.07,0,1014,0.63,314.46
2026-05-18 23:00:00.000,49,12.19,0.0,60,23.52,349.28,1,0.0,1,0,0,0.21,2.17,85,8.92,0.58,0.0,0,1.43,22820,27.7,0,0.1,25,1,0,23.24,0,1014,0.81,581.96
2026-05-19 00:00:00.000,44,12.05,0.0,58,25.18,549.31,1,0.0,1,0,1,0.36,2.1,347,8.97,0.61,0.0,2,1.56,26420,30.7,0,0.17,22,2,0,24.97,2,1014,1.02,826.74
2026-05-19 01:00:00.000,41,11.9,0.0,46,26.9,693.94,4,0.0,1,0,1,0.47,2.83,351,9.19,0.83,0.0,20,1.66,27820,32.96,0,0.22,25,4,10,25.97,20,1014,1.29,1032.12
2026-05-19 02:00:00.000,40,12.14,0.0,30,28.0,790.67,7,0.0,1,0,1,0.55,3.38,357,9.32,1.12,0.01,45,1.75,28220,34.43,0,0.25,31,7,24,26.61,45,1014,1.59,1184.13
2026-05-19 03:00:00.000,41,12.46,0.0,18,28.33,833.6,7,0.0,1,0,2,0.59,4.2,359,8.78,1.38,0.02,65,1.86,29220,35.1,1,0.27,36,9,39,26.78,65,1013,1.77,1272.42
2026-05-19 04:00:00.000,41,12.71,0.0,12,27.79,759.99,7,0.0,1,0,2,0.55,4.56,1,8.16,1.61,0.04,74,2.05,28630,35.01,1,0.28,34,9,54,26.8,74,1013,1.75,1290.99
2026-05-19 05:00:00.000,42,12.81,0.0,10,26.6,641.35,19,0.0,1,0,2,0.47,4.48,1,7.57,1.91,0.06,78,2.27,28830,34.21,1,0.27,31,9,69,26.52,78,1012,1.61,1238.6
2026-05-19 06:00:00.000,44,13.01,0.0,8,25.51,496.52,19,0.0,1,0,2,0.38,4.5,2,7.39,2.1,0.1,80,2.41,27830,32.47,2,0.24,28,7,78,26.03,80,1012,1.5,1118.83
2026-05-19 07:00:00.000,47,13.21,0.0,7,24.81,368.0,20,0.0,1,25,7,0.3,4.13,8,7.64,2.11,0.17,81,2.41,28030,29.9,2,0.21,26,5,77,25.26,81,1012,1.49,939.86
2026-05-19 08:00:00.000,51,13.57,0.0,7,24.1,239.03,21,0.0,1,60,12,0.2,3.82,20,8.23,1.91,0.26,81,2.33,26830,27.07,2,0.16,26,2,71,24.3,81,1011,1.52,713.9
2026-05-19 09:00:00.000,55,13.94,0.0,8,23.36,123.08,21,0.0,1,82,17,0.12,3.48,39,8.74,1.65,0.34,80,2.19,25830,23.36,2,0.11,25,1,62,23.24,80,1011,1.5,456.37
2026-05-19 10:00:00.000,61,14.42,0.0,10,22.71,38.92,21,0.0,1,79,11,0.06,3.41,60,9.1,1.34,0.42,77,1.98,20830,17.79,2,0.04,22,0,51,22.2,77,1011,1.39,184.82
2026-05-19 11:00:00.000,66,14.9,0.0,3,22.37,1.72,9,0.0,0,63,6,0.03,3.96,74,8.52,1.08,0.5,74,1.72,18430,14.59,3,0.0,19,0,38,21.49,74,1011,1.24,11.66
2026-05-19 12:00:00.000,70,15.38,0.0,0,22.14,0.0,9,0.0,0,50,1,0.0,4.25,80,7.38,0.89,0.54,69,1.5,18640,13.92,2,0.0,19,0,29,20.94,69,1011,1.11,0.0
2026-05-19 13:00:00.000,73,15.75,0.0,0,22.08,0.0,8,0.0,0,44,3,0.0,4.17,80,6.52,0.79,0.52,61,1.35,17890,13.5,2,0.0,21,0,26,20.67,61,1011,1.02,0.0
2026-05-19 14:00:00.000,76,16.08,0.0,0,21.95,0.0,8,0.0,0,42,4,0.0,3.52,76,5.84,0.71,0.47,52,1.25,15880,13.19,2,0.0,26,0,27,20.35,52,1011,0.96,0.0
2026-05-19 15:00:00.000,79,16.37,0.0,0,21.85,0.0,8,0.0,0,44,6,0.0,2.7,77,5.32,0.66,0.42,51,1.17,13490,13.12,2,0.0,28,0,29,20.09,51,1011,0.9,0.0
2026-05-19 16:00:00.000,81,16.56,0.0,0,21.64,0.0,9,0.0,0,54,13,0.0,2.2,85,4.96,0.61,0.37,64,1.12,12490,12.72,1,0.0,24,0,30,19.78,64,1011,0.86,0.0
2026-05-19 17:00:00.000,83,16.65,0.0,0,21.4,0.0,21,0.0,0,69,19,0.0,1.78,97,4.94,0.59,0.31,85,1.1,12290,17.3,1,0.0,18,0,33,19.48,85,1010,0.83,0.0
2026-05-19 18:00:00.000,85,16.65,0.0,0,21.09,0.0,22,0.0,0,78,26,0.0,2.34,125,5.41,0.66,0.28,100,1.08,12870,17.76,1,0.0,14,0,37,19.22,100,1010,0.8,0.0
2026-05-19 19:00:00.000,86,16.72,0.0,0,20.8,0.0,22,0.0,0,75,37,0.0,2.73,177,5.71,0.78,0.28,100,1.05,13460,12.52,1,0.0,13,0,43,18.99,100,1010,0.72,0.0
2026-05-19 20:00:00.000,85,16.78,0.0,0,21.02,0.0,22,0.0,1,67,49,0.0,2.87,212,5.78,0.92,0.31,99,1.02,13830,11.99,1,0.0,14,0,49,19.28,99,1010,0.63,0.0
2026-05-19 21:00:00.000,79,16.63,0.0,0,21.93,11.62,22,0.0,1,61,61,0.02,2.91,225,5.9,1.01,0.34,95,1.03,14230,17.98,2,0.0,16,0,56,20.32,95,1010,0.71,76.72
2026-05-19 22:00:00.000,70,16.42,0.0,0,23.47,73.24,22,0.0,1,59,48,0.07,2.67,43,6.24,1.08,0.39,94,1.09,16230,23.47,3,0.04,15,0,63,21.99,94,1011,1.06,316.74
2026-05-19 23:00:00.000,64,16.3,0.0,1,24.82,151.54,22,0.0,1,59,41,0.12,1.72,40,6.91,1.18,0.44,92,1.18,18820,28.0,3,0.11,15,1,70,23.47,92,1011,1.57,583.78
2026-05-20 00:00:00.000,59,16.25,0.0,2,25.87,219.3,22,0.0,1,63,38,0.18,2.07,35,7.13,1.34,0.49,90,1.3,20020,31.26,5,0.16,16,2,73,24.65,90,1011,2.08,828.14
2026-05-20 01:00:00.000,57,16.3,0.0,2,26.54,306.78,22,0.0,1,74,40,0.24,2.72,27,6.66,1.42,0.5,89,1.47,21030,33.64,10,0.21,17,3,71,25.35,89,1010,2.59,1033.18
2026-05-20 02:00:00.000,56,16.61,0.0,2,27.21,387.68,22,0.0,1,87,45,0.3,3.16,8,3.87,1.45,0.5,89,1.67,21830,35.63,17,0.24,20,5,66,25.91,89,1010,3.11,1184.96
2026-05-20 03:00:00.000,57,17.0,0.0,3,27.53,451.75,22,0.0,1,97,50,0.34,3.45,351,2.3,1.49,0.5,88,1.91,22630,36.73,24,0.26,22,7,63,26.1,88,1010,3.5,1273.13
2026-05-20 04:00:00.000,57,17.36,0.0,4,27.78,392.31,21,0.0,1,100,77,0.31,2.46,342,1.78,1.63,0.51,86,2.21,20230,27.96,29,0.16,21,8,63,26.29,86,1010,3.69,1291.71
2026-05-20 05:00:00.000,59,17.62,0.0,5,27.71,336.19,21,0.0,1,100,139,0.27,2.46,332,1.19,1.72,0.53,84,2.53,18630,27.56,32,0.1,19,7,64,26.16,84,1009,3.74,1239.46
2026-05-20 06:00:00.000,61,17.9,0.0,6,27.48,287.49,21,0.0,1,100,202,0.23,3.55,320,0.79,1.66,0.57,84,2.77,18430,27.69,35,0.1,18,5,67,25.77,84,1009,3.71,1119.94
2026-05-20 07:00:00.000,65,18.14,0.0,4,26.79,207.83,21,0.0,1,79,214,0.18,2.36,310,0.7,1.64,0.67,87,2.86,18030,25.95,38,0.09,17,3,71,24.96,87,1009,3.58,941.33
2026-05-20 08:00:00.000,71,18.44,0.0,0,26.08,125.63,22,0.0,1,52,226,0.12,2.5,299,0.67,1.51,0.8,92,2.85,15820,24.66,40,0.06,18,1,77,24.02,92,1009,3.37,715.8
2026-05-20 09:00:00.000,76,18.74,0.0,0,25.48,61.48,22,0.0,1,38,238,0.07,2.3,287,0.9,1.38,0.88,95,2.78,14420,24.36,42,0.04,17,0,80,23.19,95,1009,3.11,458.74
2026-05-20 10:00:00.000,79,18.88,0.0,0,25.07,24.36,22,0.0,1,50,214,0.04,2.52,263,0.66,1.28,0.86,95,2.6,13820,22.25,43,0.03,13,0,78,22.64,95,1009,2.79,187.68
2026-05-20 11:00:00.000,80,18.78,0.0,0,24.56,1.15,22,0.0,0,74,190,0.03,3.08,234,-0.47,1.32,0.8,94,2.35,12420,20.94,44,0.01,7,0,74,22.21,94,1009,2.42,13.2
2026-05-20 12:00:00.000,83,18.72,0.0,0,23.97,0.0,22,0.0,0,93,173,0.0,3.51,206,-2.08,1.37,0.77,93,2.14,12430,19.71,44,0.0,5,0,71,21.68,93,1009,2.11,0.0
2026-05-20 13:00:00.000,85,18.61,0.0,0,23.71,0.0,22,0.0,0,99,191,0.0,3.09,205,0.66,0.98,0.81,95,2.01,12870,19.62,46,0.0,6,0,69,21.2,95,1009,1.9,0.0
2026-05-20 14:00:00.000,86,18.49,0.0,0,23.22,0.0,22,0.0,0,100,250,0.0,3.41,244,0.39,1.1,0.88,98,1.92,12870,20.56,51,0.0,11,0,68,20.85,98,1009,1.74,0.0
2026-05-20 15:00:00.000,87,18.51,0.0,0,22.85,0.0,22,0.0,0,100,231,0.0,3.58,244,0.97,1.29,0.95,100,1.86,9880,19.98,57,0.0,15,0,65,20.6,100,1010,1.61,0.0
2026-05-20 16:00:00.000,90,18.63,0.0,0,22.47,0.0,22,0.0,0,100,169,0.0,4.24,221,0.28,1.35,0.99,100,1.84,10070,18.86,58,0.0,17,0,59,20.21,100,1009,1.48,0.0
2026-05-20 17:00:00.000,93,18.68,0.0,0,22.07,0.0,22,0.0,0,100,134,0.0,4.15,221,0.36,1.35,1.02,99,1.86,10080,18.29,57,0.0,19,0,50,19.79,99,1009,1.38,0.0
2026-05-20 18:00:00.000,95,18.68,0.0,0,21.62,0.0,22,0.0,0,100,131,0.0,4.51,212,0.14,1.44,1.08,98,1.88,10080,18.64,55,0.0,21,0,48,19.4,98,1008,1.3,0.0
2026-05-20 19:00:00.000,97,18.69,0.0,0,21.17,0.0,22,0.0,0,100,113,0.0,4.99,204,0.6,1.55,1.19,99,1.84,10450,19.2,57,0.0,21,0,56,19.02,99,1009,1.23,0.0
2026-05-20 20:00:00.000,95,18.64,0.0,0,21.36,0.0,22,0.0,1,100,62,0.0,5.08,207,0.88,1.64,1.32,99,1.8,10630,18.89,58,0.0,21,0,70,19.3,99,1009,1.19,0.0
2026-05-20 21:00:00.000,89,18.46,0.0,0,22.11,6.71,22,0.0,1,100,46,0.02,5.03,249,1.01,1.74,1.41,100,1.8,10630,21.58,60,0.01,20,0,83,20.2,100,1009,1.21,77.86
2026-05-20 22:00:00.000,81,18.2,0.0,0,23.21,30.27,22,0.0,1,100,40,0.05,5.26,256,1.98,1.95,1.41,100,1.89,10830,23.84,60,0.07,17,0,90,21.57,100,1009,1.3,318.8
2026-05-20 23:00:00.000,76,17.99,0.0,0,23.84,62.97,22,0.0,1,100,77,0.08,5.6,258,1.12,2.14,1.36,100,2.03,12030,27.14,60,0.2,13,0,96,22.43,100,1010,1.45,585.37
2026-05-21 00:00:00.000,73,17.84,0.0,0,24.13,71.64,22,0.0,1,100,53,0.09,5.99,249,0.64,2.26,1.31,100,2.16,13430,26.2,61,0.23,12,0,100,22.87,100,1010,1.68,829.33
2026-05-21 01:00:00.000,72,17.8,0.0,0,24.1,53.94,22,0.0,1,93,37,0.09,6.73,241,1.13,2.36,1.28,100,2.29,13830,24.55,64,0.11,13,0,100,22.93,99,1010,2.07,1034.06
2026-05-21 02:00:00.000,73,17.87,0.0,0,24.0,88.55,22,0.0,1,84,29,0.11,7.48,218,2.73,2.48,1.26,100,2.42,15220,32.33,66,0.14,16,1,100,22.88,99,1010,2.55,1185.63
2026-05-21 03:00:00.000,74,18.05,0.0,0,23.91,115.16,22,0.0,1,79,37,0.12,7.77,202,3.0,2.53,1.24,100,2.56,16030,28.72,68,0.16,19,2,100,22.74,97,1010,2.9,1273.71
2026-05-21 04:00:00.000,76,18.2,0.0,0,23.82,133.06,22,0.0,1,84,25,0.13,7.99,172,3.69,2.56,1.24,99,2.71,17820,34.58,67,0.18,19,2,99,22.61,90,1010,3.05,1292.34
2026-05-21 05:00:00.000,77,18.22,0.0,0,23.62,167.45,22,0.0,1,93,31,0.14,8.05,178,3.94,2.63,1.25,99,2.86,19420,35.27,67,0.25,18,2,99,22.45,81,1010,3.08,1240.24
2026-05-21 06:00:00.000,78,18.22,0.0,0,23.31,158.07,22,0.0,1,100,14,0.13,7.95,198,3.46,2.68,1.25,98,2.94,20020,34.2,62,0.23,19,2,98,22.16,76,1009,3.0,1120.99
2026-05-21 07:00:00.000,80,18.21,0.0,0,22.77,132.82,22,0.0,1,100,13,0.11,7.69,265,3.74,2.75,1.26,99,2.89,20830,32.75,55,0.21,20,1,99,21.69,80,1009,2.77,942.73
2026-05-21 08:00:00.000,83,18.17,0.0,0,22.25,100.79,22,0.0,1,100,21,0.09,8.15,296,4.27,2.68,1.27,99,2.76,20220,30.23,53,0.17,23,1,99,21.13,89,1010,2.43,717.62
2026-05-21 09:00:00.000,85,18.11,0.0,0,21.67,57.77,22,0.0,1,100,32,0.06,7.75,309,4.69,2.63,1.23,100,2.61,19230,27.19,52,0.11,23,0,100,20.54,93,1010,2.11,461.0
2026-05-21 10:00:00.000,88,18.1,0.0,0,21.26,22.12,22,0.0,1,100,21,0.04,6.9,336,4.82,2.61,1.12,100,2.42,17220,22.59,53,0.05,18,0,100,20.13,88,1010,1.84,190.38
2026-05-21 11:00:00.000,89,18.07,0.0,0,21.01,0.85,22,0.0,0,100,11,0.03,6.58,347,4.94,2.55,0.97,100,2.2,14230,19.57,51,0.0,11,0,100,19.85,80,1011,1.58,14.66
2026-05-21 12:00:00.000,90,18.06,0.0,0,20.83,0.0,22,0.0,0,100,13,0.0,6.2,57,5.0,2.48,0.86,100,2.02,13040,18.62,50,0.0,7,0,100,19.62,74,1011,1.4,0.0
2026-05-21 13:00:00.000,91,18.05,0.1,0,21.2,0.0,33,0.0,0,100,29,0.0,4.99,83,4.91,1.74,0.84,100,1.92,12480,17.54,48,0.0,8,0,100,19.49,73,1011,1.32,0.0
2026-05-21 14:00:00.000,91,17.97,0.1,0,21.16,0.0,33,0.0,0,100,11,0.0,4.48,97,4.79,1.54,0.85,100,1.86,11880,16.93,42,0.0,13,0,100,19.33,74,1011,1.3,0.0
2026-05-21 15:00:00.000,91,17.87,0.0,0,21.06,0.0,22,0.0,0,100,17,0.0,4.26,110,4.57,1.45,0.86,100,1.84,11480,16.24,36,0.0,18,0,100,19.21,76,1011,1.3,0.0
2026-05-21 16:00:00.000,92,17.75,0.0,0,20.81,0.0,22,0.0,0,70,20,0.0,4.38,124,4.29,1.44,0.84,100,1.87,11690,15.88,32,0.0,20,0,100,19.02,80,1011,1.29,0.0
2026-05-21 17:00:00.000,92,17.58,0.0,0,20.56,0.0,22,0.0,0,29,26,0.0,4.08,127,4.3,1.47,0.81,100,1.93,11890,15.64,33,0.0,22,0,100,18.86,83,1010,1.29,0.0
2026-05-21 18:00:00.000,91,17.36,0.0,0,20.33,0.0,22,0.0,0,0,36,0.0,3.92,121,3.9,1.46,0.79,100,1.97,11690,17.31,31,0.0,24,0,100,18.72,83,1010,1.3,0.0
2026-05-21 19:00:00.000,91,17.23,0.0,0,20.11,0.0,22,0.0,0,0,32,0.0,4.09,128,3.86,1.46,0.75,98,1.94,11240,15.49,29,0.0,25,0,98,18.56,76,1010,1.33,0.0
2026-05-21 20:00:00.000,90,17.09,0.0,0,20.18,0.0,22,0.0,1,0,29,0.0,4.02,129,3.87,1.44,0.72,96,1.89,10830,15.5,27,0.0,27,0,96,18.67,64,1010,1.36,0.0
2026-05-21 21:00:00.000,85,16.82,0.0,0,20.75,7.63,22,0.0,1,0,30,0.03,3.89,124,3.36,1.38,0.7,95,1.88,10620,20.87,27,0.01,29,0,95,19.32,56,1010,1.4,78.84
2026-05-21 22:00:00.000,78,16.57,0.0,0,21.74,46.0,22,0.0,1,0,28,0.05,4.28,122,3.49,1.41,0.72,92,1.95,11830,25.78,25,0.05,29,0,92,20.43,56,1010,1.4,320.56
2026-05-21 23:00:00.000,72,16.11,0.0,2,22.4,112.35,22,0.0,1,0,32,0.1,5.19,120,3.34,1.53,0.75,90,2.08,13430,29.89,22,0.11,30,0,90,21.37,61,1010,1.41,586.72
2026-05-22 00:00:00.000,69,16.04,0.0,3,22.78,184.03,22,0.0,1,0,39,0.15,5.93,124,2.11,1.74,0.76,88,2.2,14030,31.82,20,0.15,31,0,88,21.92,64,1010,1.49,830.32
2026-05-22 01:00:00.000,71,17.77,0.0,0,25.61,266.59,22,0.0,1,100,48,0.19,3.84,284,1.09,0.67,0.73,100,2.28,24100,23.23,39,0.01,30,1,100,23.27,0,1012,1.71,1034.79
2026-05-22 02:00:00.000,69,17.69,0.0,6,25.58,310.49,21,0.0,1,100,45,0.23,3.91,291,0.82,1.01,0.68,84,2.37,24100,23.57,40,0.01,30,2,84,23.52,0,1011,2.0,1186.18
2026-05-22 03:00:00.000,68,17.57,0.0,33,25.73,569.33,9,0.0,1,100,43,0.39,4.0,292,0.6,1.14,0.64,40,2.46,24100,23.83,41,0.02,30,2,40,23.68,0,1011,2.28,1274.22
2026-05-22 04:00:00.000,66,17.45,0.0,40,26.16,599.22,3,0.0,1,100,41,0.41,4.1,289,0.41,1.21,0.64,30,2.59,24075,24.27,42,0.02,29,3,0,24.03,0,1011,2.54,1292.91
2026-05-22 05:00:00.000,64,17.35,0.0,40,26.28,555.85,3,0.0,1,100,40,0.39,4.22,281,0.28,1.29,0.66,30,2.74,24051,24.85,43,0.02,29,3,0,24.52,0,1011,2.78,1240.99
2026-05-22 06:00:00.000,63,17.28,0.0,40,26.23,485.12,3,0.0,1,100,43,0.34,4.3,274,0.3,1.46,0.67,30,2.82,24100,25.03,43,0.02,30,3,0,24.66,0,1011,2.9,1122.02
2026-05-22 07:00:00.000,65,17.31,0.0,40,25.86,390.46,3,0.0,1,100,49,0.28,4.32,268,0.55,1.47,0.66,30,2.79,24319,24.62,43,0.02,30,2,0,24.28,0,1011,2.82,944.11
2026-05-22 08:00:00.000,68,17.43,0.0,40,25.25,279.5,3,0.0,1,100,58,0.2,4.31,260,0.95,1.34,0.63,30,2.7,24613,23.79,42,0.02,30,1,0,23.53,0,1011,2.62,719.42
2026-05-22 09:00:00.000,72,17.59,0.0,40,24.71,160.08,3,0.0,1,100,68,0.11,4.3,247,1.4,1.14,0.61,30,2.6,24760,22.94,41,0.02,31,0,0,22.77,0,1011,2.4,463.25
2026-05-22 10:00:00.000,76,17.77,0.0,40,24.09,45.86,3,0.0,1,100,77,0.04,4.3,231,1.89,1.1,0.6,30,2.53,24819,22.13,40,0.02,31,0,0,22.05,0,1011,2.16,193.07
2026-05-22 11:00:00.000,81,17.93,0.0,12,23.47,3.61,15,0.0,0,100,86,0.01,4.31,209,2.42,1.02,0.59,30,2.46,24732,21.28,39,0.01,31,0,0,21.3,0,1011,1.9,16.1
2026-05-22 12:00:00.000,84,18.02,0.0,0,22.88,-0.38,15,0.0,0,100,91,0.0,4.3,192,2.9,1.01,0.61,30,2.38,24100,20.58,38,0.01,32,0,0,20.66,0,1012,1.71,0.0
2026-05-22 13:00:00.000,87,18.05,0.0,0,22.44,0.0,15,0.0,0,100,89,0.0,4.27,181,3.3,0.87,0.68,30,2.27,22590,20.03,37,0.01,31,0,0,20.11,0,1011,1.62,0.0
2026-05-22 14:00:00.000,90,18.04,0.0,0,22.11,0.0,15,0.0,0,100,84,0.0,4.23,186,3.64,0.65,0.78,30,2.16,20535,19.58,37,0.01,31,0,0,19.62,0,1011,1.59,0.0
2026-05-22 15:00:00.000,92,18.04,0.0,0,21.78,0.0,9,0.0,0,100,79,0.0,4.2,192,3.9,0.52,0.88,57,2.06,18530,19.2,36,0.01,31,0,57,19.21,0,1011,1.59,0.0
2026-05-22 16:00:00.000,95,18.06,0.0,0,21.44,0.0,22,0.0,0,100,73,0.0,4.19,190,4.11,0.52,0.99,100,2.0,16574,18.89,36,0.01,30,0,100,18.86,0,1011,1.61,0.0
2026-05-22 17:00:00.000,96,18.07,0.0,0,21.1,0.0,22,0.0,0,100,66,0.0,4.19,185,4.23,0.63,1.11,100,1.95,14667,18.66,36,0.01,29,0,100,18.59,0,1011,1.65,0.0
2026-05-22 18:00:00.000,97,18.07,0.0,0,20.97,0.0,22,0.0,0,100,61,0.0,4.2,184,4.1,0.78,1.21,100,1.92,13400,18.63,37,0.01,29,0,100,18.56,0,1011,1.71,0.0
2026-05-22 19:00:00.000,94,18.07,0.0,0,21.3,0.0,22,0.0,0,100,57,0.0,4.22,188,3.59,0.94,1.3,100,1.9,13100,19.02,38,0.01,27,0,100,19.0,0,1011,1.78,0.0
2026-05-22 20:00:00.000,88,18.02,0.0,0,22.16,-0.17,22,0.0,1,100,54,0.0,4.25,193,2.84,1.03,1.38,100,1.9,13440,19.88,39,0.01,25,0,100,19.95,0,1011,1.87,0.0
2026-05-22 21:00:00.000,81,17.85,0.0,0,23.38,9.03,22,0.0,1,100,52,0.03,4.3,194,2.1,0.96,1.45,100,1.92,14030,21.04,40,0.01,24,0,100,21.2,0,1011,1.98,79.81
2026-05-22 22:00:00.000,74,17.62,0.0,0,24.59,57.96,22,0.0,1,100,50,0.05,4.37,190,1.38,0.72,1.53,100,1.98,14769,22.11,42,0.01,22,0,100,22.35,10,1011,2.1,322.32
2026-05-22 23:00:00.000,69,17.42,0.0,0,25.7,127.26,22,0.0,1,100,49,0.1,4.46,170,0.67,0.37,1.6,100,2.07,15758,22.99,45,0.01,22,0,100,23.3,10,1012,2.25,588.06
2026-05-23 00:00:00.000,69,17.66,0.0,0,25.99,243.33,22,0.0,1,100,50,0.17,4.6,178,0.2,0.5,1.66,100,2.2,16900,23.22,47,0.01,22,1,100,23.58,10,1012,2.46,831.31
2026-05-23 01:00:00.000,69,17.8,0.0,0,26.26,296.51,22,0.0,1,100,51,0.21,4.81,229,0.11,0.5,1.7,100,2.38,18262,23.44,50,0.01,22,3,100,23.78,10,1011,2.77,1035.51
2026-05-23 02:00:00.000,69,17.91,0.0,0,26.2,329.83,22,0.0,1,100,54,0.24,5.06,256,0.27,0.78,1.72,100,2.61,19778,23.57,52,0.01,23,4,100,23.86,11,1011,3.15,1186.74
2026-05-23 03:00:00.000,69,17.97,0.0,23,26.09,467.37,9,0.0,1,100,58,0.33,5.3,259,0.5,0.97,1.73,57,2.83,21150,23.62,55,0.01,25,6,57,23.86,11,1011,3.49,1274.72
2026-05-23 04:00:00.000,69,18.03,0.0,40,26.1,545.58,6,0.0,1,100,61,0.38,5.56,256,0.81,1.18,1.74,30,3.06,22468,23.82,58,0.02,26,7,0,24.0,10,1010,3.81,1293.47
2026-05-23 05:00:00.000,68,18.1,0.0,40,26.21,508.5,3,0.0,1,100,64,0.35,5.81,251,1.21,1.46,1.75,30,3.28,23641,24.18,60,0.02,28,6,0,24.28,0,1010,4.09,1241.73
2026-05-23 06:00:00.000,68,18.1,0.0,40,25.99,446.5,3,0.0,1,100,66,0.31,5.9,250,1.5,1.75,1.74,30,3.38,24100,24.23,62,0.02,30,6,0,24.26,0,1010,4.21,1123.03
2026-05-23 07:00:00.000,70,18.04,0.0,40,25.47,354.1,3,0.0,1,100,64,0.25,5.74,248,1.57,1.79,1.72,30,3.31,23414,23.83,61,0.02,29,4,0,23.8,0,1010,4.09,945.49
2026-05-23 08:00:00.000,73,17.95,0.0,40,24.76,250.04,3,0.0,1,100,60,0.18,5.42,245,1.55,1.63,1.7,30,3.13,22013,23.1,60,0.02,28,2,0,23.01,0,1010,3.8,721.21
2026-05-23 09:00:00.000,76,17.92,0.0,40,24.15,141.67,3,0.0,1,100,57,0.1,5.1,237,1.6,1.37,1.68,30,2.94,20610,22.37,58,0.01,27,1,0,22.23,0,1010,3.49,465.49
2026-05-23 10:00:00.000,80,17.93,0.0,40,23.54,40.55,15,0.0,1,100,53,0.04,4.8,227,1.74,1.21,1.66,30,2.78,19198,21.69,56,0.01,25,0,0,21.5,0,1010,3.15,195.76
2026-05-23 11:00:00.000,83,17.93,0.0,13,22.99,3.34,15,0.0,0,100,50,0.01,4.51,208,1.95,0.95,1.65,30,2.62,17784,21.0,55,0.01,24,0,0,20.77,0,1010,2.79,17.55
2026-05-23 12:00:00.000,86,17.9,0.0,0,22.48,-0.38,15,0.0,0,100,48,0.0,4.3,189,2.4,0.8,1.64,30,2.5,17100,20.4,54,0.01,24,0,0,20.16,0,1011,2.5,0.0
2026-05-23 13:00:00.000,89,17.84,0.0,0,22.1,0.0,15,0.0,0,100,47,0.0,4.23,171,3.22,0.58,1.64,30,2.42,17600,19.87,53,0.01,23,0,0,19.66,0,1010,2.34,0.0
2026-05-23 14:00:00.000,91,17.77,0.0,0,21.86,0.0,15,0.0,0,100,47,0.0,4.24,175,4.28,0.28,1.64,30,2.37,18831,19.39,53,0.01,23,0,0,19.25,0,1010,2.25,0.0
2026-05-23 15:00:00.000,92,17.73,0.0,0,21.62,0.0,9,0.0,0,100,48,0.0,4.3,184,5.3,0.11,1.64,40,2.36,20160,18.99,54,0.01,24,0,40,18.9,0,1010,2.19,0.0
2026-05-23 16:00:00.000,94,17.77,0.0,0,21.34,0.0,21,0.0,0,100,49,0.0,4.4,146,6.3,0.12,1.65,84,2.41,21538,18.65,54,0.01,24,0,84,18.61,0,1009,2.14,0.0
2026-05-23 17:00:00.000,96,17.82,0.0,0,21.03,0.0,22,0.0,0,100,51,0.0,4.55,140,7.27,0.29,1.67,100,2.51,23014,18.4,55,0.01,25,0,100,18.39,0,1009,2.12,0.0
2026-05-23 18:00:00.000,97,17.88,0.0,0,20.91,0.0,22,0.0,0,100,53,0.0,4.7,148,7.9,0.44,1.68,100,2.61,24100,18.4,55,0.01,27,0,100,18.36,0,1009,2.11,0.0
2026-05-23 19:00:00.000,95,17.94,0.0,0,21.23,0.0,22,0.0,0,100,54,0.0,4.83,161,7.99,0.56,1.68,100,2.7,24535,18.91,54,0.01,27,0,100,18.73,0,1009,2.09,0.0
2026-05-23 20:00:00.000,90,17.97,0.0,0,22.05,-0.17,22,0.0,1,100,55,0.0,4.95,174,7.73,0.6,1.68,100,2.79,24580,19.94,53,0.01,28,0,100,19.56,29,1009,2.08,0.0
2026-05-23 21:00:00.000,84,17.92,0.0,0,23.19,7.81,22,0.0,1,100,57,0.02,5.1,172,7.4,0.53,1.68,100,2.91,24530,21.26,51,0.01,30,0,100,20.68,72,1009,2.09,80.78
2026-05-23 22:00:00.000,78,17.82,0.0,0,24.27,49.56,22,0.0,1,100,58,0.04,5.29,147,7.04,0.36,1.68,100,3.04,24434,22.47,50,0.01,31,0,100,21.68,100,1009,2.11,324.07
2026-05-23 23:00:00.000,74,17.77,0.0,0,25.01,108.32,22,0.0,1,100,61,0.08,5.49,85,6.62,0.41,1.67,100,3.19,24243,23.48,49,0.01,32,0,100,22.48,100,1009,2.16,589.4
2026-05-24 00:00:00.000,75,18.02,0.0,0,25.22,214.39,22,0.0,1,100,63,0.15,5.7,104,6.3,0.42,1.65,100,3.36,24100,23.75,48,0.02,34,0,100,22.59,100,1009,2.28,832.3
2026-05-24 01:00:00.000,75,18.09,0.0,0,25.46,259.46,22,0.0,1,100,64,0.18,5.91,53,6.16,0.14,1.58,100,3.58,24068,23.87,48,0.02,34,0,100,22.6,100,1009,2.52,1036.22
2026-05-24 02:00:00.000,76,18.07,0.0,0,25.24,287.15,22,0.0,1,100,65,0.2,6.11,325,6.13,0.27,1.49,100,3.81,24084,23.81,48,0.03,35,1,100,22.48,100,1009,2.83,1187.29
2026-05-24 03:00:00.000,76,18.0,0.0,0,24.99,291.99,22,0.0,1,100,66,0.21,6.3,312,6.1,0.34,1.41,100,4.03,24100,23.67,48,0.04,36,1,100,22.31,100,1009,3.12,1275.21
2026-05-24 04:00:00.000,76,17.96,0.0,0,24.95,283.56,22,0.0,1,100,67,0.2,6.48,288,6.09,0.37,1.33,100,4.25,24100,23.68,49,0.05,36,1,100,22.31,100,1008,3.38,1294.03
2026-05-24 05:00:00.000,75,17.96,0.0,0,25.02,257.97,22,0.0,1,100,68,0.19,6.64,258,6.1,0.51,1.25,100,4.45,24100,23.83,49,0.06,37,1,100,22.48,100,1008,3.62,1242.46
2026-05-24 06:00:00.000,75,17.92,0.0,0,24.78,223.16,22,0.0,1,100,69,0.17,6.7,249,6.0,0.81,1.17,100,4.52,24100,23.74,50,0.06,38,1,100,22.46,100,1008,3.71,1124.05
2026-05-24 07:00:00.000,76,17.87,0.0,0,24.32,177.85,22,0.0,1,100,68,0.14,6.6,242,5.74,1.0,1.09,100,4.39,24100,23.28,49,0.06,38,1,100,22.16,100,1008,3.57,946.86
2026-05-24 08:00:00.000,78,17.84,0.0,0,23.73,127.55,22,0.0,1,100,67,0.1,6.41,234,5.37,1.09,1.01,100,4.14,24100,22.55,48,0.06,39,0,100,21.65,100,1008,3.28,723.0
2026-05-24 09:00:00.000,81,17.89,0.0,0,23.24,74.24,22,0.0,1,100,67,0.07,6.2,221,5.0,1.13,0.94,100,3.89,24100,21.84,47,0.05,40,0,100,21.16,72,1008,2.96,467.72
2026-05-24 10:00:00.000,84,18.02,0.0,0,22.76,21.81,22,0.0,1,100,66,0.03,5.99,211,4.63,1.28,0.88,100,3.67,24100,21.2,46,0.04,40,0,100,20.74,29,1008,2.63,198.44
2026-05-24 11:00:00.000,87,18.16,0.0,0,22.35,2.21,22,0.0,0,100,65,0.02,5.77,197,4.25,1.36,0.83,100,3.45,24100,20.56,45,0.03,41,0,100,20.32,0,1008,2.27,18.99
2026-05-24 12:00:00.000,89,18.24,0.0,0,21.99,-0.38,22,0.0,0,100,66,0.0,5.6,189,3.9,1.4,0.81,100,3.26,24100,20.03,44,0.03,42,0,100,19.95,0,1008,2.0,0.0
2026-05-24 13:00:00.000,91,18.2,0.0,0,21.71,0.0,22,0.0,0,100,67,0.0,5.52,184,3.59,1.22,0.81,100,3.14,24100,19.57,43,0.02,41,0,100,19.56,0,1008,1.86,0.0
2026-05-24 14:00:00.000,93,18.11,0.0,0,21.49,0.0,22,0.0,0,100,69,0.0,5.5,193,3.32,0.94,0.83,94,3.05,24100,19.17,42,0.02,40,0,94,19.18,0,1008,1.81,0.0
2026-05-24 15:00:00.000,94,18.02,0.0,0,21.23,0.0,9,0.0,0,100,71,0.0,5.5,203,3.1,0.77,0.87,56,3.0,24100,18.85,41,0.01,39,0,56,18.85,0,1007,1.78,0.0
2026-05-24 16:00:00.000,96,17.98,0.0,0,20.96,0.0,6,0.0,0,100,72,0.0,5.53,207,2.94,0.74,0.93,30,2.99,24100,18.61,40,0.01,37,0,18,18.57,0,1007,1.77,0.0
2026-05-24 17:00:00.000,97,17.93,0.0,0,20.7,0.0,15,0.0,0,100,73,0.0,5.58,205,2.84,0.79,1.01,30,3.02,24100,18.47,39,0.01,36,0,0,18.36,0,1007,1.78,0.0
2026-05-24 18:00:00.000,97,17.88,0.0,0,20.62,0.0,15,0.0,0,100,74,0.0,5.6,205,2.8,0.86,1.11,30,3.05,24100,18.55,38,0.01,36,0,0,18.36,0,1007,1.8,0.0
2026-05-24 19:00:00.000,93,17.8,0.0,0,21.0,0.0,15,0.0,0,100,71,0.0,5.55,206,2.82,0.9,1.22,30,3.08,24100,19.1,38,0.0,35,0,0,18.8,0,1007,1.81,0.0
2026-05-24 20:00:00.000,87,17.66,0.0,0,21.88,-0.17,15,0.0,1,100,68,0.0,5.46,213,2.89,0.87,1.36,30,3.12,24100,20.16,37,0.0,35,0,0,19.73,0,1007,1.82,0.0
2026-05-24 21:00:00.000,80,17.42,0.0,33,23.14,14.36,15,0.0,1,100,65,0.02,5.4,219,3.0,0.69,1.48,30,3.18,24100,21.54,37,0.0,35,0,0,20.96,0,1007,1.85,81.76
2026-05-24 22:00:00.000,73,17.15,0.0,40,24.36,94.54,3,0.0,1,100,61,0.06,5.37,239,3.17,0.38,1.61,30,3.27,24100,22.82,37,0.0,35,0,0,22.08,0,1008,1.89,325.82
2026-05-24 23:00:00.000,68,16.95,0.0,40,25.27,213.47,3,0.0,1,100,57,0.14,5.37,326,3.37,0.29,1.72,30,3.37,24100,23.93,37,0.01,35,0,0,23.02,0,1008,1.96,590.74
2026-05-25 00:00:00.000,68,17.17,0.0,40,25.67,384.91,3,0.0,1,100,54,0.25,5.4,316,3.5,0.27,1.77,30,3.49,24100,24.42,38,0.01,36,0,0,23.31,0,1008,2.08,833.28
2026-05-25 01:00:00.000,67,17.26,0.0,40,25.69,483.44,3,0.0,1,100,51,0.33,5.48,312,3.51,0.68,1.72,30,3.61,24100,24.96,38,0.01,35,1,0,23.58,0,1008,2.3,1036.93
2026-05-25 02:00:00.000,67,17.3,0.0,40,25.68,552.8,6,0.0,1,100,48,0.38,5.59,310,3.46,1.01,1.59,30,3.73,24100,25.46,38,0.01,35,1,0,23.77,10,1007,2.57,1187.83
2026-05-25 03:00:00.000,66,17.28,0.0,40,25.9,583.88,6,0.0,1,100,47,0.4,5.7,310,3.4,1.12,1.46,30,3.85,24100,25.82,39,0.02,35,1,0,23.87,11,1007,2.83,1275.7
2026-05-25 04:00:00.000,65,17.27,0.0,40,26.11,583.84,6,0.0,1,100,45,0.4,5.84,306,3.36,1.15,1.32,30,3.98,24083,26.3,39,0.02,35,1,0,24.11,11,1007,3.07,1294.58
2026-05-25 05:00:00.000,64,17.25,0.0,40,26.27,547.79,6,0.0,1,100,44,0.38,5.97,296,3.31,1.16,1.18,30,4.1,24066,26.88,39,0.03,35,0,0,24.5,10,1007,3.29,1243.19
2026-05-25 06:00:00.000,63,17.17,0.0,40,26.17,484.12,6,0.0,1,100,43,0.34,6.0,288,3.3,1.33,1.05,30,4.12,24100,26.97,39,0.03,36,0,0,24.55,10,1007,3.4,1125.05
2026-05-25 07:00:00.000,64,17.05,0.0,40,25.62,388.46,6,0.0,1,100,41,0.27,5.84,283,3.34,1.4,0.95,30,3.97,24250,26.31,37,0.03,36,0,0,24.1,10,1007,3.33,948.23
2026-05-25 08:00:00.000,67,16.92,0.0,40,24.79,277.79,6,0.0,1,100,40,0.2,5.57,280,3.42,1.35,0.87,30,3.73,24449,25.13,35,0.02,37,0,10,23.29,10,1007,3.15,724.78
2026-05-25 09:00:00.000,70,16.87,0.0,40,24.09,159.9,6,0.0,1,100,39,0.11,5.3,277,3.5,1.16,0.81,30,3.49,24550,23.93,33,0.02,38,0,11,22.48,0,1007,2.95,469.95
2026-05-25 10:00:00.000,74,16.89,0.0,40,23.43,47.66,6,0.0,1,100,37,0.04,5.06,272,3.57,1.02,0.77,30,3.27,24602,22.76,31,0.02,39,0,11,21.71,0,1007,2.73,201.11
2026-05-25 11:00:00.000,77,16.9,0.0,14,22.88,4.07,6,0.0,0,100,37,0.01,4.83,270,3.64,0.7,0.75,30,3.06,24554,21.55,30,0.01,40,0,10,20.93,0,1007,2.49,20.43
2026-05-25 12:00:00.000,80,16.87,0.0,0,22.38,-0.38,6,0.0,0,100,36,0.0,4.6,271,3.7,0.43,0.75,30,2.86,24100,20.55,28,0.01,41,0,10,20.26,0,1007,2.3,0.0
2026-05-25 13:00:00.000,83,16.76,0.0,0,21.89,0.0,6,0.0,0,100,34,0.0,4.39,315,3.76,0.26,0.77,30,2.68,22967,19.81,27,0.01,41,0,10,19.69,0,1007,2.2,0.0
2026-05-25 14:00:00.000,85,16.64,0.0,0,21.2,0.0,6,0.0,0,100,32,0.0,4.18,339,3.8,0.45,0.81,30,2.5,21427,19.24,27,0.01,41,0,10,19.2,0,1007,2.14,0.0
2026-05-25 15:00:00.000,86,16.55,0.0,0,20.63,0.0,15,0.0,0,100,31,0.0,4.0,349,3.8,0.6,0.86,30,2.37,19990,18.79,27,0.0,42,0,0,18.77,0,1007,2.11,0.0
2026-05-25 16:00:00.000,88,16.54,0.0,0,20.24,0.0,15,0.0,0,100,29,0.0,3.84,1,3.79,0.65,0.93,30,2.3,18616,18.43,27,0.0,42,0,0,18.41,0,1007,2.09,0.0
2026-05-25 17:00:00.000,90,16.55,0.0,0,19.98,0.0,15,0.0,0,100,29,0.0,3.71,15,3.73,0.63,1.01,30,2.26,17345,18.2,28,0.0,43,0,0,18.13,0,1007,2.09,0.0
2026-05-25 18:00:00.000,91,16.57,0.0,0,19.96,0.0,15,0.0,0,100,30,0.0,3.6,24,3.5,0.57,1.08,30,2.25,16800,18.23,29,0.0,44,0,0,18.06,0,1007,2.11,0.0
2026-05-25 19:00:00.000,88,16.57,0.0,0,20.42,0.0,15,0.0,0,100,32,0.0,3.5,24,2.99,0.45,1.14,30,2.23,17406,18.76,28,0.0,44,0,0,18.44,0,1007,2.13,0.0
2026-05-25 20:00:00.000,83,16.51,0.0,0,21.32,-0.17,15,0.0,1,100,35,0.0,3.43,9,2.32,0.36,1.19,30,2.22,18738,19.82,28,0.0,44,0,0,19.3,0,1007,2.16,0.0
2026-05-25 21:00:00.000,77,16.35,0.0,33,22.35,16.06,3,0.0,1,100,39,0.02,3.4,7,1.7,0.47,1.24,30,2.25,20140,21.2,28,0.0,44,0,0,20.47,0,1007,2.22,82.62
2026-05-25 22:00:00.000,71,16.15,0.0,40,23.09,103.03,3,0.0,1,100,43,0.07,3.43,13,1.15,0.81,1.3,30,2.32,21594,22.49,28,0.0,44,0,0,21.54,0,1007,2.29,327.35
2026-05-25 23:00:00.000,67,16.02,0.0,40,23.58,227.38,3,0.0,1,100,48,0.16,3.5,17,0.65,1.3,1.36,30,2.42,23117,23.61,29,0.0,44,1,0,22.42,0,1008,2.39,591.86
2026-05-26 00:00:00.000,67,16.31,0.0,40,23.95,399.74,3,0.0,1,100,52,0.26,3.6,19,0.4,1.26,1.42,30,2.52,24100,24.07,29,0.0,44,2,0,22.65,0,1008,2.56,834.06
2026-05-26 01:00:00.000,67,16.42,0.0,40,24.08,503.51,3,0.0,1,100,54,0.33,3.72,5,0.51,1.43,1.49,30,2.63,24182,24.51,30,0.01,43,4,0,22.85,0,1007,2.84,1037.46
2026-05-26 02:00:00.000,66,16.45,0.0,40,24.25,577.43,3,0.0,1,100,56,0.38,3.86,356,0.87,1.58,1.57,30,2.74,23724,24.86,30,0.01,43,5,0,22.95,0,1007,3.2,1188.22
2026-05-26 03:00:00.000,66,16.44,0.0,40,24.45,611.92,3,0.0,1,100,58,0.41,4.0,354,1.3,1.64,1.64,30,2.86,23200,25.09,30,0.01,43,7,0,22.98,0,1007,3.52,1276.07
2026-05-26 04:00:00.000,65,16.44,0.0,40,24.63,613.75,3,0.0,1,100,59,0.41,4.16,352,1.79,1.64,1.71,30,3.03,22649,25.45,30,0.02,42,8,0,23.16,0,1007,3.82,1295.03
2026-05-26 05:00:00.000,64,16.45,0.0,40,24.81,577.73,3,0.0,1,100,61,0.39,4.32,347,2.36,1.58,1.77,30,3.2,22033,25.91,31,0.02,43,7,0,23.5,0,1006,4.09,1243.84
2026-05-26 06:00:00.000,64,16.47,0.0,40,24.74,512.1,3,0.0,1,100,64,0.35,4.4,338,2.9,1.53,1.8,30,3.28,21700,25.95,31,0.02,43,6,0,23.55,0,1006,4.21,1125.99
2026-05-26 07:00:00.000,66,16.57,0.0,40,24.53,411.7,3,0.0,1,100,66,0.28,4.36,330,3.37,1.33,1.8,30,3.19,21850,25.35,30,0.02,42,4,0,23.17,0,1006,4.1,949.53
2026-05-26 08:00:00.000,69,16.7,0.0,44,24.11,304.12,3,0.0,1,83,69,0.2,4.23,323,3.81,1.02,1.78,24,3.0,22283,24.29,29,0.02,42,2,0,22.47,0,1007,3.83,726.48
2026-05-26 09:00:00.000,73,16.86,0.0,52,23.75,189.06,2,0.0,1,39,73,0.12,4.1,315,4.2,0.64,1.74,11,2.83,22750,23.22,28,0.02,42,1,0,21.78,0,1007,3.54,472.07
2026-05-26 10:00:00.000,77,17.0,0.0,60,23.36,60.96,1,0.0,1,0,76,0.04,3.97,285,4.58,0.37,1.69,0,2.7,23222,22.2,27,0.02,41,0,0,21.15,0,1007,3.22,203.62
2026-05-26 11:00:00.000,80,17.1,0.0,21,22.86,5.15,13,0.0,0,0,79,0.0,3.83,206,4.92,0.23,1.61,0,2.57,23727,21.15,26,0.01,41,0,0,20.5,0,1007,2.88,21.76
2026-05-26 12:00:00.000,83,17.14,0.0,0,22.21,-0.38,13,0.0,0,0,83,0.0,3.7,169,5.1,0.39,1.49,0,2.46,24100,20.28,25,0.01,42,0,0,19.95,0,1008,2.61,0.0
2026-05-26 13:00:00.000,86,17.1,0.0,0,21.72,0.0,13,0.0,0,0,87,0.0,3.59,152,5.04,0.36,1.31,0,2.35,24250,19.61,24,0.01,42,0,0,19.45,0,1008,2.47,0.0
2026-05-26 14:00:00.000,88,17.03,0.0,0,21.41,0.0,13,0.0,0,0,91,0.0,3.48,177,4.83,0.12,1.09,0,2.25,24266,19.07,23,0.01,42,0,0,19.01,0,1007,2.4,0.0
2026-05-26 15:00:00.000,89,16.95,0.0,0,21.02,0.0,13,0.0,0,0,95,0.0,3.4,266,4.6,0.11,0.88,0,2.2,24250,18.67,22,0.0,42,0,0,18.64,0,1007,2.34,0.0
2026-05-26 16:00:00.000,91,16.92,0.0,0,20.7,0.0,13,0.0,0,0,98,0.0,3.34,252,4.38,0.12,0.67,0,2.21,24216,18.37,21,0.0,42,0,0,18.34,0,1007,2.29,0.0
2026-05-26 17:00:00.000,92,16.87,0.0,0,20.44,0.0,13,0.0,0,0,101,0.0,3.31,200,4.14,0.17,0.47,0,2.28,24150,18.21,21,0.0,42,0,0,18.13,0,1007,2.26,0.0
2026-05-26 18:00:00.000,92,16.84,0.0,0,20.37,0.0,13,0.0,0,0,102,0.0,3.3,193,4.0,0.29,0.31,0,2.36,24100,18.37,21,0.0,42,0,0,18.16,0,1007,2.21,0.0
2026-05-26 19:00:00.000,88,16.81,0.0,0,20.81,0.0,13,0.0,0,0,99,0.0,3.31,205,4.01,0.39,0.22,0,2.43,24088,19.12,20,0.0,41,0,0,18.68,0,1007,2.11,0.0
2026-05-26 20:00:00.000,82,16.71,0.0,0,21.75,-0.17,14,0.0,1,36,93,0.0,3.34,226,4.1,0.45,0.17,10,2.5,24094,20.46,19,0.0,39,0,0,19.71,0,1008,1.99,0.0
2026-05-26 21:00:00.000,75,16.49,0.0,36,23.07,18.49,3,0.0,1,81,89,0.02,3.4,248,4.2,0.36,0.14,24,2.58,24100,22.13,19,0.0,39,0,0,21.05,0,1008,1.89,83.31
2026-05-26 22:00:00.000,68,16.25,0.0,40,24.25,116.04,3,0.0,1,100,84,0.07,3.51,312,4.31,0.29,0.12,30,2.68,24100,23.71,19,0.0,38,0,0,22.29,0,1008,1.81,328.56
2026-05-26 23:00:00.000,63,16.08,0.0,40,25.01,258.77,3,0.0,1,100,80,0.17,3.66,0,4.42,0.64,0.13,30,2.79,24100,25.12,19,0.0,38,1,0,23.36,0,1009,1.74,592.72
2026-05-27 00:00:00.000,63,16.41,0.0,40,25.58,452.9,3,0.0,1,100,79,0.3,3.8,1,4.4,0.6,0.13,30,2.88,24100,25.84,19,0.0,38,2,0,23.77,0,1009,1.77,834.64
2026-05-27 01:00:00.000,62,16.57,0.0,40,25.95,571.04,3,0.0,1,100,83,0.38,3.91,340,4.15,0.9,0.15,30,2.96,24100,26.48,18,0.01,38,4,0,24.15,0,1009,1.94,1037.84
2026-05-27 02:00:00.000,62,16.69,0.0,40,26.6,655.03,3,0.0,1,100,91,0.44,4.01,331,3.77,1.19,0.14,30,3.02,24100,26.98,18,0.01,38,6,0,24.44,0,1008,2.2,1188.5
2026-05-27 03:00:00.000,61,16.76,0.0,49,27.28,744.26,3,0.0,1,57,99,0.5,4.1,330,3.4,1.3,0.13,17,3.08,24100,27.33,19,0.02,39,8,0,24.62,0,1008,2.44,1276.36
2026-05-27 04:00:00.000,60,16.85,0.0,60,28.03,815.74,1,0.0,1,0,107,0.55,4.2,327,3.04,1.37,0.13,0,3.16,24100,27.78,19,0.02,39,9,0,24.94,0,1008,2.68,1295.44
2026-05-27 05:00:00.000,59,16.95,0.0,60,28.22,770.19,1,0.0,1,0,115,0.53,4.3,322,2.7,1.39,0.14,0,3.23,24100,28.3,19,0.02,40,8,0,25.38,0,1008,2.9,1244.46
2026-05-27 06:00:00.000,59,17.0,0.0,60,27.72,683.32,1,0.0,1,0,121,0.47,4.3,314,2.5,1.47,0.13,0,3.22,24100,28.34,19,0.03,41,7,0,25.46,0,1008,3.0,1126.91
2026-05-27 07:00:00.000,61,17.04,0.0,60,26.52,551.68,1,0.0,1,0,122,0.38,4.16,307,2.52,1.39,0.11,0,3.09,24100,27.67,18,0.02,41,5,0,24.99,0,1008,2.91,950.81
2026-05-27 08:00:00.000,64,17.07,0.0,60,25.83,396.43,1,0.0,1,0,121,0.26,3.92,301,2.69,1.16,0.08,0,2.89,24100,26.49,17,0.02,41,3,0,24.13,0,1008,2.7,728.16
2026-05-27 09:00:00.000,68,17.17,0.0,57,25.23,225.44,2,0.0,1,11,120,0.14,3.7,295,2.9,0.83,0.07,3,2.69,24100,25.29,17,0.02,41,1,0,23.26,0,1008,2.46,474.16
2026-05-27 10:00:00.000,72,17.3,0.0,49,24.61,64.6,3,0.0,1,53,117,0.04,3.51,281,3.16,0.61,0.06,16,2.53,24100,24.11,16,0.02,41,0,0,22.43,0,1009,2.21,206.11
2026-05-27 11:00:00.000,77,17.41,0.0,15,24.04,5.19,3,0.0,0,100,114,0.0,3.34,254,3.46,0.28,0.07,30,2.37,24100,22.89,16,0.01,41,0,0,21.58,0,1009,1.93,23.09
2026-05-27 12:00:00.000,80,17.45,0.0,0,23.4,-0.38,15,0.0,0,100,110,0.0,3.2,188,3.7,0.19,0.1,30,2.24,24100,21.87,16,0.01,42,0,0,20.86,0,1009,1.71,0.0
2026-05-27 13:00:00.000,83,17.41,0.0,0,22.79,0.0,15,0.0,0,100,105,0.0,3.1,132,3.85,0.18,0.18,30,2.14,24100,21.08,15,0.01,42,0,0,20.27,0,1009,1.57,0.0
2026-05-27 14:00:00.000,85,17.34,0.0,0,22.35,0.0,15,0.0,0,100,99,0.0,3.03,51,3.94,0.05,0.29,30,2.07,24100,20.45,13,0.0,42,0,0,19.76,0,1009,1.49,0.0
2026-05-27 15:00:00.000,87,17.3,0.0,0,21.89,0.0,15,0.0,0,100,94,0.0,3.0,355,4.0,0.09,0.4,30,2.01,24100,19.94,13,0.0,43,0,0,19.35,0,1009,1.43,0.0
2026-05-27 16:00:00.000,90,17.34,0.0,0,21.6,0.0,15,0.0,0,100,88,0.0,3.02,90,4.04,0.06,0.51,30,1.99,24100,19.52,12,0.0,43,0,0,19.01,0,1009,1.39,0.0
2026-05-27 17:00:00.000,91,17.4,0.0,0,21.24,0.0,15,0.0,0,100,83,0.0,3.08,138,4.06,0.27,0.63,30,1.99,24100,19.22,12,0.0,43,0,0,18.78,0,1009,1.38,0.0
2026-05-27 18:00:00.000,92,17.46,0.0,0,21.16,0.0,15,0.0,0,100,79,0.0,3.1,148,4.0,0.44,0.7,30,1.97,24100,19.2,12,0.0,44,0,0,18.79,0,1009,1.4,0.0
2026-05-27 19:00:00.000,89,17.51,0.0,0,21.64,0.0,15,0.0,0,100,74,0.0,3.05,155,3.84,0.51,0.71,30,1.9,24100,19.7,12,0.0,44,0,0,19.3,0,1009,1.46,0.0
2026-05-27 20:00:00.000,83,17.48,0.0,0,22.71,-0.17,15,0.0,1,100,71,0.0,2.96,163,3.62,0.44,0.67,30,1.8,24100,20.75,12,0.0,43,0,0,20.33,0,1009,1.55,0.0
2026-05-27 21:00:00.000,76,17.3,0.0,33,24.08,18.66,3,0.0,1,100,68,0.01,2.9,144,3.4,0.28,0.63,30,1.75,24100,22.11,14,0.0,44,0,0,21.67,0,1009,1.66,84.01
2026-05-27 22:00:00.000,69,17.0,0.0,40,25.15,116.53,3,0.0,1,100,65,0.07,2.86,67,3.18,0.33,0.6,30,1.76,24090,23.38,15,0.0,44,0,0,22.91,0,1010,1.79,329.78
2026-05-27 23:00:00.000,63,16.72,0.0,40,25.76,251.35,3,0.0,1,100,64,0.17,2.85,40,2.96,0.8,0.55,30,1.8,24080,24.47,17,0.0,44,1,0,23.97,0,1010,1.94,593.58
2026-05-28 00:00:00.000,63,16.96,0.0,40,26.26,429.49,3,0.0,1,100,64,0.29,2.9,40,2.8,0.79,0.5,30,1.89,24100,24.88,19,0.0,45,2,0,24.35,0,1010,2.15,835.21
2026-05-28 01:00:00.000,62,17.12,0.0,40,26.59,533.92,3,0.0,1,100,65,0.37,3.05,10,2.76,0.88,0.44,30,2.02,24190,25.21,20,0.0,44,4,0,24.68,0,1010,2.44,1038.22
2026-05-28 02:00:00.000,62,17.27,0.0,40,27.07,603.74,3,0.0,1,100,68,0.42,3.27,350,2.79,1.08,0.39,30,2.2,24310,25.42,22,0.01,43,6,0,24.89,0,1009,2.78,1188.78
2026-05-28 03:00:00.000,62,17.38,0.0,40,27.33,630.52,3,0.0,1,100,72,0.44,3.5,342,2.8,1.18,0.33,30,2.39,24370,25.52,24,0.01,42,8,0,25.01,0,1009,3.09,1276.65
2026-05-28 04:00:00.000,62,17.51,0.0,40,27.56,622.67,3,0.0,1,100,75,0.44,3.76,335,2.83,1.2,0.29,30,2.6,24400,25.76,25,0.01,41,9,0,25.26,0,1009,3.37,1295.84
2026-05-28 05:00:00.000,61,17.64,0.0,40,27.73,576.82,3,0.0,1,100,79,0.41,4.04,323,2.85,1.17,0.24,30,2.82,24371,26.12,27,0.01,40,8,0,25.63,0,1009,3.62,1245.08
2026-05-28 06:00:00.000,61,17.71,0.0,40,27.57,503.08,3,0.0,1,100,83,0.36,4.2,310,2.7,1.26,0.23,30,2.94,24100,26.13,29,0.02,40,7,0,25.66,0,1009,3.71,1127.82
2026-05-28 07:00:00.000,63,17.75,0.0,40,27.11,400.86,3,0.0,1,100,84,0.29,4.17,301,2.27,1.23,0.27,30,2.91,23426,25.62,29,0.02,39,5,0,25.17,0,1009,3.58,952.08
2026-05-28 08:00:00.000,66,17.77,0.0,40,26.37,285.02,3,0.0,1,100,85,0.2,4.04,295,1.67,1.07,0.33,30,2.79,22510,24.74,29,0.01,38,3,0,24.31,0,1009,3.29,729.84
2026-05-28 09:00:00.000,70,17.79,0.0,40,25.71,163.95,3,0.0,1,100,85,0.11,3.9,288,1.1,0.79,0.4,30,2.66,21650,23.86,29,0.01,38,1,0,23.44,0,1009,2.98,476.25
2026-05-28 10:00:00.000,74,17.79,0.0,40,25.03,50.31,3,0.0,1,100,84,0.04,3.8,277,0.57,0.58,0.47,30,2.55,20829,23.03,29,0.01,37,0,0,22.62,0,1009,2.65,208.59
2026-05-28 11:00:00.000,77,17.74,0.0,15,24.42,4.56,3,0.0,0,100,83,0.01,3.69,258,0.08,0.22,0.55,30,2.42,20065,22.18,29,0.01,38,0,0,21.77,0,1009,2.29,24.42
2026-05-28 12:00:00.000,80,17.65,0.0,0,23.74,-0.38,15,0.0,0,100,81,0.0,3.6,139,-0.2,0.11,0.6,30,2.3,19700,21.46,29,0.01,38,0,0,21.06,0,1009,2.0,0.0
2026-05-28 13:00:00.000,83,17.52,0.0,0,22.95,0.0,15,0.0,0,100,76,0.0,3.52,80,-0.17,0.3,0.62,30,2.19,19957,20.85,28,0.01,37,0,0,20.46,0,1009,1.83,0.0
2026-05-28 14:00:00.000,85,17.39,0.0,0,22.32,0.0,15,0.0,0,100,71,0.0,3.45,46,0.08,0.39,0.61,30,2.09,20614,20.34,27,0.01,37,0,0,19.95,0,1009,1.72,0.0
2026-05-28 15:00:00.000,86,17.29,0.0,0,21.79,0.0,15,0.0,0,100,66,0.0,3.4,36,0.4,0.49,0.6,30,2.02,21340,19.93,27,0.01,37,0,0,19.53,0,1009,1.65,0.0
2026-05-28 16:00:00.000,88,17.27,0.0,0,21.42,0.0,15,0.0,0,100,60,0.0,3.4,47,0.78,0.51,0.58,30,2.01,22106,19.61,26,0.01,36,0,0,19.18,0,1009,1.6,0.0
2026-05-28 17:00:00.000,89,17.26,0.0,0,21.16,0.0,15,0.0,0,100,55,0.0,3.41,69,1.24,0.52,0.56,30,2.02,22942,19.41,25,0.01,36,0,0,18.94,0,1009,1.58,0.0
2026-05-28 18:00:00.000,90,17.27,0.0,0,21.18,0.0,15,0.0,0,100,51,0.0,3.4,87,1.7,0.53,0.53,30,2.02,23600,19.52,25,0.01,37,0,0,18.95,0,1009,1.61,0.0
2026-05-28 19:00:00.000,87,17.29,0.0,0,21.73,0.0,15,0.0,0,100,46,0.0,3.31,100,2.15,0.49,0.5,30,1.98,23968,20.25,24,0.01,37,0,0,19.47,0,1009,1.69,0.0
2026-05-28 20:00:00.000,81,17.24,0.0,0,22.83,-0.17,15,0.0,1,100,42,0.0,3.19,103,2.6,0.36,0.46,30,1.92,24159,21.57,23,0.01,38,0,0,20.51,0,1009,1.81,0.0
2026-05-28 21:00:00.000,74,17.06,0.0,34,24.11,16.9,3,0.0,1,100,39,0.02,3.1,79,3.0,0.37,0.43,30,1.89,24260,23.17,23,0.02,39,0,0,21.86,0,1009,1.96,84.7
2026-05-28 22:00:00.000,67,16.87,0.0,40,25.09,108.0,3,0.0,1,100,36,0.08,3.06,51,3.41,0.63,0.41,30,1.9,24318,24.66,22,0.02,39,0,0,23.11,0,1009,2.12,330.99
2026-05-28 23:00:00.000,63,16.76,0.0,40,25.78,239.13,3,0.0,1,100,34,0.17,3.04,40,3.77,1.1,0.39,30,1.94,24286,25.95,22,0.02,40,1,0,24.18,0,1010,2.31,594.44
2026-05-29 00:00:00.000,63,17.16,0.0,40,26.36,421.41,3,0.0,1,100,34,0.29,3.1,41,3.9,1.07,0.4,30,2.02,24100,26.42,22,0.03,41,2,0,24.56,0,1010,2.53,835.79
