time,relativehumidity,dewpointtemperature,precipitation,sunshinetime,felttemperature,ghi_backwards,pictocode,snowfraction,isdaylight,highclouds,cape,referenceevapotranspiration_fao,gust,winddirection,liftedindex,windspeed,precipitation_spread,totalcloudcover,windspeed_spread,visibility,skintemperature,precipitation_probability,evapotranspiration,totalcloudcover_spread,uvindex,lowclouds,temperature,midclouds,sealevelpressure,temperature_spread,extraterrestrialradiation_backwards
2026-03-08 00:00:00.000,50,-1.1,0.0,21,4.91,338.0,9,0.0,1,67,20,0.15,4.95,98,17.13,1.77,0.0,60,0.5,21630,10.87,0,0.07,19,1,60,8.45,0,1026,0.41,507.33
2026-03-08 01:00:00.000,47,-1.12,0.0,22,5.99,508.69,9,0.0,1,74,15,0.23,4.69,95,17.18,1.73,0.0,58,0.42,25630,14.09,0,0.12,19,1,58,9.49,2,1026,0.44,745.28
2026-03-08 02:00:00.000,45,-1.15,0.0,0,7.1,624.46,22,0.0,1,83,12,0.29,4.42,73,16.83,1.67,0.0,100,0.32,27430,16.01,0,0.15,20,2,55,10.13,100,1026,0.47,927.93
2026-03-08 03:00:00.000,43,-1.18,0.0,0,7.53,619.59,22,0.0,1,91,10,0.3,4.25,46,16.23,1.66,0.0,99,0.28,28430,17.0,0,0.16,19,3,64,10.58,99,1026,0.5,1042.83
2026-03-08 04:00:00.000,43,-1.13,0.0,0,7.83,627.35,22,0.0,1,96,9,0.31,4.08,31,15.36,1.6,0.0,100,0.38,27830,17.41,0,0.17,13,4,57,10.78,100,1025,0.51,1082.16
2026-03-08 05:00:00.000,44,-0.92,0.0,0,7.49,531.62,22,0.0,1,100,8,0.27,3.65,20,14.22,1.5,0.0,99,0.54,27030,16.99,0,0.17,6,5,48,10.81,99,1025,0.51,1043.26
2026-03-08 06:00:00.000,45,-0.76,0.0,0,7.4,467.99,22,0.0,1,100,8,0.24,3.5,13,13.42,1.4,0.0,99,0.64,25830,15.71,0,0.15,3,4,35,10.63,99,1024,0.49,928.8
2026-03-08 07:00:00.000,46,-0.6,0.0,0,7.14,317.88,22,0.0,1,90,6,0.17,3.4,8,12.88,1.28,0.0,100,0.61,24630,13.86,0,0.12,6,2,29,10.26,100,1025,0.45,746.58
2026-03-08 08:00:00.000,49,-0.52,0.0,0,6.55,190.48,22,0.0,1,75,5,0.1,3.33,4,12.77,1.21,0.0,99,0.51,23230,11.57,0,0.09,13,1,24,9.61,99,1025,0.4,509.06
2026-03-08 09:00:00.000,51,-0.57,0.0,0,5.92,68.96,22,0.0,1,59,4,0.05,2.8,12,13.07,0.99,0.0,100,0.42,21430,6.11,0,0.05,19,0,10,8.83,100,1025,0.37,232.43
2026-03-08 10:00:00.000,54,-0.58,0.0,0,5.35,2.41,22,0.0,0,38,3,0.03,2.3,30,13.16,0.75,0.0,96,0.36,19440,1.93,0,0.0,20,0,7,8.09,96,1025,0.38,29.65
2026-03-08 11:00:00.000,57,-0.51,0.0,0,4.86,0.0,5,0.0,0,15,3,0.0,1.89,73,12.82,0.53,0.0,38,0.31,18510,1.05,0,0.0,20,0,6,7.44,38,1025,0.42,0.0
2026-03-08 12:00:00.000,59,-0.53,0.0,0,4.29,0.0,1,0.0,0,0,3,0.0,1.2,113,12.81,0.4,0.0,8,0.28,17910,0.24,0,0.0,19,0,8,6.78,6,1025,0.44,0.0
2026-03-08 13:00:00.000,62,-0.5,0.0,0,3.73,0.0,4,0.0,0,0,4,0.0,1.16,198,12.42,0.34,0.0,16,0.31,17300,-0.36,0,0.0,14,0,16,6.17,0,1025,0.43,0.0
2026-03-08 14:00:00.000,65,-0.38,0.0,0,3.16,0.0,4,0.0,0,0,7,0.0,1.57,205,12.06,0.45,0.0,26,0.37,16900,-0.67,0,0.0,9,0,26,5.67,6,1025,0.41,0.0
2026-03-08 15:00:00.000,67,-0.29,0.0,0,2.71,0.0,4,0.0,0,0,10,0.0,1.7,167,12.13,0.52,0.0,33,0.42,16100,-1.12,0,0.0,5,0,33,5.24,8,1025,0.39,0.0
2026-03-08 16:00:00.000,68,-0.25,0.0,0,2.42,0.0,4,0.0,0,8,8,0.0,1.93,167,13.04,0.58,0.0,29,0.46,15300,-1.03,0,0.0,2,0,29,4.99,0,1025,0.38,0.0
2026-03-08 17:00:00.000,70,-0.07,0.0,0,2.17,0.0,5,0.0,0,20,9,0.0,2.48,182,13.6,0.64,0.0,38,0.48,14900,4.64,0,0.0,0,0,38,4.76,0,1025,0.37,0.0
2026-03-08 18:00:00.000,73,0.23,0.0,0,2.01,0.0,8,0.0,0,26,12,0.0,2.75,193,14.99,0.75,0.0,44,0.5,14900,4.83,0,0.0,1,0,44,4.62,1,1024,0.37,0.0
2026-03-08 19:00:00.000,75,0.55,0.0,0,1.84,0.0,8,0.0,0,22,16,0.0,3.0,205,16.32,0.78,0.0,49,0.5,14500,4.98,0,0.0,6,0,49,4.42,22,1024,0.37,0.0
2026-03-08 20:00:00.000,77,0.84,0.0,0,1.82,0.0,8,0.0,0,12,19,0.0,2.62,202,16.57,0.8,0.0,53,0.49,14700,4.17,0,0.0,14,0,53,4.38,19,1024,0.36,0.0
2026-03-08 21:00:00.000,77,1.17,0.0,0,2.19,0.0,8,0.0,0,11,21,0.0,2.15,207,16.08,0.87,0.0,61,0.5,14260,4.62,0,0.0,21,0,61,4.74,58,1024,0.36,0.0
2026-03-08 22:00:00.000,72,1.37,0.0,8,3.38,3.36,8,0.0,1,23,23,0.02,2.1,196,15.63,0.88,0.0,60,0.54,13430,6.5,0,0.0,24,0,60,5.9,48,1024,0.35,31.6
2026-03-08 23:00:00.000,64,1.38,0.0,25,5.1,87.57,8,0.0,1,43,25,0.04,2.7,193,15.76,0.85,0.0,53,0.6,13030,9.73,0,0.02,25,0,53,7.6,43,1025,0.34,236.73
2026-03-09 00:00:00.000,57,1.25,0.0,15,6.6,248.84,9,0.0,1,62,23,0.12,3.4,211,15.77,1.08,0.0,69,0.64,12430,10.96,0,0.04,27,0,50,9.28,69,1025,0.34,513.67
2026-03-09 01:00:00.000,52,1.01,0.0,7,7.37,415.18,21,0.0,1,80,20,0.2,3.89,248,15.83,1.54,0.0,82,0.66,13030,14.95,0,0.07,28,1,53,10.42,82,1025,0.36,751.44
2026-03-09 02:00:00.000,48,0.73,0.0,21,7.76,569.18,9,0.0,1,98,21,0.28,4.86,273,15.54,2.07,0.0,60,0.71,15030,17.7,0,0.12,28,3,60,11.12,22,1024,0.41,933.83
2026-03-09 03:00:00.000,46,0.34,0.0,24,8.1,628.91,9,0.0,1,100,22,0.31,5.7,288,15.22,2.53,0.0,56,0.76,16430,17.84,0,0.14,28,3,56,11.5,22,1024,0.46,1048.43
2026-03-09 04:00:00.000,44,-0.05,0.0,6,7.94,660.64,21,0.0,1,73,20,0.33,6.09,300,14.89,2.87,0.0,84,0.77,16630,18.4,0,0.15,23,3,47,11.48,84,1024,0.55,1087.43
2026-03-09 05:00:00.000,44,-0.33,0.0,39,7.39,654.86,5,0.0,1,31,13,0.32,6.89,309,14.8,3.13,0.0,32,0.8,19240,17.37,0,0.16,17,4,32,11.2,8,1023,0.66,1048.21
2026-03-09 06:00:00.000,45,-0.64,0.0,44,6.77,649.57,4,0.0,1,0,10,0.3,7.2,314,15.02,3.24,0.0,24,0.86,22430,15.91,0,0.16,14,3,24,10.74,0,1023,0.71,933.43
2026-03-09 07:00:00.000,45,-0.92,0.0,54,5.74,509.63,1,0.0,1,0,14,0.24,7.15,314,14.68,3.14,0.0,9,0.9,24030,14.15,0,0.14,16,2,9,10.2,0,1023,0.66,750.95
2026-03-09 08:00:00.000,47,-1.08,0.0,41,5.23,296.74,4,0.0,1,0,21,0.15,7.32,319,14.28,2.9,0.0,28,0.93,23440,11.37,0,0.1,21,1,28,9.55,7,1023,0.56,513.22
2026-03-09 09:00:00.000,49,-1.2,0.0,26,4.77,82.08,7,0.0,1,0,28,0.07,6.75,318,13.79,2.6,0.0,52,0.94,22240,7.46,0,0.05,24,0,48,8.9,52,1024,0.49,236.46
2026-03-09 10:00:00.000,50,-1.24,0.0,9,4.45,2.27,7,0.0,0,0,37,0.06,5.88,311,13.07,2.27,0.0,54,0.95,20640,3.97,0,0.01,20,0,44,8.35,54,1024,0.48,31.65
2026-03-09 11:00:00.000,52,-1.06,0.0,0,4.28,0.0,4,0.0,0,0,45,0.03,5.32,296,12.32,2.03,0.01,39,0.96,20100,2.98,0,0.0,14,0,38,7.99,39,1024,0.5,0.0
2026-03-09 12:00:00.000,55,-0.77,0.0,0,4.04,0.0,4,0.0,0,0,62,0.02,5.1,292,12.0,1.9,0.01,33,0.94,20500,2.59,0,0.0,12,0,33,7.61,30,1024,0.52,0.0
2026-03-09 13:00:00.000,58,-0.39,0.0,0,3.74,0.0,4,0.0,0,0,62,0.02,4.3,304,11.51,1.87,0.03,37,0.91,20900,6.62,0,0.01,15,0,25,7.23,37,1025,0.53,0.0
2026-03-09 14:00:00.000,61,0.02,0.0,0,3.41,0.0,7,0.0,0,0,73,0.02,4.39,327,10.72,1.91,0.04,50,0.87,20090,6.63,17,0.01,21,0,42,6.87,50,1025,0.54,0.0
2026-03-09 15:00:00.000,65,0.44,0.0,0,2.93,0.0,7,0.0,0,0,75,0.02,5.6,2,10.96,2.09,0.05,60,0.85,17090,6.65,18,0.02,25,0,60,6.46,47,1025,0.55,0.0
2026-03-09 16:00:00.000,67,0.68,0.0,0,2.71,0.0,7,0.0,0,0,74,0.02,5.92,19,11.42,2.27,0.06,72,0.87,14690,3.98,19,0.02,22,0,72,6.32,56,1025,0.54,0.0
2026-03-09 17:00:00.000,68,0.93,0.0,0,2.62,0.0,7,0.0,0,0,80,0.02,6.08,16,11.08,2.38,0.07,65,0.9,15080,5.83,13,0.01,17,0,65,6.26,55,1025,0.53,0.0
2026-03-09 18:00:00.000,69,1.24,0.0,0,2.79,0.0,7,0.0,0,0,84,0.02,6.15,19,10.71,2.46,0.07,61,0.92,14880,3.21,31,0.01,15,0,61,6.43,34,1025,0.52,0.0
2026-03-09 19:00:00.000,71,1.56,0.0,0,2.63,0.0,7,0.0,0,0,76,0.02,6.42,21,10.46,2.53,0.07,60,0.91,14890,5.86,15,0.01,16,0,60,6.27,0,1025,0.54,0.0
2026-03-09 20:00:00.000,74,1.82,0.0,0,2.39,0.0,7,0.0,0,0,64,0.01,5.96,23,10.5,2.53,0.06,55,0.9,14680,3.04,15,0.01,19,0,55,5.99,16,1025,0.57,0.0
2026-03-09 21:00:00.000,76,2.09,0.0,0,2.37,0.0,7,0.0,0,0,73,0.01,6.75,40,11.11,2.46,0.05,64,0.89,15850,5.68,15,0.02,22,0,64,5.87,0,1026,0.58,0.0
2026-03-09 22:00:00.000,74,2.15,0.0,7,2.97,3.32,7,0.0,1,0,66,0.03,6.13,56,11.5,2.35,0.04,63,0.89,16440,6.26,13,0.02,20,0,63,6.39,14,1026,0.57,34.86
2026-03-09 23:00:00.000,68,1.9,0.0,21,4.0,83.05,7,0.0,1,0,60,0.05,6.41,75,11.98,2.2,0.03,60,0.89,16630,8.24,4,0.03,18,0,60,7.35,7,1026,0.55,243.17
2026-03-10 00:00:00.000,61,1.41,0.0,20,4.96,232.74,7,0.0,1,0,57,0.11,6.05,86,12.6,2.15,0.02,61,0.89,16420,11.57,2,0.07,18,0,61,8.36,0,1027,0.52,519.99
2026-03-10 01:00:00.000,55,0.77,0.0,21,5.59,414.73,7,0.0,1,0,47,0.19,6.1,79,12.87,2.25,0.02,60,0.92,18220,14.18,2,0.1,21,1,60,9.17,0,1027,0.47,757.55
2026-03-10 02:00:00.000,50,0.15,0.0,20,5.98,538.22,7,0.0,1,0,38,0.25,5.99,56,13.22,2.47,0.03,61,0.96,21820,16.31,3,0.14,26,2,61,9.81,0,1027,0.41,939.68
2026-03-10 03:00:00.000,46,-0.48,0.0,21,6.61,603.6,7,0.0,1,0,29,0.29,6.15,47,12.93,2.71,0.04,60,0.98,23430,17.61,3,0.16,29,2,60,10.42,0,1026,0.39,1053.97
2026-03-10 04:00:00.000,43,-1.02,0.0,27,7.14,679.07,7,0.0,1,0,21,0.33,6.5,34,12.34,2.88,0.04,51,0.99,22630,17.81,2,0.17,28,3,51,10.74,0,1026,0.46,1092.65
2026-03-10 05:00:00.000,42,-1.41,0.0,29,6.65,588.89,7,0.0,1,0,16,0.29,6.86,25,11.88,3.0,0.04,47,0.98,23430,17.02,1,0.17,26,4,47,10.88,0,1025,0.57,1053.09
2026-03-10 06:00:00.000,41,-1.77,0.0,27,6.08,516.21,7,0.0,1,0,14,0.26,7.2,23,12.06,3.05,0.04,50,0.94,24430,15.68,0,0.16,23,4,50,10.6,0,1025,0.65,938.02
2026-03-10 07:00:00.000,42,-2.06,0.0,34,5.53,409.39,4,0.0,1,0,11,0.21,7.29,27,12.34,3.01,0.03,39,0.9,25230,13.37,0,0.14,16,2,39,10.07,0,1025,0.65,755.28
2026-03-10 08:00:00.000,44,-2.35,0.0,40,4.78,256.76,4,0.0,1,0,9,0.14,7.15,32,12.84,2.81,0.01,30,0.86,26030,10.55,0,0.11,9,1,30,9.21,0,1025,0.62,517.36
2026-03-10 09:00:00.000,45,-2.68,0.0,44,4.01,99.49,4,0.0,1,0,8,0.08,6.9,42,13.16,2.53,0.0,23,0.81,23830,6.41,0,0.06,4,0,23,8.29,0,1025,0.59,240.48
2026-03-10 10:00:00.000,48,-2.83,0.0,18,3.33,3.54,4,0.0,0,0,6,0.05,5.56,51,13.4,2.24,0.0,21,0.67,22840,3.43,0,0.01,1,0,21,7.42,0,1025,0.58,33.66
2026-03-10 11:00:00.000,50,-2.88,0.0,0,2.77,0.0,4,0.0,0,0,4,0.03,5.1,62,13.99,1.99,0.0,23,0.49,24700,2.46,0,0.01,0,0,23,6.7,0,1025,0.56,0.0
2026-03-10 12:00:00.000,52,-2.98,0.0,0,2.23,0.0,4,0.0,0,0,4,0.02,4.6,75,14.61,1.73,0.0,17,0.36,25700,1.6,0,0.0,2,0,17,5.99,0,1026,0.55,0.0
2026-03-10 13:00:00.000,54,-3.06,0.0,0,1.8,0.0,4,0.0,0,0,3,0.01,4.24,86,15.03,1.47,0.0,13,0.32,27080,0.48,0,0.0,7,0,13,5.38,0,1025,0.53,0.0
2026-03-10 14:00:00.000,56,-3.06,0.0,0,1.47,0.0,1,0.0,0,0,3,0.01,3.94,97,15.08,1.27,0.0,9,0.34,28070,-0.76,0,0.0,15,0,9,4.91,0,1025,0.51,0.0
2026-03-10 15:00:00.000,57,-3.08,0.0,0,1.31,0.0,1,0.0,0,0,3,0.01,3.75,107,14.94,1.08,0.0,7,0.36,28070,-2.16,0,0.0,20,0,7,4.62,0,1025,0.49,0.0
2026-03-10 16:00:00.000,57,-3.15,0.0,0,1.22,0.0,1,0.0,0,0,2,0.0,3.34,113,14.71,0.94,0.0,5,0.36,28080,-2.24,0,0.0,19,0,5,4.45,0,1025,0.48,0.0
2026-03-10 17:00:00.000,59,-3.09,0.0,0,1.04,0.0,7,0.0,0,0,2,0.0,3.26,117,13.89,0.83,0.0,42,0.36,28080,-1.9,0,0.0,15,0,0,4.18,42,1025,0.47,0.0
2026-03-10 18:00:00.000,60,-2.92,0.0,0,0.82,0.0,22,0.0,0,3,2,0.0,3.75,124,13.13,0.79,0.0,99,0.36,21680,-1.12,0,0.0,14,0,0,3.91,99,1025,0.47,0.0
2026-03-10 19:00:00.000,63,-2.79,0.0,0,0.45,0.0,22,0.0,0,17,1,0.0,2.57,128,12.78,0.79,0.0,100,0.38,17300,-1.13,0,0.0,16,0,0,3.52,100,1025,0.47,0.0
2026-03-10 20:00:00.000,65,-2.71,0.0,0,0.1,0.0,22,0.0,0,34,0,0.0,2.77,126,12.89,0.8,0.0,88,0.4,15510,-1.15,0,0.0,20,0,1,3.17,88,1025,0.48,0.0
2026-03-10 21:00:00.000,65,-2.49,0.0,0,0.22,0.0,20,0.0,0,42,0,0.0,3.45,121,13.02,0.82,0.0,83,0.45,13280,-1.32,0,0.0,23,0,9,3.27,83,1025,0.49,0.0
2026-03-10 22:00:00.000,61,-2.42,0.0,2,1.36,6.08,20,0.0,1,29,0,0.02,3.49,121,13.11,0.77,0.0,86,0.5,12440,0.72,0,0.0,21,0,11,4.37,86,1025,0.49,38.11
2026-03-10 23:00:00.000,53,-2.53,0.0,13,3.28,122.54,7,0.0,1,6,0,0.04,3.86,122,12.87,0.68,0.0,72,0.58,15030,6.87,0,0.02,18,0,6,6.24,72,1025,0.48,249.59
2026-03-11 00:00:00.000,45,-2.74,0.0,0,5.19,325.31,22,0.0,1,0,1,0.14,4.0,109,12.37,0.67,0.0,93,0.67,20430,11.27,0,0.07,19,1,2,8.17,93,1026,0.5,526.27
2026-03-11 01:00:00.000,40,-3.03,0.0,16,6.52,505.1,8,0.0,1,28,2,0.23,4.18,73,12.37,0.74,0.0,67,0.81,26430,14.63,0,0.11,25,2,0,9.59,67,1025,0.55,763.61
2026-03-11 02:00:00.000,37,-3.36,0.0,4,8.15,665.7,21,0.0,1,73,4,0.32,4.37,33,12.14,0.88,0.0,86,0.98,30630,16.76,0,0.15,34,3,0,10.62,86,1025,0.63,945.47
2026-03-11 03:00:00.000,34,-3.67,0.0,0,9.48,776.49,22,0.0,1,100,7,0.38,4.3,16,12.08,1.07,0.0,100,1.14,34630,17.78,0,0.18,40,4,0,11.43,100,1025,0.68,1059.45
2026-03-11 04:00:00.000,32,-3.79,0.0,0,9.95,786.78,22,0.0,1,91,8,0.4,4.81,10,11.53,1.26,0.0,100,1.27,37230,18.11,0,0.19,35,5,0,12.0,100,1024,0.69,1097.8
2026-03-11 05:00:00.000,32,-3.7,0.0,0,9.8,733.43,22,0.0,1,65,9,0.37,5.6,9,10.44,1.49,0.0,100,1.38,37830,17.32,0,0.19,27,4,0,12.36,100,1023,0.67,1057.92
2026-03-11 06:00:00.000,32,-3.53,0.0,0,8.99,622.68,22,0.0,1,41,11,0.32,6.25,10,9.28,1.71,0.0,99,1.44,36230,15.73,0,0.18,22,3,0,12.37,99,1023,0.66,942.55
2026-03-11 07:00:00.000,34,-3.27,0.0,14,8.1,470.06,8,0.0,1,25,8,0.25,6.14,13,8.82,1.82,0.0,70,1.43,32230,13.44,0,0.15,25,2,3,11.96,70,1023,0.66,759.57
2026-03-11 08:00:00.000,37,-2.99,0.0,39,7.28,288.71,5,0.0,1,10,5,0.16,6.85,18,8.46,1.85,0.0,31,1.37,30020,10.57,0,0.11,32,1,6,11.12,31,1023,0.66,521.46
2026-03-11 09:00:00.000,40,-2.86,0.0,54,6.38,102.59,1,0.0,1,0,3,0.07,5.35,26,8.26,1.69,0.0,9,1.28,27430,6.73,0,0.06,37,0,8,10.09,9,1023,0.65,244.48
2026-03-11 10:00:00.000,43,-2.72,0.0,20,5.51,7.25,4,0.0,0,0,3,0.04,4.66,44,8.27,1.53,0.0,17,1.17,24630,3.85,0,0.02,35,0,6,9.09,17,1023,0.64,35.65
2026-03-11 11:00:00.000,46,-2.51,0.0,0,4.86,0.0,7,0.0,0,0,3,0.02,4.37,72,8.29,1.38,0.0,41,1.03,26290,2.95,0,0.01,31,0,2,8.31,41,1023,0.63,0.0
2026-03-11 12:00:00.000,48,-2.47,0.0,0,4.25,0.0,7,0.0,0,0,3,0.01,3.55,92,8.07,1.23,0.0,63,0.92,29500,1.82,0,0.01,29,0,0,7.59,63,1023,0.61,0.0
2026-03-11 13:00:00.000,50,-2.46,0.0,0,3.91,0.0,19,0.0,0,0,4,0.01,3.86,100,7.48,0.98,0.01,76,0.86,31290,1.67,0,0.01,31,0,0,7.07,76,1023,0.59,0.0
2026-03-11 14:00:00.000,52,-2.37,0.0,0,3.68,0.0,19,0.0,0,0,4,0.0,3.75,104,6.67,0.79,0.03,85,0.83,30290,2.37,0,0.01,35,0,0,6.7,85,1023,0.57,0.0
2026-03-11 15:00:00.000,53,-2.31,0.0,0,3.63,0.0,22,0.0,0,0,5,0.0,3.8,110,6.08,0.64,0.04,89,0.81,28890,2.41,0,0.01,39,0,0,6.54,89,1023,0.55,0.0
2026-03-11 16:00:00.000,53,-2.35,0.0,0,3.66,0.0,19,0.0,0,0,4,0.0,3.52,118,5.92,0.58,0.04,79,0.78,27900,4.11,0,0.01,39,0,0,6.52,79,1023,0.55,0.0
2026-03-11 17:00:00.000,53,-2.24,0.0,0,3.59,0.0,7,0.0,0,0,4,0.0,3.35,125,5.83,0.55,0.03,64,0.76,27090,4.64,0,0.01,37,0,0,6.43,64,1023,0.55,0.0
2026-03-11 18:00:00.000,55,-2.0,0.0,0,3.54,0.0,7,0.0,0,0,4,0.0,3.25,127,5.98,0.54,0.08,55,0.76,26080,4.25,0,0.01,37,0,0,6.34,55,1022,0.56,0.0
2026-03-11 19:00:00.000,57,-1.67,0.0,0,3.32,0.0,7,0.0,0,0,8,0.0,2.91,125,6.46,0.58,0.24,62,0.77,23880,4.42,0,0.01,37,0,0,6.09,62,1022,0.57,0.0
2026-03-11 20:00:00.000,60,-1.32,0.0,0,3.03,0.0,19,0.0,0,0,13,0.0,3.29,122,7.17,0.67,0.46,75,0.8,22300,4.34,0,0.01,38,0,0,5.82,75,1022,0.59,0.0
2026-03-11 21:00:00.000,61,-0.85,0.0,0,3.11,0.0,19,0.0,0,0,17,0.0,3.35,116,7.81,0.77,0.6,84,0.85,21280,4.34,0,0.01,39,0,0,5.91,84,1022,0.59,0.0
2026-03-11 22:00:00.000,59,-0.45,0.0,2,3.98,8.71,19,0.0,1,0,14,0.02,3.68,108,7.66,0.89,0.59,83,0.95,20840,4.68,8,0.02,37,0,0,6.8,83,1023,0.55,41.39
2026-03-11 23:00:00.000,54,-0.21,0.0,10,5.5,104.07,19,0.0,1,0,11,0.05,4.19,100,7.72,1.05,0.5,78,1.08,22830,9.29,8,0.04,35,0,0,8.39,78,1023,0.49,256.08
2026-03-12 00:00:00.000,49,-0.09,0.0,14,6.88,285.22,7,0.0,1,0,9,0.14,4.35,86,8.26,1.41,0.42,70,1.21,22620,12.51,8,0.08,33,0,0,10.0,70,1023,0.47,532.59
2026-03-12 01:00:00.000,45,-0.07,0.0,21,7.64,476.31,7,0.0,1,0,16,0.24,5.41,66,8.27,1.95,0.36,60,1.35,23820,15.55,8,0.12,32,1,0,11.15,60,1023,0.53,769.71
2026-03-12 02:00:00.000,43,-0.02,0.0,28,8.42,643.62,7,0.0,1,0,25,0.32,6.18,50,7.81,2.57,0.31,49,1.51,25620,17.92,9,0.15,31,3,0,11.83,49,1022,0.64,951.27
2026-03-12 03:00:00.000,43,0.11,0.0,33,9.02,770.12,7,0.0,1,0,34,0.37,7.55,38,7.76,3.18,0.26,41,1.64,29220,18.96,9,0.18,31,4,0,12.19,41,1022,0.74,1064.92
2026-03-12 04:00:00.000,44,0.4,0.0,34,8.75,789.86,4,0.0,1,0,34,0.38,8.44,30,7.57,3.7,0.21,39,1.74,25620,18.55,9,0.19,30,4,0,12.18,39,1022,0.82,1102.92
2026-03-12 05:00:00.000,46,0.85,0.0,33,8.02,745.95,7,0.0,1,0,39,0.35,9.4,25,7.21,4.13,0.16,41,1.82,22020,18.04,10,0.18,29,4,0,11.94,41,1021,0.89,1062.71
2026-03-12 06:00:00.000,49,1.3,0.0,34,6.91,645.2,7,0.0,1,0,45,0.3,10.2,24,7.34,4.5,0.13,40,1.84,23420,16.67,11,0.17,29,3,0,11.52,40,1021,0.93,947.03
2026-03-12 07:00:00.000,52,1.74,0.0,38,5.76,488.87,4,0.0,1,0,43,0.23,11.12,26,7.72,4.81,0.17,34,1.77,24620,14.32,19,0.15,27,2,0,10.97,34,1021,0.94,763.78
2026-03-12 08:00:00.000,56,2.04,0.0,44,5.03,301.6,4,0.0,1,0,42,0.16,11.19,28,7.37,4.9,0.24,24,1.64,21620,11.68,27,0.11,25,1,0,10.25,24,1021,0.92,525.49
2026-03-12 09:00:00.000,59,2.14,0.0,49,4.34,108.74,4,0.0,1,0,43,0.09,10.95,31,6.74,4.87,0.27,16,1.5,19230,8.51,27,0.06,24,0,0,9.52,16,1021,0.9,248.4
2026-03-12 10:00:00.000,62,2.11,0.0,22,3.89,7.8,4,0.0,0,0,50,0.06,10.96,33,6.51,4.69,0.22,11,1.34,17240,7.08,26,0.03,23,0,11,8.95,9,1022,0.89,37.62
2026-03-12 11:00:00.000,63,2.11,0.0,0,3.69,0.0,4,0.0,0,0,59,0.05,10.32,37,6.4,4.5,0.14,26,1.16,16290,6.98,11,0.02,22,0,26,8.61,3,1023,0.88,0.0
2026-03-12 12:00:00.000,64,2.04,0.0,0,3.48,0.0,4,0.0,0,0,69,0.04,10.05,39,6.47,4.31,0.08,40,1.06,16290,7.58,10,0.02,22,0,40,8.29,1,1023,0.87,0.0
2026-03-12 13:00:00.000,65,2.0,0.0,0,3.23,0.0,7,0.0,0,0,65,0.04,9.78,40,6.89,4.25,0.08,48,1.08,16300,8.25,9,0.03,19,0,48,8.0,10,1023,0.85,0.0
2026-03-12 14:00:00.000,67,1.96,0.0,0,2.92,0.0,7,0.0,0,0,64,0.04,10.57,41,6.66,4.23,0.09,55,1.16,15100,7.79,15,0.03,16,0,55,7.68,23,1024,0.82,0.0
2026-03-12 15:00:00.000,67,1.95,0.0,0,2.7,0.0,7,0.0,0,0,63,0.04,10.25,40,7.8,4.27,0.1,60,1.2,13710,5.4,15,0.02,14,0,60,7.5,30,1024,0.8,0.0
2026-03-12 16:00:00.000,66,1.79,0.0,0,2.65,0.0,7,0.0,0,0,50,0.04,9.64,37,9.34,4.35,0.08,63,1.16,13500,4.83,7,0.01,12,0,63,7.53,24,1024,0.78,0.0
2026-03-12 17:00:00.000,65,1.62,0.0,0,2.64,0.0,7,0.0,0,0,40,0.04,9.78,34,10.61,4.46,0.05,63,1.08,13090,4.43,7,0.01,12,0,63,7.62,12,1024,0.76,0.0
2026-03-12 18:00:00.000,64,1.45,0.0,0,2.69,0.0,7,0.0,0,0,32,0.04,9.5,31,11.7,4.53,0.02,63,1.03,12310,3.76,0,0.01,12,0,63,7.75,3,1024,0.74,0.0
2026-03-12 19:00:00.000,63,1.27,0.0,0,2.6,0.0,7,0.0,0,0,30,0.04,9.32,29,12.68,4.53,0.0,63,0.99,11490,3.03,0,0.0,12,0,63,7.7,1,1024,0.72,0.0
2026-03-12 20:00:00.000,63,1.06,0.0,0,2.43,0.0,7,0.0,0,0,27,0.04,8.57,27,14.14,4.49,0.0,62,0.97,11890,2.38,0,0.0,13,0,62,7.53,2,1024,0.71,0.0
2026-03-12 21:00:00.000,63,0.92,0.0,0,2.23,0.0,7,0.0,0,0,32,0.04,8.35,25,14.63,4.59,0.0,61,0.98,11850,1.78,0,0.0,14,0,61,7.43,3,1024,0.71,0.0
2026-03-12 22:00:00.000,61,0.72,0.0,10,2.31,8.73,7,0.0,1,0,36,0.06,8.89,24,14.07,4.88,0.05,60,1.07,13240,5.55,0,0.01,12,0,60,7.74,2,1025,0.71,44.71
2026-03-12 23:00:00.000,56,0.44,0.0,22,2.67,96.58,7,0.0,1,0,37,0.09,9.49,24,13.97,5.33,0.11,58,1.18,14240,8.29,0,0.03,10,0,58,8.46,1,1025,0.73,262.63
2026-03-13 00:00:00.000,53,0.18,0.0,22,2.99,274.58,7,0.0,1,0,41,0.15,10.0,23,14.16,5.81,0.15,58,1.3,14240,12.24,1,0.06,10,0,58,9.16,0,1026,0.78,538.97
2026-03-13 01:00:00.000,51,-0.05,0.0,20,3.08,422.67,7,0.0,1,0,33,0.21,10.94,21,14.34,6.09,0.14,61,1.4,12640,13.54,1,0.07,13,2,61,9.48,0,1026,0.89,775.82
2026-03-13 02:00:00.000,50,-0.25,0.0,17,2.85,532.33,7,0.0,1,0,37,0.24,10.94,20,14.61,6.3,0.09,66,1.49,11040,10.9,2,0.06,18,3,66,9.43,0,1026,1.05,957.07
2026-03-13 03:00:00.000,50,-0.48,0.0,15,2.87,609.8,7,0.0,1,0,33,0.27,11.9,21,16.42,6.41,0.06,69,1.58,12630,11.45,3,0.07,21,4,69,9.31,0,1026,1.21,1070.37
2026-03-13 04:00:00.000,50,-0.67,0.0,15,2.95,677.7,7,0.0,1,0,24,0.28,12.04,23,17.81,6.45,0.05,69,1.67,14630,15.15,4,0.13,16,5,69,9.14,0,1026,1.4,1108.01
2026-03-13 05:00:00.000,49,-0.82,0.0,17,2.73,647.78,7,0.0,1,0,18,0.27,11.84,26,18.38,6.4,0.06,66,1.76,16240,16.06,4,0.12,8,5,66,9.04,0,1025,1.6,1067.44
2026-03-13 06:00:00.000,49,-1.0,0.0,17,2.31,586.21,7,0.0,1,0,16,0.25,11.95,29,18.63,6.34,0.06,66,1.79,19030,14.75,5,0.14,3,4,66,8.87,0,1025,1.75,951.45
2026-03-13 07:00:00.000,50,-1.13,0.0,15,2.0,447.82,7,0.0,1,0,16,0.21,11.73,31,19.23,6.09,0.07,69,1.75,20830,12.62,4,0.12,1,3,69,8.56,0,1026,1.83,767.95
2026-03-13 08:00:00.000,52,-1.21,0.0,12,1.76,277.9,7,0.0,1,0,16,0.15,11.26,33,19.51,5.66,0.07,74,1.66,21030,9.95,4,0.09,1,1,74,8.03,0,1026,1.85,529.48
2026-03-13 09:00:00.000,54,-1.28,0.0,10,1.41,102.63,19,0.0,1,0,17,0.09,10.45,35,19.42,5.24,0.08,77,1.56,19240,6.43,10,0.05,3,0,77,7.39,0,1026,1.81,252.3
2026-03-13 10:00:00.000,55,-1.33,0.0,5,1.15,7.64,19,0.0,0,0,15,0.07,9.73,37,19.49,4.84,0.08,76,1.42,16440,4.2,2,0.02,8,0,76,6.87,0,1026,1.67,39.57
2026-03-13 11:00:00.000,58,-1.2,0.0,0,0.91,0.0,7,0.0,0,0,13,0.05,9.26,39,19.57,4.6,0.08,72,1.26,14500,3.72,2,0.01,15,0,72,6.43,0,1027,1.46,0.0
2026-03-13 12:00:00.000,60,-1.17,0.0,0,0.56,0.0,7,0.0,0,0,12,0.04,8.4,41,19.16,4.33,0.08,68,1.13,13900,3.22,1,0.01,21,0,68,5.89,0,1027,1.3,0.0
2026-03-13 13:00:00.000,62,-1.14,0.0,0,0.47,0.0,7,0.0,0,1,9,0.03,7.57,47,18.99,3.69,0.07,63,1.08,13700,2.25,0,0.01,23,0,63,5.34,0,1027,1.22,0.0
2026-03-13 14:00:00.000,64,-1.13,0.0,0,0.33,0.0,7,0.0,0,3,9,0.03,6.96,53,18.58,3.29,0.05,57,1.07,13710,0.88,0,0.0,24,0,57,4.93,0,1027,1.18,0.0
2026-03-13 15:00:00.000,65,-1.1,0.0,0,0.46,0.0,7,0.0,0,5,8,0.02,6.15,60,18.58,2.97,0.04,50,1.08,13710,-0.15,0,0.0,25,0,50,4.83,0,1027,1.15,0.0
2026-03-13 16:00:00.000,65,-1.22,0.0,0,0.57,0.0,4,0.0,0,4,7,0.02,5.61,69,18.96,2.71,0.03,39,1.11,13500,-1.41,0,0.0,23,0,39,4.77,14,1027,1.11,0.0
2026-03-13 17:00:00.000,65,-1.21,0.0,0,0.6,0.0,4,0.0,0,3,6,0.02,5.53,77,19.67,2.46,0.01,34,1.14,13900,-2.07,0,0.0,20,0,26,4.62,34,1026,1.08,0.0
2026-03-13 18:00:00.000,67,-1.08,0.0,0,0.55,0.0,7,0.0,0,8,7,0.02,5.17,83,20.0,2.26,0.0,45,1.17,13910,-2.2,0,0.0,19,0,15,4.41,45,1026,1.05,0.0
2026-03-13 19:00:00.000,69,-0.91,0.0,0,0.44,0.0,5,0.0,0,26,4,0.01,4.4,91,20.61,2.1,0.0,38,1.14,13690,-2.31,0,0.0,19,0,8,4.18,38,1026,1.01,0.0
2026-03-13 20:00:00.000,71,-0.78,0.0,0,0.3,0.0,5,0.0,0,49,3,0.01,4.25,95,21.97,2.04,0.0,23,1.1,13300,-2.2,0,0.0,21,0,3,3.97,23,1026,0.98,0.0
2026-03-13 21:00:00.000,71,-0.6,0.0,0,0.49,0.0,6,0.0,0,61,2,0.01,4.23,105,21.87,2.03,0.0,18,1.12,13050,-1.76,0,0.0,22,0,1,4.13,13,1025,0.97,0.0
2026-03-13 22:00:00.000,67,-0.5,0.0,24,1.47,10.6,6,0.0,1,50,1,0.03,4.09,107,21.86,2.03,0.0,15,1.23,13040,1.83,0,0.0,19,0,1,5.09,14,1026,1.0,48.03
2026-03-13 23:00:00.000,59,-0.53,0.0,46,3.18,114.77,5,0.0,1,27,1,0.06,4.49,105,21.81,2.06,0.0,21,1.4,14420,8.87,0,0.02,15,0,3,6.83,21,1026,1.05,269.17
2026-03-14 00:00:00.000,52,-0.52,0.0,44,4.88,306.75,4,0.0,1,9,2,0.14,4.7,89,21.82,2.22,0.0,24,1.57,16220,13.27,0,0.06,14,0,7,8.65,24,1026,1.12,545.31
2026-03-14 01:00:00.000,48,-0.46,0.0,46,6.18,494.7,4,0.0,1,2,2,0.23,5.29,55,21.92,2.32,0.0,21,1.71,16030,16.56,0,0.1,17,1,12,10.0,21,1026,1.21,781.89
2026-03-14 02:00:00.000,45,-0.31,0.0,48,7.5,655.55,4,0.0,1,0,3,0.31,5.36,22,21.51,2.52,0.0,18,1.84,15840,18.65,0,0.12,23,3,18,10.85,14,1026,1.32,962.81
2026-03-14 03:00:00.000,45,-0.11,0.0,45,8.62,771.1,4,0.0,1,0,4,0.37,4.99,12,21.06,2.64,0.0,22,1.94,17230,19.66,0,0.14,28,4,22,11.38,9,1026,1.44,1075.75
2026-03-14 04:00:00.000,45,0.17,0.0,46,9.04,812.38,4,0.0,1,0,4,0.38,4.9,6,20.91,2.74,0.0,20,2.0,18020,20.14,0,0.16,27,5,20,11.62,5,1025,1.58,1113.03
2026-03-14 05:00:00.000,46,0.45,0.0,49,8.86,787.27,4,0.0,1,0,5,0.37,4.84,1,20.61,2.8,0.0,16,2.02,19230,19.83,0,0.16,25,5,16,11.58,3,1025,1.73,1072.11
2026-03-14 06:00:00.000,48,0.65,0.0,51,8.06,696.51,4,0.0,1,0,5,0.33,4.86,356,20.57,2.8,0.0,13,1.98,19830,18.59,0,0.15,24,4,13,11.25,6,1025,1.8,955.81
2026-03-14 07:00:00.000,50,0.87,0.0,47,6.81,539.94,4,0.0,1,0,4,0.25,4.89,356,20.67,2.64,0.0,19,1.85,20030,16.58,0,0.12,25,2,13,10.65,19,1024,1.75,772.07
2026-03-14 08:00:00.000,54,1.06,0.0,36,6.32,341.91,4,0.0,1,0,3,0.16,4.69,359,20.71,2.24,0.0,37,1.67,18230,13.6,0,0.08,27,1,15,9.84,37,1024,1.62,533.43
2026-03-14 09:00:00.000,58,1.24,0.0,31,5.74,128.66,7,0.0,1,0,2,0.06,4.35,4,20.57,1.83,0.0,45,1.5,16630,8.74,0,0.04,29,0,16,8.95,45,1024,1.5,256.18
2026-03-14 10:00:00.000,62,1.4,0.0,17,5.17,9.6,4,0.0,0,0,2,0.03,4.19,358,20.0,1.54,0.0,34,1.37,14240,4.06,0,0.0,27,0,16,8.15,34,1024,1.42,41.52
2026-03-14 11:00:00.000,66,1.6,0.0,0,4.73,0.0,4,0.0,0,0,1,0.01,4.4,283,19.69,1.29,0.0,16,1.27,12290,3.49,0,0.0,24,0,16,7.5,14,1025,1.34,0.0
2026-03-14 12:00:00.000,68,1.66,0.0,0,4.31,0.0,4,0.0,0,0,1,0.0,3.23,198,19.56,1.13,0.0,15,1.22,10890,2.98,0,0.0,23,0,15,6.96,0,1025,1.3,0.0
2026-03-14 13:00:00.000,71,1.67,0.0,0,4.15,0.0,4,0.0,0,0,1,0.0,2.53,197,19.42,0.71,0.0,12,1.26,10090,2.61,0,0.0,24,0,12,6.5,0,1025,1.3,0.0
2026-03-14 14:00:00.000,72,1.62,0.0,0,3.77,0.0,1,0.0,0,0,0,0.0,2.89,198,19.37,0.74,0.0,9,1.35,10090,2.28,0,0.0,28,0,9,6.15,0,1025,1.33,0.0
2026-03-14 15:00:00.000,73,1.57,0.0,0,3.52,0.0,1,0.0,0,0,0,0.0,3.25,187,19.28,0.76,0.0,7,1.43,10090,1.98,0,0.0,30,0,7,5.92,0,1024,1.36,0.0
2026-03-14 16:00:00.000,73,1.45,0.0,0,3.35,0.0,4,0.0,0,3,1,0.0,3.11,179,19.09,0.81,0.01,11,1.46,10090,2.16,0,0.0,28,0,11,5.81,0,1024,1.38,0.0
2026-03-14 17:00:00.000,73,1.41,0.0,0,3.21,0.0,16,0.0,0,8,3,0.0,2.87,174,18.59,0.82,0.03,98,1.46,10290,2.19,0,0.0,25,0,98,5.68,0,1024,1.39,0.0
2026-03-14 18:00:00.000,74,1.49,0.0,0,3.15,0.0,17,0.0,0,10,4,0.0,3.2,170,17.71,0.85,0.04,98,1.48,11090,2.35,1,0.0,24,0,98,5.63,0,1023,1.4,0.0
2026-03-14 19:00:00.000,75,1.61,0.0,0,3.12,0.0,16,0.0,0,8,2,0.0,2.85,169,17.9,0.88,0.06,98,1.5,11890,2.23,1,0.0,23,0,98,5.6,0,1023,1.41,0.0
2026-03-14 20:00:00.000,75,1.77,0.0,0,3.26,0.0,4,0.0,0,4,2,0.0,3.08,176,18.19,0.86,0.07,15,1.53,11490,2.16,0,0.0,24,0,15,5.7,0,1024,1.42,0.0
2026-03-14 21:00:00.000,75,2.11,0.0,0,3.7,0.0,4,0.0,0,2,1,0.0,3.1,175,18.1,0.84,0.09,12,1.61,11660,1.68,0,0.0,26,0,12,6.07,0,1024,1.41,0.0
2026-03-14 22:00:00.000,71,2.43,0.0,28,4.94,12.31,1,0.0,1,6,0,0.01,2.8,168,17.94,0.79,0.1,7,1.77,11840,4.84,0,0.0,27,0,7,7.22,4,1024,1.32,51.35
2026-03-14 23:00:00.000,66,2.87,0.0,53,6.74,127.26,2,0.0,1,13,0,0.05,2.29,162,17.73,0.67,0.12,9,1.99,12430,12.12,1,0.03,28,0,3,8.85,9,1024,1.21,275.69
2026-03-15 00:00:00.000,59,3.05,0.0,51,8.74,337.81,5,0.0,1,18,0,0.15,2.05,149,17.38,0.51,0.12,13,2.2,14630,17.15,1,0.09,30,0,0,10.7,13,1025,1.19,551.61
2026-03-15 01:00:00.000,53,3.71,0.0,60,10.44,526.01,1,0.0,1,0,0,0.26,3.9,44,17.32,1.31,0.1,0,2.4,24100,15.01,4,0.01,31,2,0,12.84,0,1026,1.35,787.92
2026-03-15 02:00:00.000,50,3.57,0.0,60,11.76,674.96,1,0.0,1,0,0,0.35,3.91,32,16.71,1.74,0.06,0,2.61,24100,16.7,5,0.01,33,3,0,13.74,0,1025,1.6,968.5
2026-03-15 03:00:00.000,48,3.45,0.0,60,12.41,773.22,1,0.0,1,0,1,0.4,4.0,25,16.2,2.12,0.03,0,2.78,24100,17.59,7,0.01,35,4,0,14.14,0,1025,1.81,1081.08
2026-03-15 04:00:00.000,48,3.44,0.0,60,12.37,805.72,1,0.0,1,0,0,0.41,4.27,21,15.79,2.45,0.02,0,2.93,24100,17.61,8,0.02,34,5,0,14.18,0,1024,1.94,1117.98
2026-03-15 05:00:00.000,49,3.52,0.0,58,11.82,773.24,2,0.0,1,10,0,0.39,4.61,18,15.47,2.73,0.02,3,3.04,24100,17.12,9,0.02,33,4,0,14.03,0,1024,2.04,1076.72
2026-03-15 06:00:00.000,50,3.55,0.0,58,10.88,681.41,2,0.0,1,10,1,0.34,4.9,17,15.2,2.89,0.02,3,3.02,24100,16.37,10,0.02,33,3,0,13.7,0,1023,2.08,960.12
2026-03-15 07:00:00.000,52,3.47,0.0,58,9.44,526.85,2,0.0,1,10,1,0.27,5.1,19,14.87,2.93,0.02,3,2.79,24100,15.18,10,0.02,34,2,0,13.02,0,1023,2.03,776.14
2026-03-15 08:00:00.000,55,3.32,0.0,58,8.49,324.23,2,0.0,1,10,1,0.17,5.24,22,14.6,2.88,0.02,3,2.43,24100,13.62,10,0.01,35,1,0,12.07,0,1023,1.93,537.36
2026-03-15 09:00:00.000,57,3.16,0.0,58,7.65,116.87,2,0.0,1,10,2,0.08,5.3,24,14.7,2.74,0.02,3,2.13,24100,12.22,10,0.01,37,0,0,11.15,0,1023,1.84,260.05
2026-03-15 10:00:00.000,60,3.11,0.0,27,7.15,8.9,2,0.0,0,10,1,0.04,5.26,27,15.47,2.4,0.03,3,1.95,24100,11.24,10,0.01,36,0,0,10.43,0,1024,1.78,43.46
2026-03-15 11:00:00.000,63,3.12,0.0,0,6.76,-0.49,2,0.0,0,10,1,0.02,5.15,33,16.61,2.01,0.05,3,1.82,24100,10.44,10,0.01,35,0,0,9.76,0,1024,1.74,0.0
2026-03-15 12:00:00.000,65,3.14,0.0,0,6.37,0.0,2,0.0,0,10,1,0.01,5.0,35,17.6,1.7,0.07,3,1.7,24100,9.74,10,0.01,35,0,0,9.15,0,1025,1.71,0.0
2026-03-15 13:00:00.000,68,3.09,0.0,0,5.9,0.0,2,0.0,0,10,0,0.01,4.82,34,18.22,1.58,0.07,3,1.59,24100,9.13,9,0.01,34,0,0,8.61,0,1025,1.71,0.0
2026-03-15 14:00:00.000,70,3.05,0.0,0,5.45,0.0,2,0.0,0,10,0,0.01,4.6,31,18.68,1.59,0.06,3,1.51,24100,8.66,8,0.01,34,0,0,8.17,0,1024,1.74,0.0
2026-03-15 15:00:00.000,71,3.0,0.0,0,5.12,0.0,2,0.0,0,10,0,0.01,4.4,31,19.1,1.64,0.06,3,1.44,24100,8.37,8,0.01,35,0,0,7.89,0,1024,1.76,0.0
2026-03-15 16:00:00.000,72,3.0,0.0,0,4.93,0.0,2,0.0,0,10,0,0.01,4.21,34,19.53,1.66,0.07,3,1.41,24100,8.19,8,0.01,35,0,0,7.71,0,1024,1.78,0.0
2026-03-15 17:00:00.000,72,3.03,0.0,0,4.9,0.0,2,0.0,0,10,0,0.01,4.03,35,19.91,1.62,0.07,3,1.39,24100,8.16,8,0.01,35,0,0,7.64,0,1024,1.8,0.0
2026-03-15 18:00:00.000,72,3.11,0.0,0,4.99,0.0,2,0.0,0,10,1,0.01,3.9,36,20.2,1.59,0.08,3,1.39,24100,8.28,9,0.01,36,0,0,7.69,0,1024,1.81,0.0
2026-03-15 19:00:00.000,72,3.18,0.0,0,5.2,0.0,2,0.0,0,10,1,0.01,3.85,36,20.36,1.59,0.08,3,1.39,24100,8.63,9,0.01,35,0,0,7.9,0,1024,1.81,0.0
2026-03-15 20:00:00.000,71,3.25,0.0,0,5.49,0.0,2,0.0,0,10,0,0.01,3.85,37,20.42,1.61,0.08,3,1.4,24100,9.12,10,0.01,34,0,0,8.18,0,1024,1.8,0.0
2026-03-15 21:00:00.000,69,3.33,0.0,0,5.89,-0.89,2,0.0,0,10,1,0.01,3.9,40,20.4,1.63,0.08,3,1.43,24100,9.73,11,0.01,34,0,0,8.58,0,1024,1.79,0.0
2026-03-15 22:00:00.000,67,3.41,0.0,31,6.43,11.58,2,0.0,1,10,1,0.03,4.01,45,20.35,1.65,0.09,3,1.49,24100,10.51,12,0.01,33,0,0,9.13,0,1024,1.78,54.65
2026-03-15 23:00:00.000,64,3.42,0.0,58,7.17,125.1,2,0.0,1,10,1,0.06,4.16,48,20.22,1.68,0.09,3,1.57,24100,11.51,13,0.01,33,0,0,9.89,0,1024,1.77,282.18
2026-03-16 00:00:00.000,59,3.47,0.0,58,8.19,321.16,2,0.0,1,10,2,0.15,4.3,48,19.9,1.75,0.1,3,1.66,24100,12.84,15,0.01,33,0,0,10.95,0,1024,1.77,557.88
2026-03-16 01:00:00.000,57,3.39,0.0,58,8.27,503.49,2,0.0,1,10,2,0.24,4.41,36,19.29,2.22,0.1,3,1.74,24100,13.56,15,0.01,33,2,0,11.37,0,1024,1.8,793.89
2026-03-16 02:00:00.000,55,3.25,0.0,58,8.8,642.72,2,0.0,1,10,2,0.31,4.5,26,18.49,2.7,0.1,3,1.84,24100,14.26,16,0.02,34,3,0,11.75,0,1023,1.83,974.13
2026-03-16 03:00:00.000,54,3.05,0.0,58,9.12,733.59,2,0.0,1,10,2,0.35,4.6,20,17.7,3.12,0.1,3,1.94,24100,14.71,17,0.02,35,4,0,11.93,0,1023,1.87,1086.34
2026-03-16 04:00:00.000,52,2.86,0.0,58,9.33,766.04,2,0.0,1,10,2,0.36,4.71,18,16.93,3.42,0.1,3,2.06,24100,15.25,17,0.02,35,5,0,12.24,0,1022,1.9,1122.88
2026-03-16 05:00:00.000,50,2.64,0.0,58,9.43,748.55,2,0.0,1,10,2,0.36,4.83,17,16.16,3.62,0.1,3,2.18,24100,15.84,18,0.02,36,5,0,12.63,0,1022,1.93,1081.27
2026-03-16 06:00:00.000,49,2.46,0.0,58,9.12,661.64,2,0.0,1,10,2,0.33,4.9,18,15.6,3.65,0.1,3,2.2,24100,16.05,18,0.02,37,4,0,12.82,0,1022,1.94,964.37
2026-03-16 07:00:00.000,49,2.35,0.0,58,8.4,519.2,2,0.0,1,10,1,0.26,4.9,22,15.33,3.45,0.09,3,2.07,24100,15.55,17,0.02,36,2,0,12.55,0,1022,1.92,780.17
2026-03-16 08:00:00.000,51,2.29,0.0,58,8.03,324.82,2,0.0,1,10,1,0.17,4.86,26,15.27,3.13,0.07,3,1.85,24100,14.55,16,0.02,35,1,0,11.96,0,1022,1.88,541.25
2026-03-16 09:00:00.000,53,2.23,0.0,58,7.52,120.13,2,0.0,1,10,1,0.09,4.8,31,15.3,2.79,0.06,3,1.64,24100,13.39,15,0.02,35,0,0,11.23,0,1023,1.84,263.89
2026-03-16 10:00:00.000,56,2.2,0.0,27,6.94,12.31,2,0.0,0,10,0,0.04,4.73,35,15.41,2.4,0.05,3,1.46,24100,12.1,14,0.02,34,0,0,10.38,0,1023,1.8,45.4
2026-03-16 11:00:00.000,60,2.17,0.0,0,6.2,-0.49,2,0.0,0,10,1,0.02,4.63,40,15.62,2.04,0.05,3,1.29,24100,10.66,13,0.02,34,0,0,9.4,0,1023,1.75,0.0
2026-03-16 12:00:00.000,63,2.12,0.0,0,5.54,0.0,1,0.0,0,0,1,0.02,4.5,43,15.9,1.75,0.04,0,1.17,24100,9.44,12,0.01,34,0,0,8.54,0,1024,1.71,0.0
2026-03-16 13:00:00.000,66,2.03,0.0,0,4.96,0.0,1,0.0,0,0,0,0.01,4.31,42,16.25,1.63,0.03,0,1.1,24100,8.57,11,0.01,33,0,0,7.89,0,1024,1.69,0.0
2026-03-16 14:00:00.000,68,1.93,0.0,0,4.45,0.0,1,0.0,0,0,0,0.01,4.1,39,16.67,1.63,0.02,0,1.07,24100,7.95,10,0.01,32,0,0,7.4,0,1023,1.69,0.0
2026-03-16 15:00:00.000,69,1.85,0.0,0,4.1,0.0,1,0.0,0,0,0,0.01,3.9,39,17.1,1.67,0.02,0,1.08,24100,7.58,9,0.01,32,0,0,7.1,0,1023,1.68,0.0
2026-03-16 16:00:00.000,69,1.82,0.0,0,3.93,0.0,2,0.0,0,10,0,0.01,3.75,41,17.55,1.71,0.02,3,1.11,24100,7.4,9,0.01,31,0,0,6.96,0,1023,1.67,0.0
2026-03-16 17:00:00.000,69,1.85,0.0,0,3.96,0.0,2,0.0,0,10,0,0.01,3.62,43,18.01,1.69,0.03,3,1.17,24100,7.43,9,0.01,31,0,0,6.97,0,1023,1.67,0.0
2026-03-16 18:00:00.000,69,1.95,0.0,0,4.14,0.0,2,0.0,0,10,0,0.01,3.5,44,18.4,1.64,0.04,3,1.21,24100,7.63,9,0.01,32,0,0,7.09,0,1023,1.66,0.0
2026-03-16 19:00:00.000,68,2.04,0.0,0,4.44,0.0,2,0.0,0,10,0,0.01,3.38,44,18.71,1.59,0.07,3,1.21,24100,8.03,8,0.01,31,0,0,7.34,0,1023,1.65,0.0
2026-03-16 20:00:00.000,67,2.15,0.0,0,4.82,0.0,2,0.0,0,11,0,0.01,3.27,47,18.95,1.53,0.11,3,1.2,24100,8.57,7,0.01,31,0,0,7.67,0,1023,1.64,0.0
2026-03-16 21:00:00.000,66,2.27,0.0,0,5.33,-0.89,2,0.0,0,11,0,0.01,3.2,51,19.1,1.49,0.15,3,1.21,24100,9.25,7,0.01,32,0,0,8.12,0,1023,1.63,0.0
2026-03-16 22:00:00.000,64,2.4,0.0,32,5.98,12.7,2,0.0,1,10,0,0.03,3.17,57,19.2,1.47,0.2,3,1.23,24100,10.12,7,0.01,32,0,0,8.74,0,1023,1.62,57.98
2026-03-16 23:00:00.000,61,2.46,0.0,60,6.84,132.78,1,0.0,1,0,0,0.07,3.18,62,19.22,1.46,0.24,0,1.27,24100,11.23,7,0.01,32,0,0,9.59,0,1024,1.61,288.71
2026-03-17 00:00:00.000,56,2.57,0.0,60,8.04,336.35,1,0.0,1,0,0,0.16,3.2,63,19.0,1.47,0.27,0,1.34,24100,12.69,7,0.01,33,0,0,10.77,0,1024,1.62,564.17
2026-03-17 01:00:00.000,54,2.63,0.0,60,8.44,527.75,1,0.0,1,0,0,0.25,3.22,46,18.41,1.77,0.27,0,1.46,24100,13.58,7,0.01,33,1,0,11.36,0,1023,1.66,799.87
2026-03-17 02:00:00.000,52,2.65,0.0,60,9.52,676.64,1,0.0,1,0,0,0.33,3.25,32,17.6,2.12,0.25,0,1.6,24100,14.47,7,0.01,34,3,0,11.95,0,1023,1.71,979.75
2026-03-17 03:00:00.000,51,2.63,0.0,60,10.22,776.33,1,0.0,1,0,0,0.38,3.3,24,16.8,2.43,0.24,0,1.75,24100,15.09,7,0.02,36,4,0,12.33,0,1022,1.76,1091.57
2026-03-17 04:00:00.000,49,2.6,0.0,60,10.77,815.27,1,0.0,1,0,0,0.4,3.4,21,16.03,2.64,0.24,0,1.92,24100,15.81,7,0.02,36,5,0,12.84,0,1022,1.8,1127.72
2026-03-17 05:00:00.000,47,2.54,0.0,60,11.17,800.58,1,0.0,1,0,0,0.4,3.51,19,15.27,2.75,0.23,0,2.09,24100,16.57,7,0.02,37,5,0,13.43,0,1021,1.84,1085.76
2026-03-17 06:00:00.000,46,2.43,0.0,60,11.0,711.68,1,0.0,1,0,0,0.36,3.6,21,14.8,2.73,0.22,0,2.16,24100,16.89,7,0.02,38,4,0,13.75,0,1021,1.86,968.56
2026-03-17 07:00:00.000,46,2.27,0.0,60,10.0,555.55,1,0.0,1,0,0,0.29,3.62,24,14.75,2.58,0.19,0,2.08,24100,16.43,7,0.02,37,2,0,13.53,0,1021,1.84,784.13
2026-03-17 08:00:00.000,47,2.1,0.0,60,9.5,346.87,1,0.0,1,0,0,0.18,3.61,30,14.97,2.35,0.16,0,1.9,24100,15.42,7,0.02,35,1,0,12.92,0,1022,1.8,545.06
2026-03-17 09:00:00.000,49,2.0,0.0,60,8.9,129.13,1,0.0,1,0,0,0.09,3.6,36,15.3,2.1,0.13,0,1.72,24100,14.24,6,0.02,34,0,0,12.16,0,1022,1.75,267.67
2026-03-17 10:00:00.000,53,2.06,0.0,29,8.24,13.46,1,0.0,0,0,0,0.04,3.62,40,15.71,1.77,0.11,0,1.56,24100,12.92,6,0.02,32,0,0,11.27,0,1022,1.7,47.3
2026-03-17 11:00:00.000,57,2.15,0.0,0,7.44,-0.49,1,0.0,0,0,0,0.02,3.64,46,16.21,1.46,0.09,0,1.39,24100,11.43,6,0.02,31,0,0,10.24,0,1023,1.64,0.0
2026-03-17 12:00:00.000,60,2.22,0.0,0,6.76,0.0,1,0.0,0,0,0,0.01,3.6,49,16.7,1.19,0.08,0,1.28,24100,10.2,6,0.01,31,0,0,9.35,0,1023,1.61,0.0
2026-03-17 13:00:00.000,63,2.24,0.0,0,6.23,0.0,1,0.0,0,0,0,0.0,3.47,50,17.12,1.03,0.08,0,1.24,24100,9.39,6,0.01,31,0,0,8.71,0,1023,1.62,0.0
2026-03-17 14:00:00.000,65,2.27,0.0,0,5.83,0.0,2,0.0,0,46,0,0.0,3.28,48,17.52,0.97,0.08,13,1.24,24100,8.88,6,0.01,32,0,0,8.26,0,1022,1.64,0.0
2026-03-17 15:00:00.000,67,2.31,0.0,0,5.59,0.0,3,0.0,0,87,0,0.0,3.1,52,17.9,0.97,0.1,26,1.28,24100,8.61,7,0.01,34,0,0,8.01,0,1022,1.67,0.0
2026-03-17 16:00:00.000,68,2.38,0.0,0,5.51,0.0,3,0.0,0,100,0,0.0,2.94,58,18.28,0.95,0.13,30,1.36,24100,8.51,7,0.01,35,0,0,7.9,0,1022,1.69,0.0
2026-03-17 17:00:00.000,68,2.51,0.0,0,5.63,0.0,3,0.0,0,100,0,0.0,2.79,64,18.63,0.88,0.17,30,1.48,24100,8.62,8,0.01,36,0,0,7.96,0,1021,1.72,0.0
2026-03-17 18:00:00.000,68,2.71,0.0,0,5.88,0.0,3,0.0,0,100,1,0.0,2.7,69,18.9,0.79,0.23,30,1.58,24100,8.83,9,0.01,38,0,0,8.1,0,1021,1.71,0.0
2026-03-17 19:00:00.000,68,2.94,0.0,0,6.22,0.0,3,0.0,0,100,1,0.0,2.71,71,19.06,0.73,0.31,30,1.63,24100,9.17,9,0.01,38,0,0,8.36,0,1021,1.65,0.0
2026-03-17 20:00:00.000,68,3.2,0.0,0,6.62,0.0,3,0.0,0,100,1,0.0,2.8,73,19.14,0.69,0.41,30,1.67,24100,9.6,10,0.0,37,0,0,8.69,0,1021,1.57,0.0
2026-03-17 21:00:00.000,67,3.43,0.0,0,7.12,-0.89,3,0.0,0,92,1,0.0,2.9,78,19.1,0.67,0.5,27,1.72,24100,10.15,11,0.0,37,0,0,9.12,0,1022,1.49,0.0
2026-03-17 22:00:00.000,65,3.62,0.0,28,7.75,10.66,3,0.0,1,55,1,0.02,3.02,86,19.01,0.66,0.59,16,1.8,24087,10.88,12,0.0,36,0,0,9.71,0,1022,1.42,61.33
2026-03-17 23:00:00.000,62,3.72,0.0,56,8.58,111.14,2,0.0,1,17,1,0.05,3.17,92,18.8,0.64,0.68,5,1.89,24074,11.83,13,0.0,36,0,0,10.51,0,1022,1.36,295.27
2026-03-18 00:00:00.000,58,3.84,0.0,60,9.71,272.31,1,0.0,1,0,1,0.13,3.3,94,18.3,0.62,0.73,0,2.0,24100,13.11,15,0.01,36,0,0,11.6,0,1022,1.37,570.47
2026-03-18 01:00:00.000,57,3.83,0.0,56,10.01,416.92,2,0.0,1,17,0,0.21,3.41,52,17.33,0.79,0.69,5,2.15,24213,13.77,16,0.01,36,2,0,12.02,0,1022,1.48,805.84
2026-03-18 02:00:00.000,55,3.75,0.0,49,10.13,504.0,3,0.0,1,55,0,0.26,3.5,30,16.07,1.12,0.61,16,2.33,24364,14.41,18,0.01,36,3,0,12.38,0,1021,1.66,985.34
2026-03-18 03:00:00.000,54,3.63,0.0,42,10.07,545.96,3,0.0,1,92,0,0.29,3.6,20,14.8,1.41,0.53,27,2.5,24440,14.81,20,0.01,37,4,0,12.55,0,1021,1.83,1096.76
2026-03-18 04:00:00.000,53,3.54,0.0,40,10.37,571.22,3,0.0,1,100,0,0.3,3.71,18,13.55,1.56,0.45,30,2.69,24479,15.33,22,0.01,37,5,0,12.85,0,1020,2.0,1132.51
2026-03-18 05:00:00.000,51,3.44,0.0,40,10.71,569.92,3,0.0,1,100,0,0.31,3.83,18,12.3,1.61,0.37,30,2.88,24442,15.92,24,0.01,38,5,0,13.25,0,1020,2.17,1090.19
2026-03-18 06:00:00.000,50,3.35,0.0,40,10.83,512.89,3,0.0,1,100,1,0.28,3.9,21,11.3,1.56,0.31,30,2.98,24100,16.2,25,0.01,39,4,0,13.48,0,1020,2.28,972.68
2026-03-18 07:00:00.000,50,3.26,0.0,40,10.74,400.89,3,0.0,1,100,1,0.22,3.9,30,10.67,1.44,0.28,30,2.94,23245,15.9,26,0.01,39,2,0,13.31,0,1020,2.28,788.03
2026-03-18 08:00:00.000,51,3.21,0.0,40,10.37,248.99,3,0.0,1,100,0,0.14,3.85,42,10.28,1.29,0.28,30,2.82,22083,15.18,26,0.01,40,1,0,12.86,0,1020,2.21,548.83
2026-03-18 09:00:00.000,53,3.18,0.0,43,9.86,94.96,3,0.0,1,87,1,0.06,3.8,54,10.0,1.17,0.29,26,2.69,21000,14.3,27,0.01,41,0,0,12.26,0,1021,2.13,271.42
2026-03-18 10:00:00.000,56,3.25,0.0,25,9.29,10.79,2,0.0,0,46,1,0.03,3.79,63,9.81,0.98,0.31,13,2.58,19970,13.28,28,0.01,41,0,0,11.55,0,1021,2.05,49.19
2026-03-18 11:00:00.000,60,3.36,0.0,0,8.57,-0.49,1,0.0,0,0,1,0.0,3.77,75,9.74,0.84,0.34,0,2.47,19018,12.11,28,0.01,42,0,0,10.7,0,1021,1.95,0.0
2026-03-18 12:00:00.000,63,3.46,0.0,0,7.93,0.0,1,0.0,0,0,2,0.0,3.7,83,9.7,0.7,0.37,0,2.34,18600,11.08,29,0.01,43,0,0,9.95,0,1022,1.9,0.0
2026-03-18 13:00:00.000,66,3.54,0.0,0,7.38,0.0,1,0.0,0,0,2,0.0,3.53,87,9.66,0.66,0.4,0,2.2,19018,10.3,30,0.01,43,0,0,9.35,0,1021,1.92,0.0
2026-03-18 14:00:00.000,69,3.63,0.0,0,6.93,0.0,1,0.0,0,0,1,0.0,3.3,83,9.64,0.67,0.44,0,2.04,19970,9.71,31,0.01,43,0,0,8.89,0,1021,1.97,0.0
2026-03-18 15:00:00.000,71,3.69,0.0,0,6.59,0.0,1,0.0,0,0,2,0.0,3.1,83,9.7,0.77,0.49,0,1.91,21000,9.32,32,0.0,44,0,0,8.61,0,1021,2.03,0.0
2026-03-18 16:00:00.000,72,3.74,0.0,0,6.4,0.0,1,0.0,0,0,2,0.0,2.94,83,9.84,0.85,0.54,0,1.81,22083,9.08,33,0.0,44,0,0,8.47,0,1021,2.09,0.0
2026-03-18 17:00:00.000,72,3.81,0.0,0,6.4,0.0,1,0.0,0,0,2,0.0,2.82,84,10.04,0.87,0.6,0,1.74,23245,9.0,34,0.0,44,0,0,8.47,0,1020,2.15,0.0
2026-03-18 18:00:00.000,72,3.97,0.0,0,6.56,0.0,1,0.0,0,0,3,0.0,2.8,84,10.3,0.85,0.65,0,1.7,24100,9.05,34,0.0,45,0,0,8.58,0,1020,2.19,0.0
2026-03-18 19:00:00.000,72,4.2,0.0,0,6.87,0.0,1,0.0,0,0,2,0.0,2.93,82,10.64,0.83,0.7,0,1.72,24442,9.26,34,0.0,44,0,0,8.84,0,1020,2.18,0.0
2026-03-18 20:00:00.000,72,4.48,0.0,0,7.26,0.0,1,0.0,0,0,2,0.0,3.15,80,11.03,0.84,0.75,0,1.77,24479,9.56,33,0.0,43,0,0,9.18,0,1020,2.15,0.0
2026-03-18 21:00:00.000,71,4.74,0.0,0,7.75,-0.89,1,0.0,0,0,2,0.0,3.4,80,11.4,0.87,0.79,0,1.86,24440,9.98,32,0.0,43,0,0,9.63,0,1021,2.13,0.0
2026-03-18 22:00:00.000,69,4.97,0.0,32,8.37,10.57,4,0.0,1,0,1,0.02,3.67,83,11.77,0.91,0.83,10,2.01,24364,10.57,31,0.0,42,0,0,10.23,10,1021,2.11,64.67
2026-03-18 23:00:00.000,66,5.12,0.0,53,9.2,102.59,4,0.0,1,0,1,0.06,3.96,86,12.12,0.92,0.86,10,2.2,24213,11.38,31,0.0,42,0,0,11.04,10,1021,2.09,301.82
2026-03-19 00:00:00.000,62,5.28,0.0,53,10.32,247.48,4,0.0,1,0,2,0.13,4.2,86,12.3,0.92,0.86,10,2.39,24100,12.51,31,0.0,42,0,0,12.13,10,1021,2.12,576.74
2026-03-19 01:00:00.000,60,5.21,0.0,53,10.62,386.02,4,0.0,1,0,1,0.2,4.34,59,12.23,1.05,0.8,10,2.53,24074,13.03,31,0.0,41,2,0,12.53,10,1021,2.23,811.76
2026-03-19 02:00:00.000,58,5.02,0.0,52,10.79,493.48,4,0.0,1,0,1,0.26,4.43,40,11.99,1.24,0.71,11,2.66,24087,13.53,32,0.01,41,3,0,12.87,11,1020,2.39,990.87
2026-03-19 03:00:00.000,57,4.82,0.0,52,10.88,567.9,4,0.0,1,0,2,0.3,4.5,30,11.7,1.4,0.63,11,2.8,24100,13.81,33,0.01,42,4,0,13.01,11,1020,2.54,1101.88
2026-03-19 04:00:00.000,56,4.71,0.0,53,11.31,601.19,4,0.0,1,0,2,0.32,4.59,27,11.41,1.44,0.55,10,2.99,24100,14.22,34,0.01,42,5,10,13.29,10,1019,2.69,1137.24
2026-03-19 05:00:00.000,54,4.62,0.0,53,11.7,597.69,4,0.0,1,0,2,0.32,4.67,27,11.07,1.38,0.47,10,3.19,24100,14.71,36,0.01,42,5,10,13.67,0,1019,2.83,1094.55
2026-03-19 06:00:00.000,53,4.54,0.0,53,11.69,535.0,4,0.0,1,0,3,0.29,4.7,32,10.7,1.25,0.42,10,3.28,24100,14.93,37,0.01,43,4,10,13.88,0,1019,2.91,976.75
2026-03-19 07:00:00.000,53,4.45,0.0,53,11.58,419.01,4,0.0,1,0,3,0.23,4.64,47,10.28,1.14,0.42,10,3.2,24100,14.6,37,0.01,43,2,10,13.71,0,1019,2.9,791.88
2026-03-19 08:00:00.000,54,4.39,0.0,52,11.14,261.62,4,0.0,1,0,2,0.14,4.53,68,9.82,1.12,0.46,11,3.03,24100,13.88,36,0.01,43,1,11,13.27,0,1019,2.84,552.57
2026-03-19 09:00:00.000,56,4.35,0.0,52,10.54,99.1,4,0.0,1,0,3,0.06,4.4,85,9.4,1.15,0.5,11,2.84,24100,13.01,36,0.01,43,0,11,12.69,0,1020,2.76,275.14
2026-03-19 10:00:00.000,59,4.41,0.0,27,9.87,10.86,4,0.0,0,0,3,0.03,4.28,102,9.0,1.13,0.55,10,2.68,24100,12.03,36,0.01,43,0,10,12.0,0,1020,2.67,51.08
2026-03-19 11:00:00.000,63,4.51,0.0,0,9.03,-0.49,1,0.0,0,0,3,0.01,4.14,118,8.63,1.18,0.61,0,2.51,24100,10.91,36,0.01,43,0,0,11.18,0,1020,2.57,0.0
2026-03-19 12:00:00.000,66,4.59,0.0,0,8.34,0.0,1,0.0,0,0,4,0.01,4.0,128,8.4,1.15,0.65,0,2.34,24100,9.96,35,0.01,43,0,0,10.45,0,1020,2.5,0.0
2026-03-19 13:00:00.000,69,4.62,0.0,0,7.86,0.0,1,0.0,0,0,3,0.0,3.83,132,8.37,1.04,0.65,0,2.18,24100,9.31,34,0.01,41,0,0,9.89,0,1020,2.48,0.0
2026-03-19 14:00:00.000,71,4.65,0.0,0,7.56,0.0,2,0.0,0,18,3,0.0,3.66,128,8.48,0.86,0.63,5,2.03,24100,8.88,33,0.0,40,0,0,9.45,0,1020,2.5,0.0
2026-03-19 15:00:00.000,73,4.66,0.0,0,7.36,0.0,3,0.0,0,56,3,0.0,3.5,121,8.6,0.78,0.61,16,1.91,24100,8.64,32,0.0,39,0,0,9.2,0,1020,2.51,0.0
2026-03-19 16:00:00.000,73,4.66,0.0,0,7.28,0.0,3,0.0,0,94,2,0.0,3.37,115,8.76,0.74,0.59,28,1.85,24078,8.55,31,0.0,37,0,0,9.08,0,1020,2.52,0.0
2026-03-19 17:00:00.000,73,4.68,0.0,0,7.35,0.0,3,0.0,0,100,2,0.0,3.26,113,8.92,0.67,0.57,30,1.84,24057,8.62,31,0.0,36,0,0,9.1,0,1019,2.52,0.0
2026-03-19 18:00:00.000,73,4.77,0.0,0,7.54,0.0,3,0.0,0,100,2,0.0,3.2,112,8.9,0.59,0.57,30,1.84,24100,8.77,31,0.0,36,0,0,9.21,0,1019,2.5,0.0
2026-03-19 19:00:00.000,73,4.89,0.0,0,7.82,0.0,3,0.0,0,100,1,0.0,3.19,110,8.56,0.54,0.59,30,1.84,24293,9.01,30,0.0,35,0,0,9.44,0,1019,2.42,0.0
2026-03-19 20:00:00.000,72,5.04,0.0,0,8.13,0.0,6,0.0,0,100,1,0.0,3.23,111,8.04,0.55,0.63,30,1.87,24551,9.29,31,0.0,35,0,0,9.72,18,1020,2.32,0.0
2026-03-19 21:00:00.000,71,5.2,0.0,0,8.5,-0.89,9,0.0,1,100,2,0.0,3.3,115,7.5,0.62,0.67,56,1.91,24680,9.67,31,0.0,35,0,0,10.11,56,1020,2.23,0.0
2026-03-19 22:00:00.000,69,5.4,0.0,0,8.98,3.83,22,0.0,1,100,2,0.03,3.4,120,6.99,0.76,0.71,94,1.98,24701,10.21,32,0.0,34,0,0,10.65,94,1020,2.14,68.0
2026-03-19 23:00:00.000,67,5.56,0.0,0,9.64,44.22,22,0.0,1,100,2,0.04,3.54,124,6.47,0.92,0.76,100,2.07,24593,10.94,33,0.0,34,0,0,11.38,100,1020,2.07,308.34
2026-03-20 00:00:00.000,63,5.76,0.0,0,10.61,104.27,22,0.0,1,100,3,0.08,3.7,128,6.0,1.04,0.79,100,2.2,24100,11.95,34,0.0,35,0,0,12.4,100,1020,2.08,582.97
2026-03-20 01:00:00.000,62,5.76,0.0,0,11.04,166.3,22,0.0,1,100,3,0.11,3.89,109,5.59,0.9,0.79,100,2.38,23055,12.26,35,0.0,34,2,0,12.73,100,1020,2.21,817.63
2026-03-20 02:00:00.000,61,5.68,0.0,0,11.38,214.33,22,0.0,1,100,3,0.13,4.09,92,5.22,0.76,0.76,100,2.6,21624,12.5,35,0.0,34,3,18,12.99,100,1019,2.43,996.34
2026-03-20 03:00:00.000,60,5.6,0.0,0,11.47,251.12,22,0.0,1,100,4,0.15,4.3,80,4.9,0.71,0.74,100,2.8,20050,12.56,35,0.0,35,4,56,13.06,100,1019,2.64,1106.94
2026-03-20 04:00:00.000,59,5.62,0.0,0,11.68,270.36,22,0.0,1,100,4,0.17,4.54,81,4.64,0.74,0.72,100,3.02,18407,12.77,36,0.0,35,5,94,13.28,100,1019,2.85,1141.9
2026-03-20 05:00:00.000,58,5.69,0.0,0,12.0,280.59,22,0.0,1,100,6,0.17,4.77,88,4.43,0.78,0.7,100,3.24,16619,13.09,36,0.01,35,5,100,13.62,100,1018,3.06,1098.86
2026-03-20 06:00:00.000,58,5.77,0.0,0,12.14,258.93,22,0.0,1,100,7,0.16,4.9,99,4.2,0.89,0.69,100,3.33,14700,13.3,37,0.01,36,4,100,13.82,100,1018,3.19,980.77
2026-03-20 07:00:00.000,58,5.83,0.0,0,11.89,202.67,22,0.0,1,100,7,0.13,4.84,109,3.91,1.1,0.72,100,3.21,12512,13.2,37,0.01,36,2,100,13.7,100,1018,3.19,795.7
2026-03-20 08:00:00.000,60,5.89,0.0,0,11.37,122.73,22,0.0,1,100,7,0.09,4.67,117,3.62,1.34,0.77,100,2.97,10192,12.86,37,0.0,35,1,100,13.34,100,1019,3.1,556.28
2026-03-20 09:00:00.000,62,5.93,0.0,0,10.78,45.21,22,0.0,1,100,8,0.05,4.5,123,3.4,1.49,0.82,100,2.75,8160,12.4,37,0.0,36,0,100,12.84,100,1019,3.0,278.86
2026-03-20 10:00:00.000,65,6.04,0.0,0,10.17,4.98,22,0.0,0,100,8,0.04,4.35,130,3.27,1.52,0.87,100,2.57,6328,11.83,37,0.0,36,0,100,12.23,100,1019,2.89,52.96
2026-03-20 11:00:00.000,69,6.14,0.0,0,9.46,-0.49,22,0.0,0,100,8,0.01,4.2,136,3.23,1.54,0.93,100,2.4,4782,11.14,37,0.0,36,0,100,11.5,100,1019,2.78,0.0
2026-03-20 12:00:00.000,72,6.2,0.0,0,8.89,0.0,22,0.0,0,100,9,0.01,4.1,141,3.3,1.44,0.97,100,2.3,4200,10.54,37,0.0,37,0,100,10.85,100,1020,2.71,0.0
2026-03-20 13:00:00.000,75,6.18,0.0,0,8.48,0.0,22,0.0,0,100,8,0.0,4.06,142,3.52,1.27,1.0,100,2.29,5058,10.08,37,0.0,36,0,100,10.33,100,1019,2.73,0.0
2026-03-20 14:00:00.000,77,6.14,0.0,0,8.23,0.0,22,0.0,0,100,8,0.0,4.07,139,3.87,1.03,1.01,100,2.33,6879,9.75,36,0.0,36,0,100,9.92,100,1019,2.8,0.0
2026-03-20 15:00:00.000,78,6.07,0.0,0,8.06,0.0,22,0.0,0,100,8,0.0,4.1,132,4.3,0.9,1.01,100,2.42,8900,9.58,36,0.0,36,0,100,9.68,100,1019,2.87,0.0
2026-03-20 16:00:00.000,78,6.0,0.0,0,7.99,0.0,22,0.0,0,100,7,0.0,4.15,125,4.84,0.82,1.01,100,2.57,11085,9.55,36,0.0,35,0,100,9.57,100,1019,2.94,0.0
2026-03-20 17:00:00.000,77,5.95,0.0,0,8.06,0.0,22,0.0,0,100,7,0.0,4.23,121,5.46,0.74,1.0,100,2.77,13471,9.64,36,0.0,35,0,100,9.59,100,1018,3.0,0.0
2026-03-20 18:00:00.000,77,6.0,0.0,0,8.25,0.0,22,0.0,0,100,8,0.0,4.3,120,6.1,0.63,0.99,100,2.91,15400,9.8,36,0.0,36,0,100,9.69,100,1018,3.03,0.0
2026-03-20 19:00:00.000,77,6.13,0.0,0,8.56,0.0,22,0.0,0,100,7,0.0,4.36,120,6.71,0.52,0.95,100,2.94,16530,10.05,36,0.0,36,0,100,9.9,100,1018,2.99,0.0
2026-03-20 20:00:00.000,77,6.33,0.0,0,8.91,0.0,22,0.0,0,95,7,0.0,4.42,122,7.33,0.46,0.91,100,2.93,17202,10.33,37,0.0,37,0,100,10.15,100,1018,2.91,0.0
2026-03-20 21:00:00.000,76,6.55,0.0,0,9.32,-0.89,22,0.0,1,56,8,0.0,4.5,126,8.0,0.44,0.87,100,2.92,17780,10.71,38,0.0,38,0,100,10.5,100,1019,2.83,0.0
2026-03-20 22:00:00.000,75,6.79,0.0,0,9.83,2.53,22,0.0,1,18,8,0.02,4.62,128,8.75,0.49,0.83,100,2.94,18321,11.24,38,0.0,39,0,100,10.99,100,1019,2.74,71.33
2026-03-20 23:00:00.000,73,7.01,0.0,0,10.54,36.65,22,0.0,1,0,8,0.04,4.76,130,9.56,0.53,0.8,100,2.97,18767,11.96,39,0.0,40,0,100,11.68,100,1019,2.65,314.84
2026-03-21 00:00:00.000,69,7.28,0.49,0,11.55,87.39,33,0.0,1,0,9,0.06,4.9,129,10.4,0.54,0.77,100,3.02,19300,12.98,40,0.01,41,0,100,12.63,100,1019,2.58,589.16
2026-03-21 01:00:00.000,68,7.3,0.47,0,11.85,143.52,33,0.0,1,0,8,0.09,5.03,72,11.28,0.45,0.74,100,3.1,20023,13.34,39,0.01,41,1,100,12.86,100,1019,2.56,823.45
2026-03-21 02:00:00.000,67,7.22,0.46,0,11.84,189.73,33,0.0,1,0,7,0.12,5.17,33,12.2,0.65,0.72,100,3.21,20834,13.65,38,0.01,41,3,100,13.01,94,1019,2.56,1001.76
2026-03-21 03:00:00.000,67,7.11,0.44,0,11.63,228.35,33,0.0,1,0,7,0.14,5.3,20,13.1,0.87,0.69,100,3.31,21600,13.77,37,0.01,41,4,100,12.98,56,1018,2.57,1111.94
2026-03-21 04:00:00.000,66,7.09,0.43,0,11.69,252.17,33,0.0,1,0,6,0.15,5.46,18,14.01,0.95,0.68,100,3.44,22312,14.03,35,0.01,41,5,100,13.1,18,1018,2.58,1146.5
2026-03-21 05:00:00.000,65,7.1,0.42,0,11.95,268.48,33,0.0,1,0,6,0.16,5.61,19,14.9,0.92,0.68,100,3.57,22980,14.41,34,0.02,41,5,100,13.34,0,1018,2.59,1103.1
2026-03-21 06:00:00.000,65,7.09,0.41,0,12.14,253.06,33,0.0,1,0,6,0.15,5.7,26,15.7,0.84,0.67,100,3.62,23500,14.61,33,0.02,41,4,100,13.48,0,1018,2.61,984.73
2026-03-21 07:00:00.000,65,7.01,0.4,0,12.01,204.14,33,0.0,1,0,6,0.12,5.68,43,16.34,0.8,0.65,100,3.54,23805,14.42,33,0.02,41,2,100,13.34,0,1018,2.62,799.46
2026-03-21 08:00:00.000,66,6.89,0.39,0,11.61,127.71,33,0.0,1,0,6,0.08,5.6,63,16.87,0.83,0.63,100,3.38,23961,13.94,32,0.03,41,1,100,12.99,0,1018,2.64,559.95
2026-03-21 09:00:00.000,67,6.74,0.39,0,11.09,49.09,33,0.0,1,0,7,0.04,5.5,77,17.4,0.87,0.62,100,3.22,24060,13.35,32,0.03,41,0,100,12.52,0,1019,2.65,282.55
2026-03-21 10:00:00.000,69,6.62,0.39,0,10.54,5.69,33,0.0,0,0,7,0.02,5.42,89,17.94,0.79,0.62,100,3.11,24112,12.66,31,0.03,41,0,100,11.95,0,1019,2.67,54.84
2026-03-21 11:00:00.000,72,6.5,0.38,0,9.86,-0.49,33,0.0,0,0,8,0.0,5.33,102,18.46,0.74,0.63,100,2.99,24106,11.86,31,0.03,41,0,100,11.27,0,1019,2.68,0.0
2026-03-21 12:00:00.000,74,6.4,0.63,0,9.3,0.0,33,0.0,0,0,9,0.0,5.2,110,19.0,0.64,0.65,100,2.88,24100,11.19,31,0.03,41,0,100,10.65,0,1020,2.71,0.0
2026-03-21 13:00:00.000,76,6.29,0.63,0,8.82,0.0,33,0.0,0,11,8,0.0,4.99,107,19.57,0.55,0.68,100,2.77,24112,10.74,30,0.04,40,0,100,10.15,10,1020,2.75,0.0
2026-03-21 14:00:00.000,78,6.19,0.63,0,8.44,0.0,33,0.0,0,12,8,0.0,4.73,92,20.16,0.5,0.71,100,2.65,24124,10.48,30,0.04,38,0,100,9.75,10,1019,2.8,0.0
2026-03-21 15:00:00.000,79,6.1,0.63,0,8.14,0.0,33,0.0,0,15,8,0.0,4.5,80,20.7,0.57,0.75,100,2.56,24130,10.4,29,0.04,38,0,100,9.52,0,1019,2.84,0.0
2026-03-21 16:00:00.000,79,6.06,0.62,0,7.98,0.0,33,0.0,0,18,7,0.0,4.3,74,21.22,0.67,0.8,100,2.51,24123,10.48,28,0.04,37,0,100,9.43,0,1019,2.88,0.0
2026-03-21 17:00:00.000,79,6.07,0.62,0,7.99,0.0,33,0.0,0,22,7,0.0,4.13,71,21.69,0.71,0.85,100,2.48,24110,10.71,28,0.04,37,0,100,9.48,0,1019,2.91,0.0
2026-03-21 18:00:00.000,78,6.1,0.62,0,8.15,0.0,33,0.0,0,30,7,0.0,4.0,66,22.0,0.7,0.87,100,2.46,24100,11.03,27,0.04,37,0,100,9.61,0,1019,2.91,0.0
2026-03-21 19:00:00.000,77,6.09,0.6,0,8.41,0.0,33,0.0,0,42,6,0.0,3.93,60,22.07,0.68,0.87,88,2.42,24097,11.44,26,0.04,36,0,88,9.86,0,1019,2.87,0.0
2026-03-21 20:00:00.000,75,6.07,0.58,0,8.72,0.0,31,0.0,0,57,6,0.0,3.9,57,21.98,0.67,0.85,71,2.37,24098,11.91,24,0.04,36,0,71,10.18,0,1019,2.8,0.0
2026-03-21 21:00:00.000,73,6.06,0.56,0,9.15,-0.89,31,0.0,1,71,6,0.0,3.9,58,21.8,0.65,0.83,55,2.37,24100,12.48,23,0.03,37,0,55,10.59,0,1020,2.74,0.0
2026-03-21 22:00:00.000,70,6.07,0.54,23,9.72,10.54,31,0.0,1,84,5,0.02,3.94,67,21.57,0.64,0.8,38,2.43,24100,13.2,22,0.03,37,0,38,11.15,0,1020,2.68,74.65
2026-03-21 23:00:00.000,67,6.04,0.51,41,10.49,101.94,31,0.0,1,95,5,0.06,4.01,76,21.26,0.62,0.78,28,2.53,24100,14.14,22,0.03,37,0,22,11.92,0,1020,2.62,321.32
2026-03-22 00:00:00.000,62,6.07,0.0,40,11.55,239.87,3,0.0,1,100,5,0.13,4.1,85,20.8,0.62,0.75,30,2.64,24100,15.39,22,0.03,38,0,0,12.97,0,1020,2.61,595.32
