time,relativehumidity,dewpointtemperature,precipitation,sunshinetime,felttemperature,ghi_backwards,pictocode,snowfraction,isdaylight,highclouds,cape,referenceevapotranspiration_fao,gust,winddirection,liftedindex,windspeed,precipitation_spread,totalcloudcover,windspeed_spread,visibility,skintemperature,precipitation_probability,evapotranspiration,totalcloudcover_spread,uvindex,lowclouds,temperature,midclouds,sealevelpressure,temperature_spread,extraterrestrialradiation_backwards
2026-03-13 00:00:00.000,58,0.38,0.0,8,2.56,159.0,19,0.0,1,0,165,0.11,12.0,40,12.14,4.89,0.07,80,0.57,16630,8.15,52,0.08,11,1,80,8.05,26,1025,0.49,538.97
2026-03-13 01:00:00.000,54,-0.15,0.0,25,2.77,225.0,7,0.0,1,0,187,0.14,11.83,36,12.88,5.16,0.07,54,0.63,16830,7.83,65,0.11,16,1,54,8.53,26,1025,0.54,775.82
2026-03-13 02:00:00.000,52,-0.7,0.0,29,2.41,350.93,7,0.0,1,0,195,0.18,11.86,31,13.89,5.54,0.07,48,0.72,17030,8.01,61,0.14,23,2,48,8.52,26,1025,0.62,957.07
2026-03-13 03:00:00.000,51,-0.97,0.46,28,2.2,471.47,31,0.0,1,0,203,0.22,11.95,26,14.24,5.87,0.07,50,0.78,16630,8.38,48,0.14,28,3,43,8.58,13,1025,0.72,1070.37
2026-03-13 04:00:00.000,50,-1.23,0.36,28,1.87,560.63,31,0.0,1,0,183,0.25,12.7,27,15.17,6.32,0.07,50,0.78,15830,8.11,61,0.14,27,4,44,8.56,21,1025,0.85,1108.01
2026-03-13 05:00:00.000,48,-1.57,0.15,28,1.87,610.31,31,0.0,1,0,164,0.26,13.31,25,16.03,6.63,0.07,50,0.75,15830,7.8,61,0.14,25,4,40,8.61,14,1025,0.99,1067.44
2026-03-13 06:00:00.000,48,-1.84,0.0,35,1.57,611.33,4,0.0,1,0,145,0.26,13.85,26,16.53,6.83,0.07,38,0.72,16030,7.66,48,0.13,24,3,38,8.49,6,1024,1.09,951.45
2026-03-13 07:00:00.000,48,-2.02,0.0,37,1.05,465.48,4,0.0,1,0,120,0.21,14.14,29,17.71,6.84,0.07,36,0.69,16030,7.54,38,0.1,24,2,36,8.25,10,1025,1.11,767.95
2026-03-13 08:00:00.000,49,-2.13,0.0,41,0.78,275.84,4,0.0,1,0,94,0.16,14.15,31,19.06,6.68,0.07,28,0.66,16840,6.78,20,0.07,26,1,28,7.89,12,1025,1.08,529.48
2026-03-13 09:00:00.000,50,-2.07,0.0,37,0.43,105.26,4,0.0,1,0,75,0.11,14.2,33,19.08,6.47,0.06,35,0.64,16440,5.91,10,0.05,27,0,35,7.39,5,1025,1.06,252.3
2026-03-13 10:00:00.000,53,-1.9,0.0,16,0.02,4.44,4,0.0,0,0,66,0.08,13.98,33,18.79,6.3,0.05,34,0.65,16250,5.54,9,0.03,25,0,34,6.83,0,1026,1.08,39.57
2026-03-13 11:00:00.000,55,-1.68,0.0,0,-0.24,0.0,7,0.0,0,0,65,0.06,14.59,33,19.07,6.17,0.04,47,0.68,17900,5.75,0,0.03,22,0,47,6.45,2,1026,1.1,0.0
2026-03-13 12:00:00.000,58,-1.4,0.0,0,-0.35,0.0,7,0.0,0,0,65,0.06,16.25,33,18.78,6.01,0.03,52,0.72,16300,5.71,0,0.04,21,0,52,6.19,0,1027,1.11,0.0
2026-03-13 13:00:00.000,60,-1.13,0.0,0,-0.45,0.0,7,0.0,0,0,66,0.05,13.33,34,19.01,5.8,0.02,58,0.76,15690,5.97,0,0.03,22,0,58,5.91,0,1027,1.08,0.0
2026-03-13 14:00:00.000,63,-0.84,0.0,0,-0.68,0.0,7,0.0,0,0,56,0.05,12.71,31,19.97,5.55,0.01,66,0.79,14700,4.16,8,0.02,26,0,66,5.46,0,1026,1.04,0.0
2026-03-13 15:00:00.000,66,-0.56,0.0,0,-0.64,0.0,7,0.0,0,0,51,0.04,12.05,34,19.87,5.27,0.0,66,0.81,13300,3.87,8,0.02,28,0,66,5.26,0,1026,1.0,0.0
2026-03-13 16:00:00.000,67,-0.25,0.0,0,-0.31,0.0,7,0.0,0,0,45,0.04,11.78,35,20.13,5.01,0.0,70,0.78,13300,4.09,8,0.02,25,0,70,5.36,0,1026,0.96,0.0
2026-03-13 17:00:00.000,67,0.08,0.0,0,0.17,0.0,19,0.0,0,0,44,0.04,11.27,32,20.21,4.84,0.01,77,0.74,12900,5.62,8,0.01,22,0,77,5.67,0,1026,0.93,0.0
2026-03-13 18:00:00.000,67,0.45,0.0,0,0.7,0.0,22,0.0,0,0,49,0.04,11.8,29,20.07,4.75,0.01,90,0.72,14500,6.1,8,0.02,20,0,90,6.08,0,1026,0.9,0.0
2026-03-13 19:00:00.000,67,0.8,0.0,0,1.06,0.0,22,0.0,0,0,49,0.04,11.46,29,20.18,4.71,0.01,96,0.77,14300,6.37,8,0.02,20,0,96,6.36,0,1026,0.89,0.0
2026-03-13 20:00:00.000,68,1.21,0.0,0,1.36,0.0,22,0.0,0,0,50,0.04,10.72,26,20.48,4.76,0.0,98,0.86,14490,6.45,8,0.02,22,0,98,6.62,0,1026,0.88,0.0
2026-03-13 21:00:00.000,68,1.6,0.0,0,1.73,0.0,22,0.0,0,0,49,0.04,11.55,26,20.1,4.76,0.0,100,0.89,13840,6.64,8,0.02,24,0,100,6.93,0,1026,0.9,0.0
2026-03-13 22:00:00.000,65,1.71,0.0,0,2.58,1.9,22,0.0,1,0,61,0.06,11.22,31,19.94,4.7,0.0,100,0.83,13030,7.27,8,0.02,22,0,100,7.72,0,1026,0.95,48.03
2026-03-13 23:00:00.000,60,1.63,0.0,0,3.75,35.95,22,0.0,1,0,62,0.08,10.92,33,19.89,4.62,0.01,100,0.73,13230,9.08,8,0.03,20,0,100,8.85,0,1027,1.02,269.17
2026-03-14 00:00:00.000,55,1.49,0.0,0,4.73,108.45,22,0.0,1,0,64,0.11,10.7,32,20.3,4.61,0.01,99,0.64,13430,9.92,8,0.05,20,0,99,9.85,0,1027,1.06,545.31
2026-03-14 01:00:00.000,52,1.21,0.0,3,5.32,215.37,22,0.0,1,0,71,0.15,10.55,34,20.86,4.6,0.01,88,0.59,14630,11.8,8,0.08,22,1,88,10.47,0,1027,1.04,781.89
2026-03-14 02:00:00.000,50,0.94,0.0,0,5.45,274.32,22,0.0,1,0,58,0.18,10.34,32,20.77,4.64,0.0,95,0.54,15230,15.79,0,0.11,26,2,95,10.68,0,1027,0.99,962.81
2026-03-14 03:00:00.000,50,0.9,0.0,7,5.56,385.21,19,0.0,1,0,46,0.22,9.65,29,20.43,4.64,0.0,82,0.5,15230,14.26,0,0.11,27,3,82,10.8,0,1027,0.96,1075.75
2026-03-14 04:00:00.000,50,0.91,0.0,6,5.6,473.9,19,0.0,1,0,37,0.25,9.58,28,20.02,4.63,0.0,84,0.45,14430,14.54,0,0.11,21,4,84,10.82,12,1027,0.97,1113.03
2026-03-14 05:00:00.000,50,0.98,0.0,13,5.66,495.45,7,0.0,1,0,23,0.25,9.48,26,19.64,4.6,0.0,72,0.39,14220,16.81,0,0.13,14,4,72,10.85,1,1026,0.99,1072.11
2026-03-14 06:00:00.000,51,1.11,0.0,15,5.59,487.58,7,0.0,1,0,18,0.24,9.25,24,20.3,4.5,0.0,70,0.36,14230,15.52,0,0.13,9,4,70,10.7,26,1025,0.99,955.81
2026-03-14 07:00:00.000,53,1.32,0.0,12,5.34,373.92,7,0.0,1,0,15,0.19,8.92,17,20.32,4.33,0.0,74,0.37,14620,13.85,0,0.1,9,3,74,10.29,9,1025,0.96,772.07
2026-03-14 08:00:00.000,56,1.56,0.0,14,4.98,225.23,7,0.0,1,0,16,0.13,8.71,21,20.69,4.1,0.0,71,0.4,12820,11.82,0,0.08,13,1,71,9.72,3,1025,0.9,533.43
2026-03-14 09:00:00.000,60,1.87,0.0,13,4.7,87.41,7,0.0,1,0,19,0.08,8.3,26,20.96,3.77,0.0,72,0.42,12020,9.16,0,0.04,15,0,72,9.16,0,1026,0.86,256.18
2026-03-14 10:00:00.000,63,2.25,0.0,6,4.59,4.03,7,0.0,0,0,14,0.06,7.43,30,20.97,3.49,0.0,72,0.43,12240,6.4,0,0.02,12,0,72,8.79,21,1026,0.84,41.52
2026-03-14 11:00:00.000,66,2.63,0.0,0,4.56,0.0,7,0.0,0,0,13,0.03,7.07,34,21.0,3.26,0.0,66,0.43,11870,8.09,0,0.02,7,0,66,8.52,25,1026,0.82,0.0
2026-03-14 12:00:00.000,69,2.94,0.0,0,4.48,0.0,7,0.0,0,0,13,0.02,6.4,42,21.24,2.94,0.0,50,0.42,12270,7.89,0,0.02,5,0,50,8.17,1,1027,0.8,0.0
2026-03-14 13:00:00.000,73,3.15,0.0,0,4.22,0.0,4,0.0,0,0,8,0.02,5.79,48,20.93,2.53,0.0,25,0.43,12070,7.88,0,0.02,5,0,25,7.58,6,1026,0.76,0.0
2026-03-14 14:00:00.000,78,3.28,0.0,0,3.83,0.0,1,0.0,0,0,5,0.01,5.37,64,21.11,2.04,0.0,5,0.44,12070,5.46,0,0.01,8,0,5,6.83,0,1026,0.7,0.0
2026-03-14 15:00:00.000,81,3.23,0.0,0,3.52,0.0,13,0.0,0,0,5,0.0,4.55,78,21.61,1.63,0.0,3,0.45,11270,4.1,0,0.0,9,0,3,6.24,0,1026,0.65,0.0
2026-03-14 16:00:00.000,82,3.12,0.0,0,3.25,0.0,13,0.0,0,0,4,0.0,3.96,95,22.01,1.43,0.0,2,0.43,10880,3.4,0,0.0,6,0,2,5.84,0,1025,0.59,0.0
2026-03-14 17:00:00.000,83,3.03,0.0,0,3.06,0.0,13,0.0,0,0,3,0.0,3.72,105,22.5,1.31,0.0,3,0.39,10880,2.73,0,0.0,3,0,3,5.59,0,1025,0.54,0.0
2026-03-14 18:00:00.000,84,2.97,0.0,0,2.91,0.0,13,0.0,0,0,3,0.0,3.25,120,22.01,1.25,0.0,7,0.36,11080,2.36,0,0.0,1,0,7,5.41,0,1025,0.5,0.0
2026-03-14 19:00:00.000,85,2.91,0.0,0,2.64,0.0,4,0.0,0,0,3,0.0,3.33,127,21.46,1.24,0.0,21,0.33,10870,2.02,0,0.0,1,0,21,5.14,0,1025,0.5,0.0
2026-03-14 20:00:00.000,87,2.99,0.0,0,2.45,0.0,4,0.0,0,0,4,0.0,3.4,133,21.31,1.25,0.0,29,0.3,10670,1.75,0,0.0,4,0,29,4.95,9,1025,0.52,0.0
2026-03-14 21:00:00.000,86,3.19,0.0,0,2.71,0.0,4,0.0,0,0,3,0.0,3.35,140,20.97,1.29,0.0,36,0.32,10440,1.41,0,0.0,6,0,36,5.19,8,1025,0.53,0.0
2026-03-14 22:00:00.000,78,3.17,0.0,18,4.03,8.39,4,0.0,1,0,3,0.02,3.49,142,21.07,1.35,0.0,37,0.41,9840,3.89,0,0.0,7,0,37,6.57,0,1025,0.52,51.35
2026-03-14 23:00:00.000,67,2.99,0.0,41,6.13,133.98,4,0.0,1,0,4,0.06,3.52,139,20.82,1.4,0.0,28,0.55,10830,9.79,0,0.02,7,0,28,8.73,0,1025,0.51,275.69
2026-03-15 00:00:00.000,57,2.75,0.0,42,8.05,335.3,4,0.0,1,0,4,0.16,4.44,103,20.4,1.58,0.0,28,0.63,12830,13.63,0,0.06,8,1,22,10.82,28,1026,0.5,551.61
2026-03-15 01:00:00.000,51,2.31,0.0,45,9.07,521.63,4,0.0,1,0,4,0.26,4.41,67,19.8,1.83,0.0,22,0.62,15230,16.67,0,0.09,6,2,20,12.09,22,1025,0.51,787.92
2026-03-15 02:00:00.000,47,1.74,0.0,36,10.03,669.42,4,0.0,1,0,5,0.33,4.68,33,19.5,2.07,0.0,37,0.58,17430,18.64,0,0.12,4,4,25,12.63,37,1025,0.53,968.5
2026-03-15 03:00:00.000,45,1.44,0.0,35,10.59,763.87,4,0.0,1,0,7,0.38,5.05,15,19.01,2.32,0.0,38,0.57,17030,19.75,0,0.14,3,5,18,12.89,38,1025,0.55,1081.08
2026-03-15 04:00:00.000,44,1.18,0.0,26,10.67,788.34,7,0.0,1,0,6,0.4,5.44,6,18.78,2.49,0.0,52,0.59,17430,20.06,0,0.15,3,6,10,13.02,52,1024,0.56,1117.98
2026-03-15 05:00:00.000,43,1.04,0.0,24,10.17,718.54,7,0.0,1,0,5,0.37,5.88,2,18.93,2.65,0.0,55,0.63,17230,19.34,0,0.15,3,6,4,13.05,55,1023,0.56,1076.72
2026-03-15 06:00:00.000,44,1.03,0.0,19,9.08,569.0,7,0.0,1,0,5,0.3,6.25,0,19.48,2.73,0.0,63,0.64,16430,17.68,0,0.13,5,5,1,12.85,63,1023,0.55,960.12
2026-03-15 07:00:00.000,46,1.22,0.0,11,8.5,327.38,19,0.0,1,0,5,0.2,6.42,1,20.01,2.72,0.0,75,0.58,16830,15.17,0,0.11,6,3,1,12.34,75,1023,0.54,776.14
2026-03-15 08:00:00.000,49,1.46,0.0,14,7.89,193.48,7,0.0,1,0,4,0.13,6.55,9,20.26,2.56,0.0,71,0.48,16230,12.16,0,0.08,7,2,5,11.58,71,1023,0.51,537.36
2026-03-15 09:00:00.000,54,1.85,0.0,18,7.2,91.73,7,0.0,1,0,4,0.07,6.51,18,20.3,2.33,0.0,65,0.42,15030,8.5,0,0.04,8,0,10,10.65,65,1024,0.5,260.05
2026-03-15 10:00:00.000,59,2.34,0.0,8,6.62,5.5,7,0.0,0,0,3,0.04,6.42,33,19.81,2.08,0.0,64,0.43,13440,7.98,0,0.02,7,0,9,9.81,64,1024,0.5,43.46
2026-03-15 11:00:00.000,64,2.85,0.0,0,6.17,0.0,7,0.0,0,0,3,0.02,5.87,47,19.67,1.84,0.0,62,0.47,13690,7.92,0,0.02,6,0,11,9.1,62,1024,0.51,0.0
2026-03-15 12:00:00.000,69,3.28,0.0,0,5.74,0.0,4,0.0,0,0,2,0.01,5.18,62,20.29,1.66,0.0,38,0.5,13890,6.5,0,0.02,6,0,9,8.46,38,1024,0.5,0.0
2026-03-15 13:00:00.000,74,3.58,0.0,0,5.26,0.0,4,0.0,0,1,1,0.0,4.69,78,21.29,1.49,0.0,14,0.51,12260,5.15,0,0.01,6,0,8,7.82,14,1024,0.47,0.0
2026-03-15 14:00:00.000,79,3.77,0.0,0,4.69,0.0,1,0.0,0,2,1,0.0,4.46,89,22.34,1.41,0.0,8,0.51,11670,4.67,0,0.0,7,0,7,7.15,8,1024,0.43,0.0
2026-03-15 15:00:00.000,81,3.75,0.0,0,4.33,0.0,4,0.0,0,9,1,0.0,4.8,105,23.6,1.28,0.0,14,0.5,12290,4.16,0,0.0,9,0,4,6.69,14,1023,0.4,0.0
2026-03-15 16:00:00.000,82,3.59,0.0,0,4.04,0.0,8,0.0,0,27,1,0.0,4.03,115,23.79,1.24,0.0,46,0.48,13280,3.54,0,0.0,9,0,3,6.41,46,1023,0.39,0.0
2026-03-15 17:00:00.000,82,3.41,0.0,0,3.77,0.0,9,0.0,0,51,1,0.0,4.07,118,24.24,1.29,0.0,64,0.46,14480,2.76,0,0.0,10,0,3,6.21,64,1023,0.4,0.0
2026-03-15 18:00:00.000,82,3.23,0.0,0,3.51,0.0,9,0.0,0,63,1,0.0,4.45,117,24.23,1.3,0.0,53,0.45,15490,2.01,0,0.0,11,0,2,6.0,53,1023,0.4,0.0
2026-03-15 19:00:00.000,83,3.01,0.0,0,3.06,0.0,21,0.0,0,53,1,0.0,4.74,113,23.77,1.3,0.0,80,0.42,14690,1.25,0,0.0,12,0,7,5.59,80,1023,0.39,0.0
2026-03-15 20:00:00.000,85,2.92,0.0,0,2.62,0.0,8,0.0,0,32,1,0.0,4.57,114,23.47,1.39,0.0,58,0.41,14290,0.61,0,0.0,14,0,12,5.22,58,1023,0.38,0.0
2026-03-15 21:00:00.000,83,2.86,0.0,0,2.77,0.0,8,0.0,0,15,1,0.0,4.15,111,23.64,1.43,0.0,69,0.42,14650,0.02,0,0.0,15,0,14,5.41,69,1023,0.4,0.0
2026-03-15 22:00:00.000,73,2.46,0.0,12,4.06,10.84,7,0.0,1,7,1,0.02,4.49,109,23.61,1.49,0.0,58,0.48,14640,2.58,0,0.0,12,0,10,6.82,58,1023,0.46,54.65
2026-03-15 23:00:00.000,60,1.85,0.0,42,6.12,132.61,4,0.0,1,2,1,0.07,4.94,102,23.86,1.59,0.0,26,0.56,16830,8.31,0,0.02,8,0,7,9.05,26,1024,0.54,282.18
2026-03-16 00:00:00.000,50,1.25,0.0,36,7.97,340.58,4,0.0,1,0,2,0.17,5.15,81,23.34,1.84,0.0,36,0.64,19430,11.76,0,0.06,7,1,7,11.19,36,1024,0.61,557.88
2026-03-16 01:00:00.000,43,0.55,0.0,38,9.08,512.82,4,0.0,1,0,2,0.26,5.72,62,22.38,2.07,0.0,33,0.7,23030,14.75,0,0.1,9,2,0,12.57,33,1023,0.64,793.89
2026-03-16 02:00:00.000,39,-0.04,0.0,47,10.28,672.4,4,0.0,1,0,3,0.35,6.21,41,22.02,2.26,0.0,20,0.76,26430,17.23,0,0.13,15,4,0,13.3,20,1023,0.66,974.13
2026-03-16 03:00:00.000,38,-0.14,0.0,52,11.2,784.59,4,0.0,1,0,5,0.41,6.4,26,21.67,2.48,0.0,11,0.85,26030,18.66,0,0.16,20,5,0,13.77,11,1022,0.68,1086.34
2026-03-16 04:00:00.000,38,0.03,0.0,52,11.49,812.54,4,0.0,1,0,4,0.42,6.58,18,20.57,2.7,0.0,12,1.0,21230,18.76,0,0.16,23,6,0,14.06,12,1022,0.72,1122.88
2026-03-16 05:00:00.000,38,0.33,0.0,48,11.28,774.77,4,0.0,1,0,3,0.41,6.82,15,20.09,2.91,0.0,17,1.17,19630,18.05,0,0.15,26,6,0,14.18,17,1021,0.77,1081.27
2026-03-16 06:00:00.000,40,0.72,0.0,46,10.48,675.3,4,0.0,1,0,3,0.36,6.9,15,19.96,3.08,0.0,20,1.27,20230,16.59,0,0.14,28,5,0,13.98,20,1021,0.8,964.37
2026-03-16 07:00:00.000,43,1.18,0.0,49,9.29,521.75,4,0.0,1,0,1,0.28,6.84,18,19.88,3.1,0.0,16,1.25,21230,14.38,0,0.12,28,3,0,13.4,16,1021,0.81,780.17
2026-03-16 08:00:00.000,47,1.53,0.0,53,8.48,330.69,4,0.0,1,0,4,0.18,6.63,23,20.42,3.04,0.0,10,1.16,20630,11.71,0,0.09,29,1,0,12.48,10,1021,0.81,541.25
2026-03-16 09:00:00.000,51,1.79,0.0,56,7.6,127.72,1,0.0,1,0,5,0.09,6.05,31,20.3,2.8,0.0,5,1.06,17630,8.38,0,0.05,29,0,0,11.39,5,1021,0.8,263.89
2026-03-16 10:00:00.000,56,2.05,0.0,27,6.83,11.18,1,0.0,0,0,0,0.05,4.85,42,20.18,2.48,0.0,2,0.98,16240,5.9,0,0.02,28,0,0,10.35,2,1022,0.77,45.4
2026-03-16 11:00:00.000,60,2.29,0.0,0,6.18,0.0,1,0.0,0,0,1,0.02,4.14,57,19.8,2.18,0.0,1,0.91,15900,5.26,0,0.01,26,0,0,9.45,1,1022,0.74,0.0
2026-03-16 12:00:00.000,65,2.4,0.0,0,5.47,0.0,1,0.0,0,0,1,0.02,3.4,73,19.01,1.9,0.0,0,0.86,14910,4.63,0,0.01,27,0,0,8.53,0,1022,0.71,0.0
2026-03-16 13:00:00.000,69,2.41,0.0,0,4.84,0.0,2,0.0,0,11,1,0.01,3.02,85,18.72,1.53,0.0,3,0.83,14890,3.69,0,0.01,30,0,0,7.64,0,1022,0.7,0.0
2026-03-16 14:00:00.000,73,2.42,0.0,0,4.15,0.0,2,0.0,0,28,1,0.0,2.52,94,18.88,1.29,0.0,8,0.82,13880,2.91,0,0.0,35,0,0,6.77,0,1022,0.7,0.0
2026-03-16 15:00:00.000,75,2.32,0.0,0,3.89,0.0,2,0.0,0,45,1,0.0,2.51,103,19.29,1.09,0.0,13,0.81,12680,1.99,0,0.0,38,0,0,6.39,0,1022,0.71,0.0
2026-03-16 16:00:00.000,74,2.16,0.0,0,3.9,0.0,3,0.0,0,65,1,0.0,2.64,117,19.31,0.97,0.0,19,0.79,12280,4.54,0,0.0,36,0,0,6.34,0,1022,0.73,0.0
2026-03-16 17:00:00.000,73,2.08,0.0,0,4.14,0.0,3,0.0,0,85,1,0.0,2.32,131,18.94,0.88,0.0,25,0.78,11480,2.59,0,0.0,32,0,0,6.54,0,1022,0.77,0.0
2026-03-16 18:00:00.000,71,2.07,0.0,0,4.45,0.0,3,0.0,0,99,1,0.0,2.1,140,18.7,0.79,0.0,29,0.78,10890,0.47,0,0.0,30,0,0,6.79,0,1021,0.8,0.0
2026-03-16 19:00:00.000,70,2.04,0.0,0,4.62,0.0,3,0.0,0,100,1,0.0,1.96,137,18.63,0.74,0.0,30,0.77,10300,0.0,0,0.0,32,0,0,6.93,0,1021,0.84,0.0
2026-03-16 20:00:00.000,70,2.09,0.0,0,4.81,0.0,3,0.0,0,96,0,0.0,1.93,124,18.87,0.74,0.0,28,0.77,9890,-0.37,0,0.0,36,0,0,7.11,0,1021,0.88,0.0
2026-03-16 21:00:00.000,68,2.19,0.0,0,5.23,0.0,3,0.0,0,92,2,0.0,2.15,114,19.51,0.74,0.0,27,0.78,9850,-0.75,0,0.0,39,0,0,7.51,0,1022,0.9,0.0
2026-03-16 22:00:00.000,62,2.05,0.0,23,6.41,12.26,3,0.0,1,95,2,0.02,2.16,112,20.33,0.73,0.0,28,0.81,10240,2.8,0,0.0,36,0,0,8.71,0,1022,0.85,57.98
2026-03-16 23:00:00.000,54,1.83,0.0,41,8.2,111.96,3,0.0,1,98,3,0.06,2.21,103,20.69,0.73,0.0,29,0.85,12630,9.69,0,0.02,31,0,0,10.53,0,1022,0.78,288.71
2026-03-17 00:00:00.000,48,1.72,0.0,40,9.95,273.94,3,0.0,1,100,7,0.14,2.15,85,19.96,0.77,0.0,30,0.92,17630,13.92,0,0.06,29,1,0,12.34,2,1022,0.77,564.17
2026-03-17 01:00:00.000,43,1.56,0.0,39,11.19,441.66,6,0.0,1,98,9,0.24,2.18,36,19.33,0.8,0.0,31,1.04,22230,17.74,0,0.1,31,2,0,13.63,31,1022,0.88,799.87
2026-03-17 02:00:00.000,41,1.45,0.0,14,12.03,589.58,9,0.0,1,95,8,0.32,2.64,3,18.94,0.95,0.0,71,1.19,21830,20.32,0,0.13,36,4,0,14.34,71,1022,1.04,979.75
2026-03-17 03:00:00.000,40,1.62,0.0,0,13.1,700.9,22,0.0,1,84,5,0.38,3.3,356,18.3,1.18,0.0,99,1.34,22830,21.45,0,0.15,39,5,0,14.85,99,1021,1.15,1091.57
2026-03-17 04:00:00.000,40,1.82,0.0,0,13.31,725.15,22,0.0,1,59,6,0.4,4.14,356,17.2,1.55,0.0,100,1.47,20430,21.29,0,0.16,36,6,2,15.16,100,1021,1.15,1127.72
2026-03-17 05:00:00.000,40,2.05,0.0,0,12.94,691.27,22,0.0,1,26,7,0.38,5.23,357,16.13,1.97,0.0,100,1.59,19420,20.18,0,0.16,32,5,4,15.29,100,1020,1.11,1085.76
2026-03-17 06:00:00.000,42,2.32,0.0,0,12.05,602.14,22,0.0,1,3,8,0.34,5.4,359,15.44,2.19,0.0,96,1.66,17430,18.53,0,0.14,31,4,6,15.03,96,1020,1.08,968.56
2026-03-17 07:00:00.000,45,2.68,0.0,4,11.22,456.3,19,0.0,1,0,10,0.25,5.01,0,14.98,2.08,0.0,86,1.66,15230,16.47,0,0.11,34,3,4,14.36,86,1020,1.11,784.13
2026-03-17 08:00:00.000,49,3.04,0.0,12,10.52,283.8,7,0.0,1,5,2,0.16,4.35,6,14.78,1.8,0.0,74,1.61,13630,13.93,0,0.07,41,1,2,13.39,74,1020,1.16,545.06
2026-03-17 09:00:00.000,54,3.39,0.0,18,9.72,108.41,8,0.0,1,10,0,0.07,3.72,18,14.8,1.48,0.0,65,1.53,12030,10.3,0,0.04,46,0,0,12.29,65,1020,1.21,267.67
2026-03-17 10:00:00.000,59,3.68,0.0,9,8.95,9.72,7,0.0,0,7,1,0.03,3.18,34,15.11,1.24,0.0,63,1.36,10640,8.33,0,0.01,45,0,0,11.3,63,1020,1.24,47.3
2026-03-17 11:00:00.000,63,3.93,0.0,0,8.34,0.0,7,0.0,0,2,1,0.01,3.62,80,14.87,1.04,0.0,65,1.16,10690,8.06,0,0.0,43,0,0,10.5,65,1020,1.27,0.0
2026-03-17 12:00:00.000,67,4.06,0.0,0,7.8,0.0,7,0.0,0,8,2,0.0,2.58,128,14.88,0.86,0.0,69,1.0,10700,7.87,0,0.0,42,0,0,9.81,69,1020,1.3,0.0
2026-03-17 13:00:00.000,70,4.1,0.0,0,7.31,0.0,20,0.0,0,36,1,0.0,2.06,141,15.39,0.77,0.0,77,0.93,11290,6.32,0,0.0,42,0,0,9.26,77,1020,1.34,0.0
2026-03-17 14:00:00.000,72,4.17,0.0,0,6.9,0.0,22,0.0,0,75,0,0.0,1.66,147,15.54,0.7,0.01,88,0.92,12280,4.85,0,0.0,42,0,0,8.78,88,1019,1.37,0.0
2026-03-17 15:00:00.000,74,4.23,0.0,0,6.66,0.0,22,0.0,0,99,0,0.0,1.3,152,15.34,0.67,0.01,95,0.92,13290,4.06,0,0.0,41,0,0,8.5,95,1019,1.4,0.0
2026-03-17 16:00:00.000,75,4.31,0.0,0,6.46,0.0,22,0.0,0,97,2,0.0,1.45,155,14.97,0.69,0.04,97,0.96,14890,3.76,1,0.0,36,0,19,8.31,97,1019,1.4,0.0
2026-03-17 17:00:00.000,77,4.45,0.0,0,6.32,0.0,22,0.0,0,80,3,0.0,1.73,156,14.23,0.71,0.07,96,1.03,15900,3.36,8,0.0,29,0,45,8.15,96,1018,1.4,0.0
2026-03-17 18:00:00.000,77,4.65,0.0,0,6.45,0.0,22,0.0,0,61,6,0.0,2.1,157,13.49,0.75,0.11,95,1.06,17090,3.22,8,0.0,25,0,63,8.27,95,1018,1.4,0.0
2026-03-17 19:00:00.000,77,4.85,0.0,0,6.72,0.0,22,0.0,0,42,13,0.0,3.22,153,12.68,0.83,0.15,95,1.03,18490,3.0,10,0.0,25,0,63,8.55,95,1018,1.44,0.0
2026-03-17 20:00:00.000,76,5.08,0.0,0,7.14,0.0,22,0.0,0,20,21,0.0,3.43,148,12.14,0.91,0.2,94,0.97,19690,2.78,13,0.0,28,0,55,8.98,94,1017,1.49,0.0
2026-03-17 21:00:00.000,75,5.39,0.0,0,7.61,0.0,22,0.0,0,5,29,0.0,3.6,145,11.99,0.99,0.23,95,0.94,19240,2.66,16,0.0,29,0,53,9.44,95,1017,1.5,0.0
2026-03-17 22:00:00.000,72,5.62,0.0,0,8.48,4.71,22,0.0,1,0,31,0.03,3.79,143,11.62,1.03,0.23,96,0.98,15630,9.77,18,0.0,24,0,63,10.29,96,1017,1.41,61.33
2026-03-17 23:00:00.000,67,5.85,0.0,0,9.82,40.75,22,0.0,1,0,33,0.04,3.97,140,11.16,1.01,0.22,98,1.04,14830,15.47,27,0.04,17,0,80,11.56,98,1018,1.28,295.27
2026-03-18 00:00:00.000,63,6.16,0.0,0,11.08,79.73,22,0.0,1,0,35,0.07,4.85,147,10.92,1.09,0.2,100,1.14,16230,20.24,29,0.08,13,1,91,12.8,100,1018,1.3,570.47
2026-03-18 01:00:00.000,61,6.47,0.0,0,11.9,100.32,22,0.0,1,0,35,0.09,5.15,53,11.06,1.23,0.18,99,1.27,17430,20.64,29,0.09,11,1,93,13.66,99,1018,1.61,805.84
2026-03-18 02:00:00.000,61,6.81,0.0,0,12.32,154.69,22,0.0,1,0,34,0.12,5.27,14,10.93,1.39,0.15,98,1.43,18630,24.38,29,0.15,12,3,90,14.11,98,1018,2.07,985.34
2026-03-18 03:00:00.000,62,7.27,0.0,0,12.64,188.05,22,0.0,1,0,35,0.14,5.53,2,10.54,1.56,0.14,97,1.58,18230,25.79,22,0.18,13,4,86,14.44,97,1018,2.4,1096.76
2026-03-18 04:00:00.000,62,7.7,0.0,0,13.01,181.81,22,0.0,1,0,29,0.14,5.44,255,10.09,1.73,0.15,97,1.71,16430,20.02,22,0.12,12,4,82,14.81,97,1017,2.47,1132.51
2026-03-18 05:00:00.000,62,8.11,0.0,0,13.42,189.45,22,0.0,1,1,24,0.14,3.89,222,9.72,1.85,0.17,97,1.82,15830,20.64,23,0.09,12,3,76,15.21,97,1017,2.41,1090.19
2026-03-18 06:00:00.000,62,8.45,0.0,0,13.7,191.49,22,0.0,1,9,19,0.14,3.05,216,9.42,1.95,0.19,96,1.92,15430,20.47,23,0.09,13,2,71,15.48,96,1017,2.3,972.68
2026-03-18 07:00:00.000,64,8.75,0.0,0,13.7,142.62,22,0.0,1,29,15,0.12,3.16,211,8.97,1.98,0.23,96,2.01,14830,17.76,23,0.07,15,1,69,15.42,96,1017,2.16,788.03
2026-03-18 08:00:00.000,67,9.04,0.0,0,13.49,96.27,22,0.0,1,56,18,0.09,3.54,206,8.48,1.93,0.27,95,2.09,14430,17.84,22,0.07,18,0,67,15.09,95,1017,1.97,548.83
2026-03-18 09:00:00.000,69,9.29,0.0,2,13.23,40.72,22,0.0,1,77,65,0.06,4.72,191,8.31,1.89,0.32,90,2.11,14230,14.53,16,0.04,21,0,64,14.73,90,1017,1.8,271.42
2026-03-18 10:00:00.000,72,9.52,0.0,6,12.89,4.39,21,0.0,0,89,75,0.04,4.7,170,7.73,1.98,0.37,75,2.02,13430,12.98,23,0.01,21,0,59,14.39,75,1017,1.67,49.19
2026-03-18 11:00:00.000,73,9.59,0.36,0,12.67,0.0,31,0.0,0,95,69,0.01,4.04,160,8.02,2.06,0.42,55,1.88,14280,9.76,30,0.0,21,0,52,14.22,55,1017,1.57,0.0
2026-03-18 12:00:00.000,77,9.54,0.36,0,11.67,0.0,31,0.0,0,100,64,0.01,3.96,153,8.34,2.16,0.47,50,1.79,14700,9.43,25,0.0,21,0,43,13.3,42,1017,1.5,0.0
2026-03-18 13:00:00.000,82,9.38,0.55,0,11.17,0.0,31,0.0,0,100,52,0.0,3.41,165,8.27,1.44,0.51,50,1.79,14080,8.74,25,0.0,19,0,32,12.34,40,1017,1.47,0.0
2026-03-18 14:00:00.000,86,9.12,1.09,0,9.99,0.0,31,0.0,0,100,37,0.0,3.63,174,8.18,1.51,0.55,50,1.84,13680,8.27,25,0.0,17,0,19,11.28,45,1017,1.47,0.0
2026-03-18 15:00:00.000,86,8.77,2.0,0,9.47,0.0,31,0.0,0,100,26,0.0,3.75,168,7.76,1.6,0.61,53,1.92,13690,8.15,29,0.0,16,0,10,10.91,53,1017,1.5,0.0
2026-03-18 16:00:00.000,87,8.53,1.45,0,8.94,0.0,31,0.0,0,99,22,0.0,3.97,161,7.77,1.78,0.7,67,2.04,13290,8.45,32,0.0,14,0,6,10.57,67,1016,1.56,0.0
2026-03-18 17:00:00.000,88,8.37,0.36,0,8.42,0.0,33,0.0,0,98,30,0.0,4.04,168,8.03,1.86,0.81,85,2.18,12490,8.87,35,0.0,12,0,5,10.15,85,1016,1.64,0.0
2026-03-18 18:00:00.000,89,8.27,0.0,0,8.09,0.0,22,0.0,0,97,41,0.0,4.12,169,7.02,1.91,0.89,98,2.33,11490,9.2,47,0.0,12,0,5,9.88,98,1016,1.71,0.0
2026-03-18 19:00:00.000,91,8.23,0.0,0,7.82,0.0,22,0.0,0,98,57,0.0,4.42,176,7.32,1.87,0.89,100,2.49,11690,11.71,49,0.0,11,0,7,9.59,100,1015,1.74,0.0
2026-03-18 20:00:00.000,93,8.27,0.0,0,7.62,0.0,22,0.0,0,99,50,0.0,4.68,181,6.28,1.8,0.87,100,2.65,11890,12.13,50,0.0,11,0,11,9.33,100,1015,1.76,0.0
2026-03-18 21:00:00.000,92,8.33,0.0,0,7.77,0.0,22,0.0,0,96,47,0.0,5.05,178,6.26,1.82,0.86,98,2.78,11430,12.55,52,0.0,12,0,12,9.48,98,1015,1.8,0.0
2026-03-18 22:00:00.000,86,8.35,0.0,0,8.69,9.04,22,0.0,1,87,35,0.02,5.77,178,5.27,1.96,0.9,95,2.83,11830,14.01,53,0.01,13,0,9,10.5,95,1015,1.87,64.67
2026-03-18 23:00:00.000,77,8.26,0.0,1,9.99,68.51,22,0.0,1,73,36,0.05,6.72,184,3.22,2.29,0.95,91,2.85,13420,17.02,53,0.05,14,0,3,12.05,91,1015,1.97,301.82
2026-03-19 00:00:00.000,70,8.1,0.0,3,11.22,136.32,22,0.0,1,58,38,0.1,7.83,194,4.29,2.48,1.01,88,2.91,11630,17.17,53,0.05,16,0,0,13.45,88,1015,2.11,576.74
2026-03-19 01:00:00.000,64,7.86,0.0,3,12.0,234.97,22,0.0,1,38,38,0.15,8.35,197,4.72,2.59,1.08,88,3.08,13630,19.27,57,0.06,16,0,0,14.37,88,1015,2.34,811.76
2026-03-19 02:00:00.000,61,7.62,0.0,3,12.52,333.86,22,0.0,1,15,34,0.21,8.66,202,4.33,2.67,1.14,88,3.31,15830,21.48,57,0.09,16,0,0,15.01,88,1015,2.61,990.87
2026-03-19 03:00:00.000,59,7.41,0.0,3,12.66,456.51,19,0.0,1,0,27,0.27,9.67,208,3.67,2.86,1.18,87,3.48,17630,25.81,47,0.19,17,1,0,15.34,87,1015,2.81,1101.88
2026-03-19 04:00:00.000,58,7.23,0.0,6,12.47,475.7,19,0.0,1,0,18,0.28,10.52,219,3.51,3.04,1.17,83,3.53,16430,22.19,56,0.2,18,1,0,15.32,83,1015,2.9,1137.24
2026-03-19 05:00:00.000,59,7.1,0.0,9,12.16,439.95,19,0.0,1,0,12,0.26,10.57,224,1.8,3.02,1.12,78,3.53,14630,21.19,55,0.16,20,1,0,15.02,78,1014,2.92,1094.55
2026-03-19 06:00:00.000,60,6.94,0.0,10,11.7,367.52,19,0.0,1,0,11,0.22,10.68,229,1.38,2.95,1.09,77,3.49,12630,20.0,55,0.13,23,0,0,14.55,77,1014,2.9,976.75
2026-03-19 07:00:00.000,62,6.77,0.0,7,11.09,253.87,19,0.0,1,0,43,0.16,10.13,238,1.09,2.81,1.1,81,3.39,10620,17.35,64,0.07,26,0,4,13.88,81,1014,2.83,791.88
2026-03-19 08:00:00.000,64,6.53,0.0,3,10.45,148.13,22,0.0,1,0,40,0.11,7.75,275,0.73,2.56,1.11,89,3.25,220,15.28,65,0.06,29,0,11,13.13,89,1014,2.72,552.57
2026-03-19 09:00:00.000,66,6.33,0.0,0,9.76,52.53,22,0.0,1,0,17,0.06,7.25,280,1.81,2.39,1.11,95,3.09,230,11.73,54,0.0,31,0,15,12.36,95,1014,2.61,275.14
2026-03-19 10:00:00.000,69,6.22,0.0,0,9.41,6.32,22,0.0,0,9,7,0.04,5.91,264,4.67,1.93,1.06,97,2.9,8040,11.55,52,0.03,29,0,14,11.71,97,1015,2.5,51.08
2026-03-19 11:00:00.000,71,6.24,0.0,0,9.06,0.0,22,0.0,0,23,6,0.01,5.42,260,7.31,1.58,0.99,97,2.69,9680,11.63,41,0.04,26,0,10,11.11,97,1015,2.4,0.0
2026-03-19 12:00:00.000,75,6.23,0.0,0,8.53,0.0,22,0.0,0,39,11,0.0,3.95,255,8.3,1.28,0.93,97,2.51,9880,11.75,38,0.04,25,0,7,10.37,97,1015,2.3,0.0
2026-03-19 13:00:00.000,78,6.21,0.33,0,7.97,0.0,33,0.0,0,60,19,0.0,3.18,271,8.16,1.09,0.87,99,2.34,9280,11.92,25,0.02,28,0,3,9.69,99,1015,2.22,0.0
2026-03-19 14:00:00.000,81,6.12,0.78,0,7.45,0.0,33,0.0,0,83,29,0.0,3.98,320,8.97,1.0,0.83,100,2.19,8880,11.61,25,0.01,34,0,0,9.13,100,1016,2.16,0.0
2026-03-19 15:00:00.000,81,5.92,1.05,0,7.11,0.0,33,0.0,0,100,34,0.0,4.05,355,10.72,1.1,0.77,100,2.08,2480,11.19,31,0.02,39,0,0,8.9,100,1016,2.11,0.0
2026-03-19 16:00:00.000,80,5.6,0.99,0,6.89,0.0,33,0.0,0,100,35,0.0,4.88,332,12.38,1.19,0.69,97,2.07,10870,10.46,25,0.04,39,0,15,8.81,97,1016,2.06,0.0
2026-03-19 17:00:00.000,78,5.23,0.76,0,6.7,0.0,33,0.0,0,100,29,0.0,4.34,324,13.69,1.26,0.61,93,2.11,12270,10.12,25,0.04,39,0,36,8.75,93,1016,2.01,0.0
2026-03-19 18:00:00.000,77,4.97,0.53,0,6.22,0.0,33,0.0,0,100,15,0.01,5.55,341,15.57,1.77,0.53,89,2.13,14670,9.16,25,0.06,39,0,48,8.68,89,1016,2.0,0.0
2026-03-19 19:00:00.000,76,4.76,0.33,0,6.12,0.0,33,0.0,0,70,8,0.01,5.27,337,18.1,1.74,0.46,88,2.02,16470,7.53,25,0.09,40,0,39,8.61,88,1016,2.07,0.0
2026-03-19 20:00:00.000,75,4.53,0.14,0,6.1,0.0,33,0.0,0,29,8,0.01,5.27,350,18.06,1.7,0.41,86,1.86,14680,8.03,25,0.06,43,0,21,8.6,86,1016,2.17,0.0
2026-03-19 21:00:00.000,72,4.18,0.0,0,6.18,0.0,19,0.0,1,0,48,0.01,6.61,3,16.1,1.9,0.35,78,1.77,11030,8.39,10,0.05,45,0,8,8.9,78,1016,2.21,0.0
2026-03-19 22:00:00.000,66,3.79,0.0,14,6.52,16.06,7,0.0,1,0,23,0.04,8.19,12,18.33,2.47,0.28,56,1.8,11830,7.99,10,0.05,43,0,6,9.71,56,1017,2.09,68.0
2026-03-19 23:00:00.000,58,3.13,0.0,41,7.51,130.21,4,0.0,1,0,21,0.09,8.18,1,19.94,2.65,0.21,28,1.9,16230,8.78,10,0.11,41,0,9,10.96,28,1017,1.9,308.34
2026-03-20 00:00:00.000,50,2.41,0.0,52,8.77,308.27,4,0.0,1,0,28,0.17,7.49,351,19.98,2.68,0.15,12,1.98,16030,10.05,9,0.13,39,0,12,12.37,7,1018,1.8,582.97
2026-03-20 01:00:00.000,47,1.92,0.0,60,9.83,513.83,1,0.0,1,0,1,0.26,4.51,350,13.44,1.75,0.11,0,2.07,24100,13.74,18,0.01,38,1,0,12.87,0,1019,1.89,817.63
2026-03-20 02:00:00.000,43,1.2,0.0,60,10.69,669.32,1,0.0,1,0,1,0.35,4.49,345,13.81,2.19,0.08,0,2.14,24100,14.67,16,0.02,38,2,0,13.47,0,1019,2.07,996.34
2026-03-20 03:00:00.000,40,0.67,0.0,60,11.22,783.21,1,0.0,1,0,1,0.4,4.5,337,14.2,2.5,0.06,0,2.14,24100,15.27,13,0.03,37,3,0,13.68,0,1019,2.21,1106.94
2026-03-20 04:00:00.000,40,0.52,0.0,60,11.34,842.91,1,0.0,1,0,1,0.43,4.64,332,14.43,2.68,0.06,0,2.01,24100,15.83,11,0.04,32,3,0,13.64,0,1019,2.25,1141.9
2026-03-20 05:00:00.000,41,0.51,0.0,60,11.01,830.77,1,0.0,1,0,1,0.42,4.82,329,14.67,2.8,0.07,0,1.81,24100,16.34,8,0.05,27,4,0,13.48,0,1018,2.25,1098.86
2026-03-20 06:00:00.000,41,0.43,0.0,60,10.17,733.13,1,0.0,1,0,1,0.37,4.9,328,15.3,2.79,0.07,0,1.63,24100,16.31,6,0.05,25,3,0,13.18,0,1018,2.21,980.77
2026-03-20 07:00:00.000,42,0.16,0.0,60,8.71,557.12,1,0.0,1,0,0,0.28,4.8,330,16.67,2.58,0.06,0,1.48,24100,15.25,5,0.05,27,2,0,12.58,0,1018,2.13,795.7
2026-03-20 08:00:00.000,44,-0.11,0.0,60,8.05,344.09,1,0.0,1,0,0,0.18,4.59,334,18.43,2.18,0.05,0,1.34,24100,13.54,5,0.05,31,1,0,11.72,0,1018,2.02,556.28
2026-03-20 09:00:00.000,46,-0.17,0.0,60,7.53,130.27,1,0.0,1,0,0,0.08,4.4,340,19.9,1.74,0.04,0,1.27,24100,12.01,4,0.05,35,0,0,10.9,0,1018,1.9,278.86
2026-03-20 10:00:00.000,49,0.08,0.0,31,7.23,9.91,1,0.0,0,0,0,0.04,4.27,345,20.85,1.3,0.04,0,1.3,24100,11.01,3,0.04,34,0,0,10.26,0,1019,1.76,52.96
2026-03-20 11:00:00.000,52,0.47,0.0,0,6.95,-0.2,1,0.0,0,0,0,0.01,4.14,351,21.51,0.9,0.05,0,1.39,24100,10.16,2,0.03,32,0,0,9.63,0,1020,1.61,0.0
2026-03-20 12:00:00.000,56,0.77,0.0,0,6.53,0.0,1,0.0,0,0,0,0.0,4.0,356,21.9,0.65,0.05,0,1.49,24100,9.37,1,0.02,31,0,0,8.99,0,1020,1.5,0.0
2026-03-20 13:00:00.000,59,0.89,0.0,0,5.91,0.0,1,0.0,0,0,0,0.0,3.81,0,21.96,0.51,0.04,0,1.55,24100,8.54,1,0.02,30,0,0,8.25,0,1021,1.46,0.0
2026-03-20 14:00:00.000,62,0.87,0.0,0,5.3,0.0,1,0.0,0,0,0,0.0,3.59,12,21.75,0.44,0.02,0,1.62,24100,7.85,0,0.02,31,0,0,7.59,0,1020,1.47,0.0
2026-03-20 15:00:00.000,63,0.75,0.0,0,4.86,0.0,4,0.0,0,0,0,0.0,3.4,37,21.5,0.35,0.0,10,1.7,24100,7.37,0,0.02,32,0,10,7.11,0,1020,1.48,0.0
2026-03-20 16:00:00.000,64,0.59,0.0,0,4.58,0.0,5,0.0,0,11,0,0.0,3.24,76,21.27,0.31,0.0,10,1.8,24100,7.11,0,0.02,32,0,10,6.83,0,1020,1.49,0.0
2026-03-20 17:00:00.000,64,0.45,0.0,0,4.41,0.0,5,0.0,0,23,0,0.0,3.11,107,21.0,0.36,0.0,10,1.91,24100,7.03,0,0.02,33,0,10,6.72,0,1020,1.5,0.0
2026-03-20 18:00:00.000,63,0.36,0.0,0,4.45,0.0,2,0.0,0,37,1,0.0,3.0,123,20.7,0.42,0.0,11,1.98,24100,7.21,0,0.02,34,0,0,6.81,0,1020,1.5,0.0
2026-03-20 19:00:00.000,61,0.35,0.0,0,4.75,0.0,3,0.0,0,58,1,0.0,2.9,131,20.37,0.45,0.0,17,1.98,24100,7.69,0,0.02,34,0,0,7.14,0,1020,1.49,0.0
2026-03-20 20:00:00.000,60,0.38,0.0,0,5.23,0.0,3,0.0,0,82,1,0.0,2.83,137,20.03,0.49,0.01,24,1.94,24100,8.38,1,0.01,34,0,0,7.64,0,1021,1.47,0.0
2026-03-20 21:00:00.000,57,0.35,0.0,0,5.9,0.0,3,0.0,1,100,1,0.0,2.8,138,19.7,0.52,0.02,30,1.92,24100,9.29,1,0.01,35,0,0,8.34,0,1021,1.46,0.0
2026-03-20 22:00:00.000,52,0.18,0.0,26,6.82,20.28,3,0.0,1,100,1,0.01,2.83,140,19.41,0.54,0.04,30,1.94,24100,10.47,2,0.01,35,0,0,9.3,0,1021,1.45,71.33
2026-03-20 23:00:00.000,47,-0.25,0.0,40,8.03,137.54,3,0.0,1,100,1,0.06,2.91,145,19.15,0.51,0.06,30,1.98,24100,11.97,3,0.01,35,0,0,10.55,0,1021,1.46,314.84
2026-03-21 00:00:00.000,43,-0.13,0.0,40,9.33,297.9,3,0.0,1,100,1,0.14,3.0,156,18.9,0.34,0.08,30,2.0,24100,13.4,4,0.01,36,1,0,11.71,0,1022,1.5,589.16
2026-03-21 01:00:00.000,42,-0.32,0.0,40,9.86,449.55,6,0.0,1,100,1,0.23,3.09,348,18.64,0.14,0.11,30,2.0,24100,14.17,4,0.02,35,2,0,12.13,13,1021,1.61,823.45
2026-03-21 02:00:00.000,40,-0.47,0.0,37,9.86,558.8,6,0.0,1,86,1,0.29,3.19,326,18.4,0.69,0.15,35,1.98,24100,14.91,3,0.02,35,3,0,12.49,35,1021,1.76,1001.76
2026-03-21 03:00:00.000,39,-0.56,0.0,24,9.76,567.75,9,0.0,1,52,1,0.31,3.3,313,18.2,1.17,0.18,55,1.97,24100,15.43,3,0.03,35,5,0,12.68,55,1021,1.9,1111.94
2026-03-21 04:00:00.000,38,-0.73,0.0,12,9.75,524.64,8,0.0,1,18,1,0.29,3.44,306,18.06,1.48,0.22,74,1.98,24100,16.06,3,0.03,34,6,0,13.02,74,1020,2.03,1146.5
2026-03-21 05:00:00.000,36,-1.04,0.0,0,9.99,440.62,22,0.0,1,0,1,0.26,3.6,300,17.96,1.71,0.26,93,1.99,24100,16.74,3,0.04,34,6,0,13.46,93,1020,2.15,1103.1
2026-03-21 06:00:00.000,35,-1.25,0.0,0,10.12,358.32,22,0.0,1,0,1,0.23,3.7,299,17.9,1.78,0.27,100,1.97,24100,17.0,3,0.04,35,4,0,13.68,100,1020,2.21,984.73
2026-03-21 07:00:00.000,36,-1.21,0.0,0,9.97,282.53,22,0.0,1,0,0,0.18,3.71,301,17.89,1.67,0.23,93,1.89,24100,16.5,2,0.04,35,3,0,13.44,93,1020,2.18,799.46
2026-03-21 08:00:00.000,38,-0.95,0.0,12,9.63,200.26,7,0.0,1,0,0,0.13,3.67,304,17.91,1.38,0.16,74,1.79,24100,15.47,1,0.03,36,1,0,12.87,74,1020,2.08,559.95
2026-03-21 09:00:00.000,41,-0.6,0.0,24,9.23,87.99,7,0.0,1,0,0,0.07,3.6,308,18.0,1.02,0.1,55,1.7,24100,14.28,1,0.03,38,0,0,12.16,55,1021,1.97,282.55
2026-03-21 10:00:00.000,44,-0.19,0.0,20,8.76,11.05,4,0.0,0,0,0,0.02,3.53,315,18.16,0.63,0.05,35,1.67,24100,12.98,0,0.02,39,0,0,11.36,35,1021,1.85,54.84
2026-03-21 11:00:00.000,49,0.2,0.0,0,8.11,-0.2,4,0.0,0,0,0,0.0,3.44,334,18.37,0.28,0.01,13,1.66,24100,11.51,0,0.02,40,0,0,10.4,13,1022,1.71,0.0
2026-03-21 12:00:00.000,53,0.48,0.0,0,7.33,0.0,1,0.0,0,0,0,0.0,3.3,21,18.6,0.16,0.0,0,1.64,24100,10.2,0,0.01,42,0,0,9.49,0,1022,1.61,0.0
2026-03-21 13:00:00.000,57,0.65,0.0,0,6.51,0.0,1,0.0,0,0,0,0.0,3.09,58,18.82,0.16,0.05,0,1.56,24100,9.15,0,0.01,42,0,0,8.64,0,1022,1.56,0.0
2026-03-21 14:00:00.000,60,0.69,0.0,0,5.76,0.0,3,0.0,0,53,0,0.0,2.83,84,19.05,0.21,0.13,16,1.45,24100,8.37,0,0.01,41,0,0,7.93,0,1021,1.53,0.0
2026-03-21 15:00:00.000,61,0.63,0.0,0,5.18,0.0,3,0.0,0,100,0,0.0,2.6,111,19.3,0.34,0.22,30,1.36,24100,7.85,1,0.01,41,0,0,7.44,0,1021,1.52,0.0
2026-03-21 16:00:00.000,62,0.53,0.0,0,4.81,0.0,3,0.0,0,100,0,0.0,2.42,130,19.59,0.5,0.32,30,1.31,24100,7.62,1,0.0,40,0,0,7.2,0,1021,1.51,0.0
2026-03-21 17:00:00.000,62,0.45,0.0,0,4.66,0.0,3,0.0,0,100,1,0.0,2.28,143,19.9,0.63,0.43,30,1.27,24100,7.65,2,0.0,40,0,0,7.16,0,1021,1.51,0.0
2026-03-21 18:00:00.000,61,0.39,0.0,0,4.74,0.0,3,0.0,0,100,2,0.0,2.2,150,20.2,0.72,0.49,30,1.28,24100,7.92,3,0.0,40,0,0,7.31,0,1021,1.5,0.0
2026-03-21 19:00:00.000,59,0.33,0.0,0,5.07,0.0,3,0.0,0,100,2,0.0,2.21,153,20.49,0.75,0.49,30,1.34,24100,8.45,3,0.0,39,0,0,7.68,0,1021,1.47,0.0
2026-03-21 20:00:00.000,57,0.28,0.0,0,5.57,0.0,3,0.0,0,100,2,0.0,2.28,155,20.77,0.78,0.45,30,1.44,24100,9.17,4,0.0,39,0,0,8.2,0,1021,1.44,0.0
2026-03-21 21:00:00.000,54,0.16,0.0,0,6.29,0.0,3,0.0,1,100,2,0.0,2.4,153,21.0,0.78,0.41,30,1.56,24100,10.13,4,0.0,40,0,0,8.93,0,1021,1.42,0.0
2026-03-21 22:00:00.000,49,-0.06,0.0,31,7.27,22.61,3,0.0,1,68,2,0.02,2.58,152,21.21,0.74,0.39,20,1.72,24100,11.37,5,0.0,40,0,0,9.93,0,1022,1.41,74.65
2026-03-21 23:00:00.000,44,-0.56,0.0,56,8.55,162.61,2,0.0,1,17,2,0.07,2.8,155,21.37,0.66,0.37,5,1.91,24100,12.93,6,0.0,40,0,0,11.22,0,1022,1.42,321.32
2026-03-22 00:00:00.000,40,-0.46,0.0,60,9.91,360.85,1,0.0,1,0,3,0.17,3.0,161,21.3,0.44,0.38,0,2.05,24100,14.41,6,0.01,40,1,0,12.41,0,1022,1.5,595.32
2026-03-22 01:00:00.000,39,-0.68,0.0,53,10.53,514.55,4,0.0,1,0,2,0.26,3.15,8,20.87,0.14,0.44,10,2.12,24100,15.21,6,0.01,39,2,0,12.86,10,1022,1.69,829.23
2026-03-22 02:00:00.000,37,-0.87,0.0,52,11.15,654.47,4,0.0,1,0,1,0.34,3.28,338,20.23,0.73,0.54,11,2.15,24100,15.97,6,0.01,38,3,0,13.24,11,1021,1.94,1007.12
2026-03-22 03:00:00.000,36,-0.94,0.0,52,11.61,752.86,4,0.0,1,0,1,0.4,3.4,327,19.6,1.2,0.63,11,2.19,24100,16.49,6,0.01,38,5,0,13.45,11,1021,2.18,1116.86
2026-03-22 04:00:00.000,35,-1.02,0.0,52,12.03,799.27,4,0.0,1,0,0,0.42,3.51,322,19.0,1.46,0.74,11,2.28,24100,17.12,6,0.01,37,6,0,13.81,11,1020,2.4,1151.01
2026-03-22 05:00:00.000,34,-1.21,0.0,60,12.45,819.57,1,0.0,1,0,0,0.43,3.62,319,18.43,1.62,0.84,0,2.38,24100,17.8,7,0.02,37,5,0,14.26,0,1020,2.61,1107.26
2026-03-22 06:00:00.000,33,-1.33,0.0,60,11.97,712.23,1,0.0,1,0,0,0.38,3.7,321,18.1,1.65,0.9,0,2.41,24100,18.03,7,0.02,38,4,0,14.48,0,1020,2.71,988.59
2026-03-22 07:00:00.000,34,-1.28,0.0,60,10.82,539.99,1,0.0,1,0,0,0.29,3.76,324,18.15,1.55,0.89,0,2.33,24100,17.48,8,0.02,38,3,0,14.22,0,1020,2.64,803.13
2026-03-22 08:00:00.000,36,-1.02,0.0,60,10.43,333.74,1,0.0,1,0,0,0.18,3.79,330,18.45,1.29,0.85,0,2.18,24100,16.38,9,0.02,38,1,0,13.62,0,1020,2.45,563.53
2026-03-22 09:00:00.000,39,-0.63,0.0,60,9.97,128.53,1,0.0,1,0,0,0.07,3.8,342,18.8,0.98,0.79,0,2.05,24100,15.12,10,0.02,39,0,0,12.88,0,1021,2.25,286.16
2026-03-22 10:00:00.000,43,-0.12,0.0,33,9.39,14.43,1,0.0,0,0,0,0.02,3.8,4,19.21,0.72,0.74,0,1.96,24100,13.74,11,0.01,39,0,0,12.04,0,1021,2.03,56.67
2026-03-22 11:00:00.000,47,0.39,0.0,0,8.53,-0.2,1,0.0,0,0,0,0.0,3.79,38,19.69,0.63,0.69,0,1.88,24100,12.17,12,0.01,40,0,0,11.03,0,1021,1.79,0.0
2026-03-22 12:00:00.000,52,0.76,0.0,0,7.61,0.0,1,0.0,0,0,0,0.0,3.7,58,20.0,0.66,0.65,0,1.8,24100,10.79,13,0.01,41,0,0,10.08,0,1022,1.61,0.0
2026-03-22 13:00:00.000,56,1.01,0.0,0,6.78,0.0,1,0.0,0,0,0,0.0,3.5,69,20.04,0.64,0.65,0,1.71,24100,9.71,14,0.01,40,0,0,9.2,0,1021,1.53,0.0
2026-03-22 14:00:00.000,59,1.11,0.0,0,6.06,0.0,2,0.0,0,31,0,0.0,3.24,81,19.93,0.64,0.66,9,1.63,24100,8.92,15,0.01,40,0,0,8.46,0,1021,1.51,0.0
2026-03-22 15:00:00.000,61,1.1,0.0,0,5.48,0.0,3,0.0,0,74,0,0.0,3.0,99,19.8,0.72,0.67,22,1.56,24100,8.38,16,0.01,40,0,0,7.94,0,1021,1.5,0.0
2026-03-22 16:00:00.000,62,1.05,0.0,0,5.08,0.0,3,0.0,0,100,0,0.0,2.8,116,19.69,0.89,0.69,30,1.54,24100,8.11,18,0.01,39,0,0,7.67,0,1021,1.5,0.0
2026-03-22 17:00:00.000,62,1.01,0.0,0,4.88,0.0,3,0.0,0,100,0,0.01,2.62,127,19.57,1.07,0.71,30,1.54,24100,8.08,19,0.01,39,0,0,7.6,0,1020,1.51,0.0
2026-03-22 18:00:00.000,62,0.99,0.0,0,4.91,0.0,3,0.0,0,100,1,0.01,2.5,134,19.5,1.18,0.73,30,1.56,24100,8.22,21,0.0,39,0,0,7.71,0,1020,1.5,0.0
2026-03-22 19:00:00.000,60,0.97,0.0,0,5.21,0.0,3,0.0,0,100,1,0.01,2.45,137,19.53,1.2,0.73,30,1.57,24100,8.53,22,0.0,38,0,0,8.03,0,1020,1.45,0.0
2026-03-22 20:00:00.000,58,0.95,0.0,0,5.69,0.0,6,0.0,0,100,1,0.01,2.45,140,19.61,1.18,0.72,30,1.58,24100,8.98,23,0.0,38,0,0,8.49,18,1020,1.39,0.0
2026-03-22 21:00:00.000,56,0.89,0.0,0,6.37,0.0,9,0.0,1,100,2,0.01,2.5,140,19.7,1.16,0.72,56,1.63,24100,9.65,25,0.0,38,0,0,9.17,56,1021,1.35,0.0
2026-03-22 22:00:00.000,52,0.73,0.0,0,7.3,13.34,22,0.0,1,100,2,0.04,2.61,139,19.79,1.15,0.73,95,1.72,24098,10.59,27,0.01,37,0,0,10.12,95,1021,1.32,77.98
2026-03-22 23:00:00.000,46,0.35,0.0,0,8.51,75.76,22,0.0,1,100,2,0.07,2.77,139,19.89,1.1,0.74,100,1.85,24096,11.83,28,0.01,37,0,0,11.36,100,1021,1.32,327.79
2026-03-23 00:00:00.000,43,0.6,0.0,0,9.81,143.74,22,0.0,1,100,3,0.1,2.9,138,19.9,0.96,0.77,100,1.98,24100,13.0,30,0.01,38,1,0,12.51,100,1021,1.4,601.46
2026-03-23 01:00:00.000,42,0.6,0.0,0,10.42,214.92,22,0.0,1,100,2,0.14,2.98,113,19.8,0.7,0.81,100,2.1,24116,13.47,31,0.01,37,2,0,12.94,100,1021,1.62,834.97
2026-03-23 02:00:00.000,42,0.7,0.0,0,10.93,279.51,22,0.0,1,65,2,0.17,3.03,76,19.63,0.51,0.85,100,2.22,24138,13.89,32,0.01,37,3,0,13.31,100,1020,1.93,1012.41
2026-03-23 03:00:00.000,41,0.85,0.0,0,11.24,330.76,22,0.0,1,13,2,0.2,3.1,39,19.4,0.4,0.9,100,2.33,24150,14.14,33,0.01,38,5,0,13.51,100,1020,2.22,1121.72
2026-03-23 04:00:00.000,41,0.96,0.0,0,11.65,360.0,22,0.0,1,0,1,0.21,3.19,17,19.15,0.35,0.95,100,2.46,24110,14.54,35,0.01,38,6,0,13.87,100,1019,2.5,1155.46
2026-03-23 05:00:00.000,40,0.96,0.0,0,12.15,356.57,22,0.0,1,0,1,0.21,3.3,3,18.85,0.29,0.99,100,2.58,24058,15.03,36,0.01,38,6,0,14.33,100,1019,2.76,1111.34
2026-03-23 06:00:00.000,39,1.0,0.0,0,12.4,308.04,22,0.0,1,0,1,0.18,3.4,11,18.4,0.29,1.0,100,2.62,24100,15.26,37,0.01,39,4,0,14.57,100,1019,2.9,992.39
2026-03-23 07:00:00.000,40,1.18,0.0,0,12.17,225.25,22,0.0,1,0,0,0.14,3.51,32,17.73,0.35,0.96,100,2.5,24389,14.96,37,0.01,38,3,0,14.36,100,1019,2.84,806.74
2026-03-23 08:00:00.000,43,1.49,0.0,0,11.58,131.94,22,0.0,1,0,0,0.09,3.61,59,16.91,0.48,0.9,100,2.3,24771,14.29,37,0.0,37,1,0,13.8,100,1019,2.65,567.07
2026-03-23 09:00:00.000,46,1.85,0.0,0,10.79,48.6,22,0.0,1,0,0,0.05,3.7,78,16.1,0.72,0.83,100,2.12,24880,13.48,38,0.0,37,0,0,13.12,100,1019,2.44,289.74
2026-03-23 10:00:00.000,50,2.24,0.0,0,9.83,5.26,22,0.0,0,45,0,0.04,3.78,91,15.3,1.07,0.78,100,1.99,24826,12.56,38,0.0,36,0,10,12.33,100,1020,2.22,58.5
2026-03-23 11:00:00.000,54,2.59,0.0,0,8.71,-0.2,22,0.0,0,96,0,0.02,3.83,97,14.52,1.42,0.73,100,1.88,24499,11.49,38,0.0,35,0,10,11.39,100,1020,1.97,0.0
2026-03-23 12:00:00.000,59,2.9,0.0,0,7.75,0.0,22,0.0,0,100,1,0.02,3.8,99,13.9,1.58,0.7,100,1.77,23200,10.5,39,0.0,36,0,10,10.49,100,1020,1.8,0.0
2026-03-23 13:00:00.000,64,3.18,0.0,0,6.98,0.0,22,0.0,0,100,1,0.01,3.62,100,13.56,1.55,0.7,100,1.66,20332,9.66,40,0.0,36,0,10,9.65,100,1020,1.74,0.0
2026-03-23 14:00:00.000,68,3.38,0.0,0,6.37,0.0,9,0.0,0,100,1,0.01,3.35,102,13.38,1.48,0.73,54,1.56,16492,9.0,42,0.0,38,0,11,8.95,54,1020,1.75,0.0
2026-03-23 15:00:00.000,70,3.49,0.0,0,5.89,0.0,6,0.0,0,100,2,0.01,3.1,106,13.2,1.47,0.77,30,1.49,12770,8.55,44,0.0,40,0,11,8.45,11,1019,1.77,0.0
2026-03-23 16:00:00.000,72,3.55,0.0,0,5.62,0.0,6,0.0,0,100,2,0.01,2.89,113,13.05,1.5,0.83,30,1.46,9152,8.34,46,0.0,41,0,10,8.19,0,1019,1.81,0.0
2026-03-23 17:00:00.000,73,3.64,0.0,0,5.57,0.0,3,0.0,0,100,3,0.01,2.69,119,12.9,1.51,0.89,30,1.47,5652,8.32,48,0.0,43,0,0,8.12,0,1019,1.86,0.0
2026-03-23 18:00:00.000,73,3.75,0.0,0,5.69,0.0,3,0.0,0,100,4,0.01,2.6,123,12.5,1.5,0.97,30,1.5,3400,8.41,50,0.0,44,0,0,8.21,0,1018,1.9,0.0
2026-03-23 19:00:00.000,72,3.87,0.0,0,5.99,0.0,3,0.0,0,100,4,0.01,2.66,123,11.67,1.5,1.05,30,1.55,3044,8.59,52,0.0,43,0,0,8.49,0,1018,1.91,0.0
2026-03-23 20:00:00.000,71,4.01,0.0,0,6.41,0.0,3,0.0,0,100,4,0.01,2.81,122,10.6,1.52,1.15,30,1.62,3936,8.85,54,0.0,42,0,0,8.89,0,1018,1.91,0.0
2026-03-23 21:00:00.000,69,4.12,0.0,0,7.01,0.0,9,0.0,1,100,4,0.01,3.0,120,9.6,1.56,1.23,56,1.72,5250,9.32,55,0.0,42,0,0,9.5,56,1019,1.93,0.0
2026-03-23 22:00:00.000,65,4.18,3.67,0,7.87,11.43,23,0.0,1,100,4,0.04,3.23,118,8.68,1.6,1.31,100,1.86,6853,10.07,57,0.0,41,0,0,10.37,100,1019,1.95,81.29
2026-03-23 23:00:00.000,60,4.12,3.89,0,9.02,64.78,23,0.0,1,100,4,0.06,3.49,117,7.83,1.58,1.38,100,2.04,8879,11.12,58,0.0,41,0,0,11.52,100,1019,1.99,334.24
2026-03-24 00:00:00.000,57,4.54,3.98,0,10.24,119.12,23,0.0,1,100,5,0.09,3.7,114,7.3,1.47,1.41,100,2.2,10900,12.18,59,0.0,41,1,0,12.58,100,1019,2.08,607.55
2026-03-24 01:00:00.000,57,4.61,3.84,0,10.68,175.63,23,0.0,1,100,4,0.12,3.83,97,7.24,1.3,1.38,100,2.35,12792,12.67,60,0.0,41,2,0,12.89,100,1019,2.27,840.65
2026-03-24 02:00:00.000,56,4.73,3.56,0,11.09,227.68,23,0.0,1,88,4,0.15,3.92,78,7.51,1.09,1.32,100,2.49,14679,13.21,59,0.0,42,3,0,13.12,100,1018,2.52,1017.66
2026-03-24 03:00:00.000,56,4.88,3.27,0,11.37,277.11,23,0.0,1,46,4,0.17,4.0,61,7.9,0.86,1.24,97,2.62,16500,13.59,59,0.0,43,5,0,13.21,97,1018,2.75,1126.52
2026-03-24 04:00:00.000,56,5.06,2.99,24,11.75,412.72,31,0.0,1,0,3,0.24,4.08,55,8.4,0.73,1.16,56,2.8,18323,14.13,59,0.0,43,6,0,13.47,56,1017,2.96,1159.83
2026-03-24 05:00:00.000,55,5.2,2.71,52,12.24,519.71,31,0.0,1,0,3,0.29,4.14,57,9.03,0.62,1.07,11,2.97,20080,14.8,59,0.0,44,5,0,13.85,11,1017,3.15,1115.35
2026-03-24 06:00:00.000,55,5.33,2.47,60,12.48,475.39,31,0.0,1,0,3,0.26,4.2,62,9.6,0.63,0.98,0,3.05,21500,15.18,58,0.0,45,4,0,14.07,0,1017,3.21,996.13
2026-03-24 07:00:00.000,56,5.43,2.29,48,12.33,323.26,31,0.0,1,0,2,0.18,4.24,69,10.04,0.69,0.89,18,2.97,22427,15.01,57,0.0,44,3,18,13.93,0,1017,3.06,810.31
2026-03-24 08:00:00.000,58,5.55,2.15,17,11.87,140.84,31,0.0,1,0,2,0.09,4.27,82,10.43,0.8,0.8,66,2.81,23017,14.44,55,0.0,43,1,66,13.53,0,1017,2.79,570.58
2026-03-24 09:00:00.000,61,5.72,0.0,0,11.23,37.83,22,0.0,1,0,3,0.05,4.3,93,10.8,1.01,0.71,100,2.64,23460,13.73,54,0.01,43,0,100,13.0,0,1017,2.5,293.3
2026-03-24 10:00:00.000,64,5.96,0.0,0,10.47,4.11,22,0.0,0,0,3,0.04,4.35,101,11.2,1.29,0.64,100,2.48,23788,12.92,52,0.01,42,0,100,12.38,0,1017,2.2,60.32
2026-03-24 11:00:00.000,69,6.18,0.0,0,9.57,-0.2,22,0.0,0,0,3,0.01,4.4,107,11.6,1.56,0.57,100,2.32,23971,11.95,51,0.01,41,0,100,11.63,0,1018,1.9,0.0
2026-03-24 12:00:00.000,73,6.3,0.0,0,8.8,0.0,22,0.0,0,0,4,0.01,4.4,109,11.9,1.65,0.52,100,2.2,24100,11.04,48,0.01,41,0,100,10.89,0,1018,1.71,0.0
2026-03-24 13:00:00.000,76,6.31,0.0,0,8.13,0.0,22,0.0,0,0,4,0.0,4.33,111,12.07,1.58,0.49,100,2.12,24200,10.23,45,0.01,40,0,100,10.17,0,1017,1.71,0.0
2026-03-24 14:00:00.000,79,6.21,0.0,0,7.57,0.0,22,0.0,0,0,4,0.0,4.21,114,12.14,1.5,0.47,100,2.08,24248,9.59,42,0.01,40,0,100,9.57,0,1017,1.82,0.0
2026-03-24 15:00:00.000,80,6.07,0.0,0,7.14,0.0,22,0.0,0,35,5,0.0,4.1,118,12.2,1.5,0.46,100,2.06,24260,9.17,39,0.01,41,0,100,9.17,0,1017,1.95,0.0
2026-03-24 16:00:00.000,81,5.93,0.0,0,6.89,0.0,9,0.0,0,68,5,0.0,3.99,125,12.26,1.58,0.46,67,2.07,24224,9.01,36,0.0,41,0,67,9.01,0,1017,2.08,0.0
2026-03-24 17:00:00.000,80,5.84,0.0,0,6.84,0.0,6,0.0,0,100,7,0.0,3.89,132,12.29,1.65,0.47,30,2.1,24153,9.06,33,0.0,41,0,17,9.03,0,1016,2.23,0.0
2026-03-24 18:00:00.000,79,5.84,0.0,0,7.0,0.0,3,0.0,0,100,8,0.0,3.8,136,12.3,1.68,0.47,30,2.12,24100,9.32,31,0.0,42,0,0,9.21,0,1016,2.3,0.0
2026-03-24 19:00:00.000,78,5.95,0.0,0,7.39,0.0,3,0.0,0,100,8,0.0,3.74,139,12.29,1.67,0.47,30,2.11,24088,9.82,30,0.0,41,0,0,9.57,0,1016,2.25,0.0
2026-03-24 20:00:00.000,76,6.14,0.0,0,7.93,0.0,6,0.0,0,100,8,0.01,3.71,140,12.26,1.66,0.47,30,2.1,24094,10.48,29,0.0,40,0,0,10.06,10,1016,2.12,0.0
2026-03-24 21:00:00.000,74,6.33,0.0,0,8.66,0.0,6,0.0,1,100,9,0.01,3.7,141,12.2,1.66,0.47,30,2.12,24100,11.37,28,0.0,39,0,0,10.75,11,1016,2.0,0.0
2026-03-24 22:00:00.000,70,6.48,0.0,30,9.64,17.87,6,0.0,1,100,9,0.03,3.71,142,12.14,1.68,0.48,30,2.17,24100,12.53,28,0.0,38,0,0,11.71,11,1017,1.88,84.59
2026-03-24 23:00:00.000,64,6.52,0.0,40,10.91,109.55,6,0.0,1,100,10,0.07,3.74,144,12.06,1.68,0.49,30,2.26,24100,13.99,28,0.0,37,0,0,12.97,10,1017,1.76,340.66
2026-03-25 00:00:00.000,61,6.99,0.0,40,12.3,223.72,6,0.0,1,100,11,0.14,3.8,147,11.9,1.56,0.49,30,2.38,24100,15.37,27,0.01,37,1,0,14.16,10,1017,1.72,613.61
2026-03-25 01:00:00.000,59,6.99,0.0,40,13.08,338.26,6,0.0,1,100,10,0.2,3.88,141,11.61,1.17,0.46,30,2.54,24100,16.04,26,0.01,37,2,0,14.67,10,1017,1.8,846.29
2026-03-25 02:00:00.000,58,6.97,0.0,46,13.88,465.8,6,0.0,1,68,9,0.27,3.99,141,11.24,0.71,0.42,20,2.73,24100,16.67,24,0.01,37,3,0,15.15,10,1016,1.95,1022.84
2026-03-25 03:00:00.000,56,6.98,0.0,53,14.61,579.07,2,0.0,1,35,9,0.33,4.1,172,10.9,0.39,0.38,10,2.92,24100,17.08,23,0.02,38,5,0,15.46,0,1016,2.1,1131.25
2026-03-25 04:00:00.000,55,7.04,0.0,60,15.6,660.11,1,0.0,1,0,8,0.38,4.26,208,10.6,0.43,0.35,0,3.13,24092,17.62,21,0.02,38,6,0,15.92,0,1016,2.26,1164.15
2026-03-25 05:00:00.000,53,7.06,0.0,60,16.01,653.53,1,0.0,1,0,8,0.38,4.42,222,10.32,0.57,0.33,0,3.35,24085,18.23,20,0.03,39,6,0,16.48,0,1015,2.42,1119.31
2026-03-25 06:00:00.000,52,7.06,0.0,60,15.8,577.21,1,0.0,1,0,8,0.33,4.5,226,10.1,0.6,0.33,0,3.44,24100,18.49,19,0.03,40,4,0,16.8,0,1015,2.52,999.82
2026-03-25 07:00:00.000,53,7.06,0.0,53,15.48,412.11,4,0.0,1,0,7,0.24,4.42,226,9.95,0.55,0.34,10,3.32,24163,18.11,17,0.03,40,3,10,16.62,0,1015,2.53,813.83
2026-03-25 08:00:00.000,55,7.11,0.0,23,15.0,189.25,7,0.0,1,0,7,0.12,4.26,215,9.86,0.49,0.37,56,3.08,24247,17.28,16,0.02,40,1,56,16.08,0,1015,2.48,574.05
2026-03-25 09:00:00.000,58,7.25,0.0,0,14.37,49.75,22,0.0,1,0,7,0.05,4.1,190,9.8,0.47,0.4,98,2.86,24290,16.3,16,0.02,41,0,98,15.4,0,1016,2.43,296.84
2026-03-25 10:00:00.000,62,7.49,0.0,0,13.56,5.57,22,0.0,0,0,7,0.03,3.98,168,9.79,0.57,0.44,100,2.7,24312,15.21,15,0.02,41,0,100,14.61,0,1016,2.37,62.13
2026-03-25 11:00:00.000,67,7.73,0.0,0,12.56,-0.2,22,0.0,0,0,7,0.0,3.87,154,9.8,0.7,0.48,100,2.56,24292,13.95,15,0.01,41,0,100,13.65,0,1016,2.3,0.0
2026-03-25 12:00:00.000,72,7.88,0.0,0,11.67,0.0,22,0.0,0,0,8,0.0,3.8,151,9.8,0.74,0.51,100,2.48,24100,12.83,15,0.01,42,0,100,12.74,0,1016,2.27,0.0
2026-03-25 13:00:00.000,76,7.97,0.0,0,10.84,0.0,22,0.0,0,0,8,0.0,3.77,152,9.71,0.76,0.52,100,2.46,23617,11.93,15,0.01,41,0,100,11.9,0,1016,2.3,0.0
2026-03-25 14:00:00.000,80,7.98,0.0,0,10.12,0.0,22,0.0,0,16,7,0.0,3.77,152,9.61,0.8,0.51,100,2.46,22961,11.27,15,0.01,40,0,100,11.21,0,1016,2.36,0.0
2026-03-25 15:00:00.000,82,7.93,0.0,0,9.53,0.0,9,0.0,0,62,8,0.0,3.8,153,9.6,0.92,0.51,56,2.48,22350,10.83,15,0.0,40,0,56,10.71,0,1016,2.42,0.0
2026-03-25 16:00:00.000,83,7.85,0.0,0,9.13,0.0,15,0.0,0,100,8,0.0,3.86,156,9.69,1.09,0.51,30,2.54,21770,10.66,15,0.0,39,0,0,10.45,0,1015,2.48,0.0
2026-03-25 17:00:00.000,84,7.8,0.0,0,8.96,0.0,15,0.0,0,100,8,0.0,3.93,160,9.87,1.22,0.52,30,2.62,21235,10.69,16,0.0,39,0,0,10.38,0,1015,2.53,0.0
2026-03-25 18:00:00.000,83,7.78,0.0,0,9.0,0.0,15,0.0,0,100,9,0.0,4.0,164,10.3,1.28,0.53,30,2.69,21000,10.86,16,0.0,39,0,0,10.47,0,1015,2.55,0.0
2026-03-25 19:00:00.000,82,7.79,0.0,0,9.28,0.0,15,0.0,0,100,8,0.0,4.04,166,11.09,1.23,0.56,30,2.69,21235,11.12,16,0.0,38,0,0,10.72,0,1015,2.49,0.0
2026-03-25 20:00:00.000,80,7.81,0.0,0,9.72,0.0,15,0.0,0,100,8,0.0,4.06,167,12.11,1.16,0.6,30,2.68,21770,11.48,16,0.0,38,0,0,11.1,0,1015,2.4,0.0
2026-03-25 21:00:00.000,77,7.81,0.0,0,10.34,0.0,6,0.0,1,100,8,0.0,4.1,167,13.2,1.12,0.63,30,2.69,22350,12.07,17,0.0,38,0,27,11.69,0,1015,2.31,0.0
2026-03-25 22:00:00.000,72,7.76,0.0,9,11.17,14.78,21,0.0,1,100,8,0.03,4.16,168,14.34,1.13,0.67,75,2.75,22961,12.95,17,0.0,38,0,75,12.55,0,1015,2.23,87.89
2026-03-25 23:00:00.000,66,7.57,0.0,0,12.25,68.09,22,0.0,1,100,8,0.06,4.23,172,15.53,1.15,0.71,100,2.82,23617,14.15,18,0.01,38,0,100,13.69,0,1015,2.16,347.06
2026-03-26 00:00:00.000,62,7.8,0.0,0,13.42,123.53,22,0.0,1,100,8,0.09,4.3,178,16.6,1.11,0.74,100,2.91,24100,15.42,19,0.01,39,0,100,14.77,0,1015,2.18,619.63
2026-03-26 01:00:00.000,60,7.58,0.0,0,13.97,184.75,22,0.0,1,100,7,0.12,4.37,179,17.47,0.8,0.75,100,3.0,24292,16.22,19,0.02,39,0,100,15.16,0,1015,2.34,851.87
2026-03-26 02:00:00.000,58,7.36,0.0,0,14.42,243.43,22,0.0,1,100,5,0.16,4.43,196,18.21,0.57,0.74,100,3.09,24312,17.12,20,0.03,39,0,100,15.51,0,1015,2.59,1027.96
2026-03-26 03:00:00.000,56,7.21,0.0,0,14.52,293.02,22,0.0,1,72,5,0.19,4.5,222,18.9,0.66,0.73,100,3.18,24290,17.82,21,0.04,39,1,100,15.7,0,1014,2.83,1135.92
2026-03-26 04:00:00.000,55,7.14,0.0,0,14.72,324.47,22,0.0,1,29,4,0.21,4.59,226,19.58,0.86,0.72,100,3.28,24247,18.65,22,0.05,39,1,100,16.05,0,1014,3.06,1168.4
2026-03-26 05:00:00.000,53,7.07,0.0,0,15.04,326.33,22,0.0,1,0,4,0.21,4.68,225,20.2,1.05,0.71,100,3.38,24163,19.56,23,0.06,39,1,100,16.53,0,1014,3.29,1123.21
2026-03-26 06:00:00.000,52,7.04,0.0,0,15.25,285.16,22,0.0,1,0,4,0.19,4.7,222,20.7,1.1,0.69,100,3.4,24100,19.99,23,0.06,39,1,100,16.78,0,1014,3.4,1003.45
2026-03-26 07:00:00.000,53,7.12,0.0,0,15.12,209.78,22,0.0,1,0,4,0.15,4.61,217,21.04,1.04,0.67,100,3.28,24085,19.57,22,0.06,38,0,100,16.59,0,1014,3.34,817.31
2026-03-26 08:00:00.000,56,7.3,0.0,0,14.69,124.14,22,0.0,1,0,5,0.1,4.45,206,21.25,0.98,0.64,100,3.09,24092,18.55,21,0.05,38,0,100,16.07,0,1014,3.18,577.49
2026-03-26 09:00:00.000,59,7.52,0.0,23,14.09,70.48,7,0.0,1,0,6,0.06,4.3,191,21.4,0.98,0.62,57,2.91,24100,17.38,20,0.05,38,0,57,15.42,0,1014,2.99,300.37
2026-03-26 10:00:00.000,63,7.74,0.0,21,13.31,9.76,4,0.0,0,0,7,0.03,4.19,176,21.5,1.1,0.6,38,2.78,24100,16.09,18,0.04,38,0,38,14.67,0,1015,2.79,63.94
2026-03-26 11:00:00.000,67,7.92,0.0,0,12.34,-0.2,4,0.0,0,0,8,0.01,4.09,167,21.53,1.26,0.6,22,2.66,24100,14.62,17,0.03,38,0,22,13.76,0,1015,2.57,0.0
2026-03-26 12:00:00.000,72,8.03,0.0,0,11.46,0.0,1,0.0,0,0,9,0.01,4.0,164,21.5,1.3,0.61,0,2.56,24100,13.34,17,0.03,39,0,0,12.89,0,1015,2.4,0.0
2026-03-26 13:00:00.000,76,8.07,0.0,0,10.67,0.0,2,0.0,0,10,8,0.0,3.91,163,21.41,1.27,0.65,3,2.47,24100,12.36,17,0.02,39,0,0,12.07,0,1015,2.31,0.0
2026-03-26 14:00:00.000,79,8.03,0.0,0,10.0,0.0,2,0.0,0,10,8,0.0,3.83,162,21.27,1.23,0.7,3,2.39,24100,11.68,18,0.02,38,0,0,11.38,0,1015,2.27,0.0
2026-03-26 15:00:00.000,81,7.93,0.0,0,9.45,0.0,13,0.0,0,0,8,0.0,3.8,161,21.1,1.29,0.76,0,2.36,24100,11.26,19,0.02,39,0,0,10.89,0,1014,2.24,0.0
2026-03-26 16:00:00.000,82,7.79,0.0,0,9.06,0.0,13,0.0,0,0,7,0.0,3.83,162,20.91,1.44,0.81,0,2.4,24100,11.12,20,0.02,39,0,0,10.64,0,1014,2.22,0.0
2026-03-26 17:00:00.000,82,7.7,0.0,0,8.88,0.0,13,0.0,0,0,8,0.0,3.9,165,20.7,1.59,0.86,0,2.49,24100,11.24,22,0.02,39,0,0,10.59,0,1014,2.23,0.0
2026-03-26 18:00:00.000,81,7.66,0.0,0,8.94,0.0,13,0.0,0,0,8,0.0,4.0,167,20.5,1.66,0.89,0,2.58,24100,11.58,23,0.02,40,0,0,10.71,0,1014,2.24,0.0
2026-03-26 19:00:00.000,79,7.7,0.0,0,9.27,0.0,4,0.0,0,0,7,0.0,4.14,170,20.34,1.65,0.87,23,2.65,24100,12.17,24,0.02,39,0,23,11.03,0,1014,2.27,0.0
2026-03-26 20:00:00.000,77,7.79,0.0,0,9.78,0.0,7,0.0,0,0,7,0.01,4.31,173,20.19,1.63,0.83,41,2.72,24100,12.95,25,0.02,39,0,41,11.5,0,1014,2.31,0.0
2026-03-26 21:00:00.000,75,7.88,0.0,0,10.49,0.0,7,0.0,1,0,7,0.01,4.5,174,20.0,1.6,0.79,58,2.8,24100,13.94,25,0.02,39,0,58,12.16,0,1014,2.36,0.0
2026-03-26 22:00:00.000,71,7.99,0.0,9,11.44,15.91,7,0.0,1,0,6,0.03,4.74,177,19.79,1.6,0.75,74,2.92,24100,15.19,26,0.02,38,0,74,13.09,0,1014,2.42,91.16
2026-03-26 23:00:00.000,65,8.01,0.0,2,12.65,79.19,22,0.0,1,0,6,0.07,5.0,183,19.53,1.61,0.71,90,3.04,24100,16.74,26,0.02,38,0,90,14.3,0,1014,2.5,353.4
2026-03-27 00:00:00.000,62,8.4,0.0,0,13.92,134.45,22,0.0,1,0,7,0.1,5.2,189,19.1,1.54,0.69,100,3.16,24100,18.15,27,0.02,38,0,100,15.41,0,1014,2.61,625.59
