time,relativehumidity,dewpointtemperature,precipitation,sunshinetime,felttemperature,ghi_backwards,pictocode,snowfraction,isdaylight,highclouds,cape,referenceevapotranspiration_fao,gust,winddirection,liftedindex,windspeed,precipitation_spread,totalcloudcover,windspeed_spread,visibility,skintemperature,precipitation_probability,evapotranspiration,totalcloudcover_spread,uvindex,lowclouds,temperature,midclouds,sealevelpressure,temperature_spread,extraterrestrialradiation_backwards
2026-03-17 00:00:00.000,62,4.86,0.0,40,9.57,407.0,6,0.0,1,99,6,0.19,3.65,87,16.3,1.37,0.0,29,0.22,15830,15.69,0,0.07,4,2,22,11.78,22,1022,0.24,564.17
2026-03-17 01:00:00.000,52,3.59,0.0,32,10.99,608.0,9,0.0,1,100,5,0.3,3.76,56,16.12,1.51,0.0,42,0.25,18230,18.93,0,0.1,4,2,21,13.2,42,1022,0.25,799.87
2026-03-17 02:00:00.000,47,3.05,0.0,40,12.42,754.15,6,0.0,1,100,4,0.39,4.3,35,15.98,1.69,0.0,30,0.3,20820,20.92,0,0.14,4,3,28,13.98,0,1022,0.26,979.75
2026-03-17 03:00:00.000,44,2.53,0.0,40,12.91,828.52,6,0.0,1,100,4,0.43,4.75,20,15.69,1.89,0.0,30,0.36,22020,21.77,0,0.16,5,5,15,14.3,0,1022,0.28,1091.57
2026-03-17 04:00:00.000,45,2.75,0.0,46,12.82,824.78,3,0.0,1,71,4,0.43,5.15,14,15.24,2.09,0.0,21,0.42,19620,21.7,0,0.17,6,6,1,14.36,0,1021,0.32,1127.72
2026-03-17 05:00:00.000,46,3.0,0.0,53,12.41,779.16,2,0.0,1,32,4,0.41,5.36,14,15.6,2.25,0.0,9,0.47,19630,20.66,0,0.16,9,6,0,14.29,0,1020,0.37,1085.76
2026-03-17 06:00:00.000,45,2.53,0.0,59,11.51,669.19,1,0.0,1,3,4,0.35,5.4,18,15.7,2.32,0.0,1,0.5,20030,19.16,0,0.15,13,5,0,14.16,0,1020,0.4,968.56
2026-03-17 07:00:00.000,47,2.72,0.0,60,10.51,524.45,1,0.0,1,0,2,0.28,5.26,22,15.62,2.3,0.0,0,0.49,19630,16.97,0,0.12,20,3,0,13.79,0,1020,0.41,784.13
2026-03-17 08:00:00.000,49,2.7,0.0,60,9.89,334.05,1,0.0,1,0,2,0.18,5.16,28,15.49,2.18,0.0,0,0.46,18030,14.15,0,0.09,30,2,0,13.09,0,1020,0.41,545.06
2026-03-17 09:00:00.000,54,3.09,0.0,57,9.12,131.24,1,0.0,1,0,1,0.08,4.75,35,15.23,1.91,0.0,3,0.42,16630,10.05,0,0.05,35,0,3,12.05,0,1020,0.4,267.67
2026-03-17 10:00:00.000,60,3.63,0.0,29,8.35,7.14,1,0.0,0,0,0,0.04,4.12,48,14.86,1.58,0.0,1,0.4,14630,6.95,0,0.01,29,0,1,10.95,0,1020,0.37,47.3
2026-03-17 11:00:00.000,66,3.92,0.0,0,7.59,0.0,1,0.0,0,0,0,0.01,3.52,60,14.61,1.32,0.0,2,0.38,14290,6.21,0,0.0,18,0,2,9.96,0,1020,0.34,0.0
2026-03-17 12:00:00.000,69,3.85,0.0,0,6.86,0.0,1,0.0,0,0,0,0.0,3.0,74,14.08,1.12,0.0,2,0.36,14510,5.45,0,0.0,11,0,2,9.09,0,1020,0.3,0.0
2026-03-17 13:00:00.000,69,3.26,0.0,0,6.18,0.0,1,0.0,0,9,0,0.0,3.18,85,13.62,0.99,0.0,3,0.33,13700,4.5,0,0.0,11,0,3,8.44,0,1020,0.26,0.0
2026-03-17 14:00:00.000,70,2.9,0.0,0,5.59,0.0,2,0.0,0,22,0,0.0,2.88,98,13.36,0.92,0.0,6,0.3,13690,3.2,0,0.0,14,0,0,7.87,0,1020,0.22,0.0
2026-03-17 15:00:00.000,74,3.19,0.0,0,5.32,0.0,5,0.0,0,29,0,0.0,2.9,120,13.29,0.85,0.0,21,0.28,13890,2.49,0,0.0,17,0,0,7.5,21,1019,0.21,0.0
2026-03-17 16:00:00.000,74,2.96,0.0,0,5.02,0.0,5,0.0,0,23,0,0.0,2.71,134,12.94,0.88,0.0,20,0.3,14880,2.06,0,0.0,16,0,0,7.26,20,1019,0.26,0.0
2026-03-17 17:00:00.000,72,2.73,0.0,0,5.0,0.0,8,0.0,0,12,0,0.0,2.74,128,12.79,0.89,0.0,50,0.34,16490,1.92,0,0.0,14,0,0,7.29,50,1018,0.35,0.0
2026-03-17 18:00:00.000,71,2.84,0.0,0,5.26,0.0,20,0.0,0,12,0,0.0,2.9,126,13.29,0.92,0.0,86,0.36,17890,1.95,0,0.0,13,0,0,7.56,86,1017,0.4,0.0
2026-03-17 19:00:00.000,72,3.22,0.0,0,5.67,0.0,20,0.0,0,36,5,0.0,2.47,144,13.91,0.92,0.01,87,0.35,19490,2.68,0,0.0,12,0,0,7.89,87,1017,0.38,0.0
2026-03-17 20:00:00.000,74,4.03,0.0,0,6.13,0.0,22,0.0,0,72,11,0.0,1.83,154,13.54,0.91,0.02,98,0.34,20280,6.05,0,0.0,13,0,0,8.19,98,1017,0.33,0.0
2026-03-17 21:00:00.000,76,4.6,0.0,0,6.6,0.0,22,0.0,0,99,17,0.0,2.35,148,13.58,0.98,0.05,99,0.36,19630,6.22,9,0.0,12,0,9,8.58,99,1016,0.3,0.0
2026-03-17 22:00:00.000,77,5.62,0.12,0,7.55,2.32,33,0.0,1,100,14,0.03,3.29,161,12.56,1.08,0.12,100,0.42,20430,8.76,37,0.0,8,0,63,9.39,100,1016,0.32,61.33
2026-03-17 23:00:00.000,75,6.32,0.25,0,8.72,26.01,33,0.0,1,100,12,0.04,3.34,147,9.78,1.17,0.19,98,0.5,19830,11.18,57,0.02,3,0,77,10.46,98,1016,0.36,295.27
2026-03-18 00:00:00.000,69,6.12,0.4,0,9.62,43.87,33,0.0,1,99,13,0.05,4.35,129,7.91,1.42,0.25,98,0.57,15620,12.11,68,0.03,0,0,78,11.58,98,1016,0.4,570.47
2026-03-18 01:00:00.000,67,6.52,0.48,0,10.18,81.67,33,0.0,1,70,18,0.08,5.34,124,6.7,1.89,0.26,99,0.59,14030,12.73,76,0.03,0,0,80,12.39,99,1015,0.44,805.84
2026-03-18 02:00:00.000,70,7.55,0.53,0,10.49,114.06,33,0.0,1,29,24,0.09,7.58,128,6.12,2.4,0.24,96,0.61,12620,13.19,72,0.03,0,1,84,12.8,96,1014,0.49,985.34
2026-03-18 03:00:00.000,73,8.5,0.53,0,10.72,139.33,33,0.0,1,0,30,0.11,9.37,132,4.8,2.88,0.23,95,0.64,11620,14.54,80,0.05,0,1,82,13.13,95,1013,0.53,1096.76
2026-03-18 04:00:00.000,77,9.68,0.39,0,11.12,163.0,33,0.0,1,0,41,0.11,10.9,171,4.12,3.35,0.19,93,0.69,11020,14.73,80,0.08,0,1,81,13.54,93,1012,0.55,1132.51
2026-03-18 05:00:00.000,80,11.01,0.2,2,11.92,107.68,33,0.0,1,0,54,0.09,10.32,189,3.13,3.73,0.15,89,0.78,11820,15.46,81,0.11,0,1,65,14.22,89,1011,0.56,1090.19
2026-03-18 06:00:00.000,80,11.53,0.2,0,12.53,173.63,33,0.0,1,0,70,0.11,11.15,196,2.33,3.96,0.17,92,0.95,11820,16.15,73,0.11,0,0,72,14.83,92,1010,0.61,972.68
2026-03-18 07:00:00.000,81,12.14,0.56,0,13.01,97.92,33,0.0,1,12,74,0.08,11.82,205,2.86,4.08,0.33,97,1.26,11220,15.64,73,0.1,0,0,83,15.2,97,1010,0.72,788.03
2026-03-18 08:00:00.000,81,12.19,1.1,0,13.09,49.16,33,0.0,1,30,83,0.06,12.37,206,2.29,4.09,0.55,100,1.64,10820,15.94,81,0.1,0,0,98,15.27,100,1010,0.86,548.83
2026-03-18 09:00:00.000,84,12.46,1.52,0,13.09,14.27,33,0.0,1,48,91,0.05,12.45,228,2.69,4.01,0.71,100,1.92,10420,15.28,91,0.09,0,0,89,15.12,100,1010,0.97,271.42
2026-03-18 10:00:00.000,87,12.65,1.77,0,12.89,0.89,33,0.0,0,67,73,0.04,12.61,240,2.77,3.88,0.73,98,2.04,10640,14.45,78,0.05,0,0,88,14.77,98,1011,1.05,49.19
2026-03-18 11:00:00.000,90,12.77,1.89,0,12.73,0.0,33,0.0,0,86,56,0.01,12.16,250,4.36,3.61,0.7,99,2.04,10090,14.19,82,0.05,1,0,86,14.38,99,1011,1.1,0.0
2026-03-18 12:00:00.000,92,12.61,1.79,0,12.29,0.0,33,0.0,0,100,54,0.0,10.45,261,3.7,3.27,0.69,100,1.94,9880,14.17,82,0.03,2,0,93,13.76,100,1012,1.11,0.0
2026-03-18 13:00:00.000,92,11.9,1.29,0,11.61,0.0,33,0.0,0,100,61,0.0,9.94,270,3.61,2.99,0.75,100,1.67,280,13.73,82,0.0,3,0,92,13.11,100,1012,1.07,0.0
2026-03-18 14:00:00.000,92,11.13,0.56,0,10.8,0.0,33,0.0,0,100,55,0.0,7.46,283,6.04,2.72,0.82,99,1.3,280,12.0,74,0.0,4,0,97,12.36,99,1013,0.98,0.0
2026-03-18 15:00:00.000,93,10.82,0.0,0,10.44,0.0,22,0.0,0,100,51,0.0,6.25,289,8.01,2.44,0.83,100,0.99,280,11.79,66,0.0,5,0,100,11.89,100,1013,0.9,0.0
2026-03-18 16:00:00.000,92,10.44,0.0,0,10.11,0.0,22,0.0,0,100,45,0.0,6.28,302,8.92,2.33,0.71,100,0.82,290,11.54,58,0.0,4,0,99,11.6,100,1013,0.82,0.0
2026-03-18 17:00:00.000,89,9.93,0.0,0,10.01,0.0,22,0.0,0,100,42,0.0,5.33,314,10.63,2.16,0.52,100,0.71,1900,10.71,57,0.01,3,0,94,11.52,100,1013,0.74,0.0
2026-03-18 18:00:00.000,88,9.65,0.0,0,9.94,0.0,22,0.0,0,97,51,0.0,5.2,321,10.6,2.02,0.36,100,0.64,9500,10.46,48,0.03,5,0,100,11.44,82,1013,0.71,0.0
2026-03-18 19:00:00.000,87,9.27,0.0,0,9.48,0.0,22,0.0,0,68,54,0.0,5.45,328,10.36,2.21,0.26,100,0.63,9890,10.18,36,0.04,11,0,100,11.22,61,1014,0.76,0.0
2026-03-18 20:00:00.000,89,9.19,0.0,0,9.06,0.0,22,0.0,0,27,53,0.0,5.43,328,10.97,2.28,0.18,99,0.66,9700,9.94,27,0.04,19,0,99,10.87,32,1014,0.85,0.0
2026-03-18 21:00:00.000,85,8.35,0.0,0,8.6,0.0,22,0.0,0,0,54,0.0,5.15,343,11.7,2.35,0.13,99,0.71,11050,9.6,26,0.04,26,0,99,10.68,25,1015,0.9,0.0
2026-03-18 22:00:00.000,81,8.1,0.0,0,8.97,4.77,22,0.0,1,0,62,0.03,5.21,352,13.24,2.36,0.12,98,0.75,11430,9.89,25,0.05,27,0,98,11.11,41,1015,0.85,64.67
2026-03-18 23:00:00.000,71,6.99,0.0,3,9.5,58.61,22,0.0,1,7,64,0.06,5.37,359,13.69,2.38,0.14,88,0.81,11430,10.92,24,0.08,27,0,88,11.94,33,1016,0.77,301.82
2026-03-19 00:00:00.000,59,5.28,0.0,1,9.98,239.36,22,0.0,1,14,63,0.14,5.8,3,14.08,2.44,0.15,91,0.86,11830,12.56,23,0.12,26,1,91,12.85,48,1016,0.71,576.74
2026-03-19 01:00:00.000,54,4.49,0.0,11,10.38,391.6,20,0.0,1,11,58,0.22,5.67,4,13.5,2.53,0.15,75,0.89,11020,13.97,14,0.15,25,2,75,13.48,34,1016,0.72,811.76
2026-03-19 02:00:00.000,53,4.53,0.0,20,10.69,554.33,7,0.0,1,5,52,0.3,6.07,6,13.46,2.63,0.14,62,0.91,10620,14.69,13,0.15,24,3,62,13.83,17,1016,0.77,990.87
2026-03-19 03:00:00.000,52,4.28,0.0,28,11.18,666.85,7,0.0,1,0,49,0.35,6.35,6,13.81,2.77,0.12,49,0.89,11420,19.1,12,0.17,22,5,49,13.85,0,1016,0.8,1101.88
2026-03-19 04:00:00.000,53,4.42,0.0,30,11.45,772.55,7,0.0,1,0,39,0.39,6.76,10,14.4,2.9,0.1,46,0.83,12820,16.68,4,0.18,15,5,46,13.62,0,1016,0.81,1137.24
2026-03-19 05:00:00.000,54,4.47,0.0,29,10.73,711.02,7,0.0,1,0,33,0.35,6.65,13,15.18,3.02,0.08,47,0.75,14020,20.74,3,0.18,6,5,47,13.31,0,1016,0.8,1094.55
2026-03-19 06:00:00.000,54,4.11,0.0,22,9.85,625.88,7,0.0,1,0,31,0.31,6.65,16,16.02,3.08,0.06,58,0.67,14420,19.41,2,0.17,2,4,58,13.0,1,1016,0.8,976.75
2026-03-19 07:00:00.000,55,3.86,0.0,25,9.05,486.35,7,0.0,1,0,27,0.24,6.3,17,16.6,2.87,0.04,53,0.62,15020,17.24,1,0.14,4,3,53,12.52,27,1016,0.8,791.88
2026-03-19 08:00:00.000,55,3.28,0.0,32,8.44,304.07,7,0.0,1,0,22,0.16,5.6,24,16.92,2.53,0.03,43,0.59,15430,14.65,0,0.1,11,2,43,11.77,1,1016,0.81,552.57
2026-03-19 09:00:00.000,59,3.32,0.0,37,7.73,123.57,4,0.0,1,0,15,0.07,4.75,29,16.69,2.13,0.02,35,0.58,15830,10.59,0,0.05,18,0,35,10.78,0,1017,0.8,275.14
2026-03-19 10:00:00.000,64,3.51,0.0,21,7.07,8.63,4,0.0,0,0,15,0.03,3.85,41,17.04,1.7,0.01,30,0.63,16240,5.34,0,0.01,23,0,30,9.78,0,1017,0.78,51.08
2026-03-19 11:00:00.000,68,3.6,0.0,0,6.52,0.0,4,0.0,0,0,13,0.01,3.2,51,16.77,1.37,0.0,25,0.72,16300,4.44,0,0.0,27,0,25,8.98,0,1018,0.74,0.0
2026-03-19 12:00:00.000,71,3.59,0.0,0,6.09,0.0,4,0.0,0,0,11,0.0,2.45,65,16.3,1.05,0.0,19,0.78,16290,3.44,0,0.0,32,0,19,8.33,0,1018,0.71,0.0
2026-03-19 13:00:00.000,72,3.28,0.0,0,5.67,0.0,1,0.0,0,0,9,0.0,2.03,89,16.31,0.87,0.0,1,0.8,15880,2.43,0,0.0,35,0,1,7.84,0,1018,0.67,0.0
2026-03-19 14:00:00.000,75,3.25,0.0,0,5.3,0.0,1,0.0,0,0,4,0.0,1.76,118,16.09,0.71,0.0,0,0.8,15480,1.22,0,0.0,37,0,0,7.36,0,1018,0.64,0.0
2026-03-19 15:00:00.000,77,3.38,0.0,0,5.07,0.0,1,0.0,0,1,3,0.0,1.7,140,16.68,0.63,0.0,0,0.78,14890,0.0,0,0.0,38,0,0,7.06,0,1018,0.61,0.0
2026-03-19 16:00:00.000,78,3.21,0.0,0,4.66,0.0,22,0.0,0,0,3,0.0,2.38,159,17.34,0.65,0.0,100,0.74,14680,0.02,0,0.0,35,0,0,6.69,100,1018,0.6,0.0
2026-03-19 17:00:00.000,78,2.93,0.0,0,4.25,0.0,22,0.0,0,0,3,0.0,2.43,185,17.3,0.69,0.0,93,0.68,14290,-0.2,0,0.0,30,0,0,6.37,93,1018,0.61,0.0
2026-03-19 18:00:00.000,80,2.91,0.0,0,3.87,0.0,22,0.0,0,0,4,0.0,2.5,174,16.89,0.73,0.0,97,0.64,13690,-0.48,0,0.0,28,0,0,6.02,97,1018,0.61,0.0
2026-03-19 19:00:00.000,82,2.99,0.0,0,3.52,0.0,22,0.0,0,11,4,0.0,2.52,168,15.94,0.73,0.0,91,0.63,13080,-0.58,0,0.0,29,0,8,5.65,91,1018,0.61,0.0
2026-03-19 20:00:00.000,88,3.52,0.0,0,3.26,0.0,22,0.0,0,28,5,0.0,2.57,169,15.22,0.8,0.0,97,0.64,12090,-0.5,0,0.0,33,0,10,5.34,97,1019,0.61,0.0
2026-03-19 21:00:00.000,85,3.49,0.0,0,3.51,0.0,20,0.0,1,42,6,0.0,2.75,160,14.84,0.89,0.0,76,0.71,12030,1.38,0,0.0,35,0,9,5.66,76,1019,0.61,0.0
2026-03-19 22:00:00.000,79,3.94,0.0,9,5.19,12.14,9,0.0,1,53,5,0.02,2.7,149,14.46,0.93,0.0,71,0.85,12840,6.35,0,0.0,32,0,20,7.27,71,1019,0.61,68.0
2026-03-19 23:00:00.000,69,4.26,0.0,22,7.54,120.91,9,0.0,1,61,5,0.06,3.52,116,14.73,1.02,0.0,58,1.04,15620,13.01,0,0.02,27,0,13,9.63,58,1020,0.61,308.34
2026-03-20 00:00:00.000,53,2.62,0.0,14,9.2,308.2,9,0.0,1,65,5,0.16,4.24,59,15.67,1.32,0.0,71,1.2,26220,16.22,0,0.1,25,1,30,11.81,71,1020,0.67,582.97
2026-03-20 01:00:00.000,43,0.9,0.0,0,9.82,491.25,22,0.0,1,60,6,0.26,4.54,30,16.37,1.68,0.0,100,1.33,29420,18.68,0,0.16,28,2,27,12.98,100,1020,0.83,817.63
2026-03-20 02:00:00.000,39,-0.17,0.0,0,10.21,619.41,22,0.0,1,50,8,0.33,5.17,16,16.66,2.1,0.0,100,1.44,31020,20.47,0,0.2,33,3,15,13.43,100,1020,1.05,996.34
2026-03-20 03:00:00.000,36,-1.04,0.0,0,10.36,697.89,22,0.0,1,49,11,0.37,5.65,11,16.08,2.41,0.0,100,1.5,32420,21.61,0,0.22,36,5,5,13.49,100,1020,1.21,1106.94
2026-03-20 04:00:00.000,36,-1.08,0.0,0,10.28,708.17,22,0.0,1,66,12,0.38,5.62,10,15.96,2.49,0.0,100,1.49,31820,22.24,0,0.23,32,6,1,13.42,100,1020,1.28,1141.9
2026-03-20 05:00:00.000,37,-0.81,0.0,0,9.93,663.16,22,0.0,1,91,13,0.35,5.44,9,15.92,2.48,0.0,100,1.45,31030,21.67,0,0.22,25,6,0,13.29,100,1021,1.3,1098.86
2026-03-20 06:00:00.000,37,-0.98,0.0,0,9.23,568.19,22,0.0,1,100,14,0.31,5.4,12,16.12,2.4,0.0,100,1.39,31030,20.19,0,0.2,22,5,0,13.08,100,1021,1.3,980.77
2026-03-20 07:00:00.000,39,-0.77,0.0,7,8.85,448.07,21,0.0,1,70,9,0.24,5.13,16,16.71,2.21,0.0,81,1.34,32430,17.88,0,0.17,26,3,0,12.64,81,1021,1.29,795.7
2026-03-20 08:00:00.000,41,-0.73,0.0,24,8.31,291.89,8,0.0,1,24,6,0.16,4.71,29,16.2,1.96,0.0,55,1.27,31230,15.41,0,0.13,34,2,0,11.92,55,1021,1.26,556.28
2026-03-20 09:00:00.000,45,-0.34,0.0,38,7.66,117.5,4,0.0,1,0,2,0.08,4.4,45,15.57,1.59,0.0,33,1.21,30830,11.74,0,0.07,38,0,0,10.95,33,1022,1.21,278.86
2026-03-20 10:00:00.000,49,-0.17,0.0,25,6.92,11.65,5,0.0,0,22,1,0.03,3.86,61,15.74,1.32,0.0,18,1.13,25240,5.03,0,0.01,31,0,0,10.0,18,1022,1.11,52.96
2026-03-20 11:00:00.000,52,-0.07,0.0,0,6.34,0.0,3,0.0,0,67,1,0.01,3.45,83,15.72,1.1,0.0,20,1.05,22900,3.84,0,0.0,21,0,0,9.25,7,1023,0.98,0.0
2026-03-20 12:00:00.000,52,-0.46,0.0,0,5.82,0.0,3,0.0,0,100,1,0.01,3.25,103,15.62,0.91,0.0,30,1.0,22500,2.95,0,0.0,16,0,0,8.65,0,1023,0.9,0.0
2026-03-20 13:00:00.000,50,-1.59,0.0,0,5.35,0.0,3,0.0,0,100,1,0.0,2.81,122,14.76,0.66,0.0,30,0.99,21900,2.09,0,0.0,22,0,0,8.18,0,1023,0.9,0.0
2026-03-20 14:00:00.000,50,-1.86,0.0,0,4.91,0.0,3,0.0,0,90,0,0.0,3.38,126,14.77,0.6,0.0,27,0.99,21290,3.22,0,0.0,33,0,0,7.73,0,1023,0.95,0.0
2026-03-20 15:00:00.000,51,-1.91,0.0,0,4.63,0.0,3,0.0,0,83,1,0.0,3.45,131,13.79,0.54,0.0,24,0.99,20100,2.89,0,0.0,41,0,0,7.42,0,1023,1.0,0.0
2026-03-20 16:00:00.000,50,-2.34,0.0,0,4.35,0.0,3,0.0,0,86,7,0.0,3.34,130,13.68,0.49,0.0,26,0.97,19700,0.35,0,0.0,40,0,0,7.15,0,1023,1.04,0.0
2026-03-20 17:00:00.000,49,-2.91,0.0,0,4.1,0.0,3,0.0,0,94,13,0.0,3.38,123,13.86,0.48,0.0,28,0.95,21900,1.94,0,0.0,35,0,0,6.96,0,1023,1.07,0.0
2026-03-20 18:00:00.000,48,-3.31,0.0,0,3.78,0.0,3,0.0,0,100,20,0.0,3.55,115,13.54,0.56,0.0,30,0.94,26100,0.01,0,0.0,33,0,0,6.76,0,1023,1.11,0.0
2026-03-20 19:00:00.000,49,-3.48,0.0,0,3.34,0.0,3,0.0,0,100,15,0.0,3.94,117,13.0,0.62,0.0,30,0.94,32910,-1.37,0,0.0,34,0,0,6.39,0,1023,1.15,0.0
2026-03-20 20:00:00.000,52,-3.02,0.0,0,2.95,0.0,3,0.0,0,100,10,0.0,4.06,124,12.8,0.71,0.0,30,0.94,36310,-0.84,0,0.0,38,0,0,6.0,0,1023,1.18,0.0
2026-03-20 21:00:00.000,52,-2.81,0.0,0,3.1,0.0,3,0.0,1,100,6,0.0,3.25,127,12.73,0.83,0.0,30,0.94,37240,-0.76,0,0.0,40,0,0,6.21,0,1023,1.21,0.0
2026-03-20 22:00:00.000,50,-1.83,0.0,30,4.64,18.78,3,0.0,1,70,3,0.02,2.75,124,12.18,0.91,0.0,21,0.94,36040,4.14,0,0.01,37,0,0,7.67,0,1024,1.21,71.33
2026-03-20 23:00:00.000,45,-1.13,0.0,54,7.05,148.34,2,0.0,1,29,1,0.07,3.31,118,12.17,0.99,0.0,8,0.95,32630,10.66,0,0.05,32,0,0,10.03,0,1024,1.21,314.84
2026-03-21 00:00:00.000,35,-2.27,0.0,60,9.2,347.56,1,0.0,1,0,0,0.18,3.4,105,12.72,1.08,0.0,0,1.0,36030,14.71,0,0.11,30,1,0,12.41,0,1025,1.21,589.16
2026-03-21 01:00:00.000,30,-3.11,0.0,60,10.69,547.45,1,0.0,1,0,1,0.29,4.08,81,12.42,1.2,0.0,0,1.12,40630,18.9,0,0.16,31,2,0,14.09,0,1025,1.24,823.45
2026-03-21 02:00:00.000,28,-3.15,0.0,60,12.72,721.78,1,0.0,1,0,2,0.39,3.89,57,11.99,1.31,0.0,0,1.28,43830,21.79,0,0.2,36,4,0,15.15,0,1025,1.28,1001.76
2026-03-21 03:00:00.000,26,-3.23,0.0,60,14.08,850.49,1,0.0,1,0,4,0.47,4.45,40,11.46,1.41,0.0,0,1.42,46630,23.69,0,0.23,38,6,0,15.8,0,1025,1.3,1111.94
2026-03-21 04:00:00.000,26,-3.03,0.0,60,14.49,882.1,1,0.0,1,0,4,0.49,4.71,25,10.87,1.61,0.0,0,1.56,45220,24.22,0,0.24,35,6,0,16.17,0,1024,1.28,1146.5
2026-03-21 05:00:00.000,28,-2.09,0.0,60,14.3,844.15,1,0.0,1,0,4,0.47,5.24,13,10.49,1.82,0.0,0,1.7,44030,23.43,0,0.24,31,6,0,16.26,0,1024,1.25,1103.1
2026-03-21 06:00:00.000,29,-1.65,0.0,60,13.45,740.09,1,0.0,1,0,5,0.41,5.4,7,9.63,1.9,0.0,0,1.75,41020,21.81,0,0.22,28,5,0,16.03,0,1023,1.21,984.73
2026-03-21 07:00:00.000,32,-0.99,0.0,60,12.02,578.85,1,0.0,1,0,3,0.32,5.24,7,9.24,1.76,0.0,0,1.67,38820,19.38,0,0.18,26,3,0,15.36,0,1023,1.17,799.46
2026-03-21 08:00:00.000,35,-0.71,0.0,60,11.1,374.65,1,0.0,1,0,2,0.2,4.66,11,9.11,1.44,0.0,0,1.52,34420,16.2,0,0.13,26,2,0,14.34,0,1023,1.14,559.95
2026-03-21 09:00:00.000,41,0.2,0.0,60,10.23,152.38,1,0.0,1,0,0,0.08,4.1,19,9.43,1.11,0.0,0,1.35,25820,11.07,0,0.06,26,0,0,13.1,0,1024,1.11,282.55
2026-03-21 10:00:00.000,45,0.58,0.0,32,9.21,15.15,1,0.0,0,0,0,0.02,3.51,38,10.01,0.9,0.0,0,1.14,21240,4.83,0,0.0,23,0,0,11.87,0,1024,1.1,54.84
2026-03-21 11:00:00.000,49,0.59,0.0,0,8.31,0.0,1,0.0,0,0,0,0.0,2.63,94,10.91,0.71,0.0,0,0.9,19480,3.67,0,0.0,19,0,0,10.84,0,1024,1.11,0.0
2026-03-21 12:00:00.000,51,0.35,0.0,0,7.44,0.0,1,0.0,0,0,0,0.0,2.0,130,12.14,0.61,0.0,0,0.71,19880,2.93,0,0.0,18,0,0,9.93,0,1024,1.11,0.0
2026-03-21 13:00:00.000,51,-0.26,0.0,0,6.71,0.0,1,0.0,0,0,0,0.0,2.44,137,13.71,0.58,0.0,0,0.6,23890,2.09,0,0.0,21,0,0,9.29,0,1024,1.11,0.0
2026-03-21 14:00:00.000,51,-0.69,0.0,0,6.09,0.0,1,0.0,0,0,0,0.0,2.17,137,15.29,0.58,0.0,0,0.53,29490,1.21,0,0.0,26,0,0,8.73,0,1024,1.11,0.0
2026-03-21 15:00:00.000,52,-0.81,0.0,0,5.69,0.0,1,0.0,0,0,0,0.0,2.0,136,16.27,0.6,0.0,0,0.5,34090,0.49,0,0.0,31,0,0,8.36,0,1024,1.11,0.0
2026-03-21 16:00:00.000,52,-1.03,0.0,0,5.23,0.0,1,0.0,0,0,0,0.0,1.65,139,16.03,0.63,0.0,0,0.5,36280,0.0,0,0.0,31,0,0,7.95,0,1024,1.09,0.0
2026-03-21 17:00:00.000,53,-1.27,0.0,0,4.81,0.0,1,0.0,0,0,0,0.0,1.54,144,15.77,0.68,0.0,0,0.53,35690,-0.36,0,0.0,30,0,0,7.6,0,1024,1.07,0.0
2026-03-21 18:00:00.000,54,-1.35,0.0,0,4.46,0.0,1,0.0,0,0,0,0.0,1.7,149,15.52,0.72,0.02,0,0.57,34490,-0.68,0,0.0,31,0,0,7.29,0,1023,1.08,0.0
2026-03-21 19:00:00.000,54,-1.5,0.0,0,4.13,0.0,1,0.0,0,0,17,0.0,1.79,153,15.08,0.73,0.08,0,0.58,34090,-1.33,1,0.0,34,0,0,6.99,0,1023,1.15,0.0
2026-03-21 20:00:00.000,56,-1.2,0.0,0,4.05,0.0,1,0.0,0,0,32,0.0,1.66,154,14.2,0.74,0.16,0,0.6,33290,-1.07,1,0.0,38,0,0,6.87,0,1023,1.25,0.0
2026-03-21 21:00:00.000,54,-1.06,0.0,0,4.67,0.0,1,0.0,1,0,51,0.0,1.65,151,14.0,0.75,0.24,0,0.64,30840,-0.42,1,0.0,41,0,0,7.48,0,1023,1.3,0.0
2026-03-21 22:00:00.000,53,0.14,0.0,37,6.6,21.06,1,0.0,1,2,56,0.02,1.63,139,14.2,0.72,0.32,6,0.69,27220,7.98,2,0.0,39,0,0,9.21,6,1023,1.24,74.65
2026-03-21 23:00:00.000,49,1.42,0.0,49,9.3,154.92,4,0.0,1,5,57,0.07,2.1,116,13.96,0.63,0.41,16,0.75,22430,14.33,2,0.04,36,0,0,11.64,16,1023,1.13,321.32
2026-03-22 00:00:00.000,44,1.88,0.0,43,11.6,353.85,4,0.0,1,7,55,0.18,2.55,90,13.97,0.64,0.48,26,0.85,23630,18.5,3,0.09,35,1,0,13.87,26,1024,1.11,595.32
2026-03-22 01:00:00.000,42,2.57,0.0,37,13.26,532.6,4,0.0,1,5,56,0.29,2.78,59,12.81,0.61,0.53,35,1.01,25630,22.24,3,0.14,35,2,0,15.38,35,1023,1.24,829.23
2026-03-22 02:00:00.000,41,3.06,0.0,31,15.04,668.54,7,0.0,1,2,65,0.37,2.74,36,11.18,0.57,0.57,44,1.21,27430,23.5,4,0.18,37,3,0,16.27,44,1022,1.45,1007.12
2026-03-22 03:00:00.000,41,3.56,0.0,25,16.17,762.57,7,0.0,1,0,72,0.43,3.6,24,10.37,0.57,0.61,53,1.41,29230,25.57,5,0.21,38,5,0,16.67,53,1022,1.65,1116.86
2026-03-22 04:00:00.000,43,4.38,0.0,20,16.06,734.64,7,0.0,1,0,61,0.42,4.59,15,10.89,0.72,0.69,62,1.64,29620,25.98,5,0.23,37,5,0,16.71,62,1021,1.84,1151.01
2026-03-22 05:00:00.000,47,5.02,0.0,15,15.04,641.75,7,0.0,1,0,85,0.37,5.87,8,11.53,0.94,0.78,70,1.88,28820,24.94,13,0.23,37,5,0,16.32,70,1020,2.03,1107.26
2026-03-22 06:00:00.000,50,5.38,0.0,11,13.84,487.67,19,0.0,1,0,89,0.28,4.5,3,11.01,1.1,0.81,76,2.02,23630,17.84,14,0.16,36,3,0,15.75,76,1019,2.11,988.59
2026-03-22 07:00:00.000,54,5.8,0.0,8,13.18,330.72,19,0.0,1,0,36,0.19,6.52,6,11.2,1.11,0.76,80,2.0,22630,17.13,21,0.09,34,2,0,15.0,80,1019,2.02,803.13
2026-03-22 08:00:00.000,56,5.89,0.0,7,12.53,203.25,19,0.0,1,0,6,0.12,5.23,14,10.74,1.08,0.65,81,1.88,20630,15.57,22,0.05,32,1,0,14.31,81,1019,1.83,563.53
2026-03-22 09:00:00.000,61,6.42,0.0,7,11.99,80.8,19,0.0,1,0,16,0.06,4.87,27,9.63,1.04,0.55,83,1.77,19630,15.01,23,0.03,31,0,0,13.62,83,1019,1.64,286.16
2026-03-22 10:00:00.000,67,7.08,0.0,3,11.54,9.33,19,0.0,0,0,16,0.03,4.85,57,9.21,1.05,0.49,83,1.69,15040,12.88,32,0.01,29,0,0,13.02,83,1019,1.48,56.67
2026-03-22 11:00:00.000,71,7.52,0.0,0,11.14,0.0,19,0.0,0,0,12,0.0,3.82,51,7.49,1.0,0.43,84,1.63,12450,12.26,38,0.01,28,0,0,12.48,84,1019,1.33,0.0
2026-03-22 12:00:00.000,77,7.73,0.0,0,10.21,0.0,19,0.0,0,1,10,0.0,3.53,79,5.54,1.09,0.39,83,1.58,9490,11.48,38,0.02,29,0,0,11.56,83,1019,1.21,0.0
2026-03-22 13:00:00.000,75,6.54,0.0,0,8.81,0.0,20,0.0,0,15,8,0.0,6.05,89,3.89,1.44,0.36,82,1.55,8700,11.33,38,0.03,31,0,0,10.69,82,1019,1.15,0.0
2026-03-22 14:00:00.000,77,6.17,0.0,0,7.83,0.0,20,0.0,0,36,10,0.0,8.07,91,2.66,1.5,0.35,80,1.55,3090,10.98,38,0.01,34,0,0,9.85,80,1018,1.12,0.0
2026-03-22 15:00:00.000,79,6.33,0.0,0,7.68,0.0,21,0.0,0,50,11,0.0,7.85,101,2.78,1.49,0.35,80,1.56,8490,10.94,38,0.0,37,0,0,9.65,80,1018,1.11,0.0
2026-03-22 16:00:00.000,81,6.74,0.0,0,7.93,0.0,21,0.0,0,54,40,0.0,6.69,126,1.57,1.33,0.39,86,1.55,8690,11.42,38,0.02,36,0,0,9.7,86,1017,1.1,0.0
2026-03-22 17:00:00.000,82,7.18,0.0,0,8.41,0.0,22,0.0,0,52,16,0.0,6.59,146,3.44,1.21,0.43,94,1.56,8700,12.07,37,0.01,35,0,0,9.98,94,1017,1.11,0.0
2026-03-22 18:00:00.000,83,7.56,0.0,0,8.89,0.0,22,0.0,0,46,20,0.0,5.75,167,3.97,1.11,0.47,100,1.58,6700,12.83,36,0.01,35,0,0,10.31,100,1017,1.11,0.0
2026-03-22 19:00:00.000,83,7.94,0.0,0,9.09,0.0,22,0.0,0,33,23,0.0,6.06,182,3.39,1.3,0.47,100,1.6,7690,13.45,44,0.0,37,0,0,10.54,100,1017,1.1,0.0
2026-03-22 20:00:00.000,86,8.51,0.0,0,9.02,0.0,22,0.0,0,16,29,0.0,7.48,226,4.11,1.82,0.45,98,1.63,1090,13.73,35,0.0,41,0,0,10.69,98,1017,1.1,0.0
2026-03-22 21:00:00.000,85,8.59,0.0,0,9.05,0.0,22,0.0,1,12,25,0.0,8.05,239,3.41,2.18,0.44,96,1.7,640,13.51,35,0.0,44,0,0,10.94,96,1016,1.11,0.0
2026-03-22 22:00:00.000,82,8.84,0.0,0,9.85,5.85,22,0.0,1,36,19,0.03,7.53,236,4.31,2.12,0.45,97,1.86,230,13.29,34,0.0,43,0,0,11.64,97,1017,1.13,77.98
2026-03-22 23:00:00.000,76,8.65,0.0,0,10.8,36.94,22,0.0,1,72,13,0.05,8.59,229,6.17,2.07,0.47,98,2.07,30,13.36,25,0.0,40,0,0,12.6,98,1017,1.17,327.79
2026-03-23 00:00:00.000,69,7.98,0.0,0,11.66,65.11,22,0.0,1,100,13,0.07,7.84,345,7.03,1.83,0.46,100,2.27,30,12.88,25,0.0,38,1,0,13.47,100,1017,1.27,601.46
2026-03-23 01:00:00.000,63,7.12,0.0,0,11.79,118.92,22,0.0,1,100,7,0.1,7.58,30,8.2,2.13,0.39,100,2.39,30,11.09,27,0.0,36,1,0,14.02,100,1017,1.48,834.97
2026-03-23 02:00:00.000,61,7.08,0.0,0,12.15,174.08,22,0.0,1,100,7,0.13,6.61,24,10.49,2.2,0.28,99,2.48,230,11.75,26,0.05,34,3,1,14.44,99,1016,1.74,1012.41
2026-03-23 03:00:00.000,58,6.88,0.0,0,12.33,226.32,22,0.0,1,100,26,0.16,7.7,19,13.3,2.41,0.2,99,2.55,230,11.66,25,0.11,33,4,9,14.82,99,1016,1.93,1121.72
2026-03-23 04:00:00.000,56,6.5,0.0,0,12.49,233.68,22,0.0,1,100,18,0.17,7.75,19,13.13,2.47,0.17,99,2.62,430,11.97,13,0.15,30,6,30,15.11,99,1016,2.02,1155.46
2026-03-23 05:00:00.000,55,6.32,0.0,0,12.54,224.12,22,0.0,1,100,21,0.17,7.95,24,12.4,2.48,0.16,99,2.68,8830,13.28,12,0.17,26,5,58,15.2,99,1015,2.05,1111.34
2026-03-23 06:00:00.000,54,5.98,0.0,0,12.29,200.95,22,0.0,1,100,24,0.16,7.7,28,10.84,2.44,0.15,99,2.62,9630,13.13,12,0.19,25,4,79,15.0,99,1014,1.99,992.39
2026-03-23 07:00:00.000,56,5.93,0.21,0,11.84,149.84,33,0.0,1,100,26,0.13,7.69,33,10.23,2.28,0.12,99,2.4,10230,12.62,25,0.16,25,3,87,14.45,99,1014,1.8,806.74
2026-03-23 08:00:00.000,59,5.79,0.37,0,11.08,94.45,33,0.0,1,100,21,0.09,7.67,37,10.07,2.14,0.1,100,2.08,11030,12.36,25,0.12,27,1,87,13.63,100,1014,1.54,567.07
2026-03-23 09:00:00.000,64,6.19,0.49,0,10.25,39.06,33,0.0,1,100,15,0.06,7.35,39,10.27,1.99,0.08,100,1.8,11030,11.33,25,0.08,29,0,87,12.61,100,1015,1.3,289.74
2026-03-23 10:00:00.000,69,6.35,0.54,0,9.63,4.88,33,0.0,0,100,16,0.04,6.64,43,10.52,1.74,0.06,99,1.6,10440,7.15,25,0.01,26,0,87,11.77,99,1015,1.13,58.5
2026-03-23 11:00:00.000,73,6.45,0.56,0,9.04,0.0,33,0.0,0,100,14,0.01,7.87,49,11.23,1.64,0.04,99,1.42,10090,6.5,25,0.0,23,0,86,11.09,99,1015,0.99,0.0
2026-03-23 12:00:00.000,76,6.63,0.54,0,8.56,0.0,33,0.0,0,100,15,0.0,7.35,52,11.79,1.56,0.03,99,1.28,9890,5.01,25,0.0,23,0,86,10.51,99,1015,0.9,0.0
2026-03-23 13:00:00.000,75,5.83,0.44,0,7.7,0.0,33,0.0,0,100,14,0.01,6.78,58,12.1,1.69,0.03,99,1.18,9290,4.35,25,0.0,27,0,86,9.93,99,1015,0.87,0.0
2026-03-23 14:00:00.000,78,5.82,0.31,0,7.16,0.0,33,0.0,0,100,13,0.0,6.3,61,12.63,1.66,0.04,99,1.11,7490,3.42,25,0.0,33,0,87,9.36,99,1015,0.88,0.0
2026-03-23 15:00:00.000,81,6.02,0.24,0,6.86,0.0,33,0.0,0,100,14,0.0,6.05,64,12.33,1.66,0.05,99,1.06,9700,3.07,25,0.0,38,0,88,9.01,99,1015,0.9,0.0
2026-03-23 16:00:00.000,82,5.96,0.28,0,6.68,0.0,33,0.0,0,100,24,0.0,5.31,68,12.1,1.46,0.07,99,1.04,9890,2.21,25,0.0,38,0,88,8.71,99,1014,0.93,0.0
2026-03-23 17:00:00.000,83,5.81,0.39,0,6.52,0.0,33,0.0,0,100,34,0.0,5.09,74,11.82,1.3,0.1,99,1.04,10090,1.71,25,0.0,36,0,88,8.47,99,1014,0.97,0.0
2026-03-23 18:00:00.000,83,5.7,0.5,0,6.38,0.0,33,0.0,0,100,44,0.0,5.15,85,11.77,1.18,0.11,100,1.06,6480,1.99,25,0.0,36,0,88,8.28,100,1013,1.0,0.0
2026-03-23 19:00:00.000,83,5.58,0.61,0,6.14,0.0,33,0.0,0,75,40,0.0,5.31,95,12.08,1.27,0.08,100,1.11,1090,1.97,25,0.0,38,0,87,8.13,100,1013,0.99,0.0
2026-03-23 20:00:00.000,85,5.76,0.73,0,6.03,0.0,33,0.0,0,40,35,0.0,4.95,96,11.93,1.35,0.04,100,1.17,90,5.47,25,0.0,41,0,85,8.03,100,1013,0.97,0.0
2026-03-23 21:00:00.000,82,5.46,0.75,0,6.28,0.0,33,0.0,1,14,31,0.0,3.85,89,11.94,1.31,0.03,100,1.25,230,5.29,25,0.0,44,0,85,8.32,100,1012,1.0,0.0
2026-03-23 22:00:00.000,76,5.48,0.58,0,7.33,8.11,33,0.0,1,4,34,0.03,3.7,83,11.99,1.27,0.09,98,1.32,9830,7.37,25,0.0,44,0,86,9.33,98,1013,1.11,81.29
2026-03-23 23:00:00.000,69,5.39,0.32,0,8.84,50.44,33,0.0,1,2,36,0.05,3.47,72,12.12,1.23,0.18,97,1.4,13030,13.49,25,0.06,42,0,88,10.84,97,1013,1.29,334.24
2026-03-24 00:00:00.000,59,4.73,0.0,0,10.31,101.25,22,0.0,1,2,39,0.08,3.05,56,12.03,1.3,0.23,96,1.5,15430,17.46,13,0.14,42,1,89,12.5,96,1013,1.5,607.55
2026-03-24 01:00:00.000,48,4.36,0.0,52,12.59,498.59,2,0.0,1,38,1,0.28,2.51,80,15.41,1.59,0.2,11,1.64,24100,17.61,3,0.01,42,2,0,15.05,0,1017,1.79,840.65
2026-03-24 02:00:00.000,44,4.01,0.0,40,13.8,562.62,3,0.0,1,100,1,0.33,2.49,75,15.36,1.59,0.13,30,1.79,24100,19.78,2,0.02,43,4,0,16.26,0,1017,2.13,1017.66
2026-03-24 03:00:00.000,42,4.07,0.0,40,14.89,617.92,3,0.0,1,100,1,0.37,2.5,70,15.4,1.44,0.08,30,1.94,24100,20.9,2,0.02,42,5,0,16.89,0,1017,2.4,1126.52
2026-03-24 04:00:00.000,42,4.43,0.0,40,15.28,615.36,6,0.0,1,100,1,0.37,2.6,63,15.58,1.25,0.07,30,2.1,24100,20.77,2,0.02,37,6,0,17.09,17,1016,2.58,1159.83
2026-03-24 05:00:00.000,44,4.83,0.0,0,15.1,322.16,22,0.0,1,100,1,0.22,2.75,53,15.85,1.07,0.08,100,2.25,24100,19.97,3,0.03,30,5,0,17.1,100,1015,2.7,1115.35
2026-03-24 06:00:00.000,45,5.09,0.0,0,15.05,263.82,22,0.0,1,99,2,0.18,2.9,44,16.0,0.97,0.1,100,2.33,24100,19.07,4,0.03,26,4,0,16.93,100,1015,2.71,996.13
2026-03-24 07:00:00.000,46,5.05,0.0,0,14.57,198.85,22,0.0,1,92,3,0.14,3.07,40,15.89,0.91,0.13,100,2.31,24100,18.06,5,0.03,26,3,0,16.42,100,1015,2.54,810.31
2026-03-24 08:00:00.000,49,5.13,0.0,0,13.77,124.42,22,0.0,1,94,5,0.1,3.25,35,15.66,0.83,0.16,100,2.21,24100,16.77,6,0.02,29,1,0,15.54,100,1015,2.25,570.58
2026-03-24 09:00:00.000,53,5.3,0.0,0,12.94,51.48,22,0.0,1,85,7,0.05,3.3,40,15.5,0.73,0.19,94,2.08,24100,15.5,7,0.02,32,0,0,14.6,94,1015,2.0,293.3
2026-03-24 10:00:00.000,58,5.64,0.0,0,12.16,2.94,22,0.0,0,47,6,0.03,3.13,64,15.49,0.67,0.2,100,1.9,24100,14.41,9,0.01,31,0,0,13.72,100,1015,1.83,60.32
2026-03-24 11:00:00.000,62,5.88,0.0,0,11.18,-0.32,22,0.0,0,0,4,0.0,2.83,94,15.54,0.89,0.21,100,1.69,24100,13.42,10,0.01,30,0,0,12.83,100,1016,1.71,0.0
2026-03-24 12:00:00.000,65,5.82,0.0,0,10.23,0.0,22,0.0,0,0,3,0.01,2.6,105,15.6,1.11,0.23,100,1.53,24100,12.57,12,0.0,30,0,0,12.05,100,1016,1.61,0.0
2026-03-24 13:00:00.000,68,5.69,0.0,0,9.51,0.0,22,0.0,0,0,2,0.0,2.51,109,15.63,1.1,0.27,100,1.46,24100,11.84,14,0.0,30,0,0,11.35,100,1016,1.56,0.0
2026-03-24 14:00:00.000,70,5.66,0.0,0,9.03,0.0,22,0.0,0,16,1,0.0,2.5,113,15.67,1.01,0.33,100,1.44,24100,11.3,16,0.0,31,0,16,10.81,100,1016,1.54,0.0
2026-03-24 15:00:00.000,73,5.83,0.0,0,8.72,0.0,22,0.0,0,52,1,0.0,2.5,119,15.7,0.92,0.39,100,1.44,24100,10.91,18,0.0,32,0,55,10.4,100,1016,1.53,0.0
2026-03-24 16:00:00.000,75,6.07,0.0,0,8.51,0.0,22,0.0,0,88,0,0.0,2.51,128,15.74,0.91,0.45,100,1.47,24100,10.66,21,0.0,33,0,93,10.13,100,1015,1.52,0.0
2026-03-24 17:00:00.000,77,6.28,0.0,0,8.39,0.0,22,0.0,0,100,1,0.0,2.54,136,15.78,0.94,0.52,100,1.52,24100,10.53,23,0.0,34,0,100,9.98,100,1015,1.51,0.0
2026-03-24 18:00:00.000,78,6.5,0.0,0,8.42,0.0,22,0.0,0,100,2,0.0,2.6,142,15.8,1.01,0.58,100,1.58,24100,10.58,26,0.0,36,0,100,10.01,100,1015,1.5,0.0
2026-03-24 19:00:00.000,79,6.83,0.0,0,8.66,0.0,22,0.0,0,100,3,0.0,2.68,148,15.79,1.05,0.61,100,1.64,24100,10.81,28,0.0,37,0,100,10.21,100,1015,1.48,0.0
2026-03-24 20:00:00.000,79,7.1,0.0,0,9.05,0.0,22,0.0,0,100,6,0.0,2.79,151,15.76,1.07,0.62,100,1.72,24100,11.18,30,0.0,38,0,100,10.55,100,1015,1.47,0.0
2026-03-24 21:00:00.000,78,7.53,0.0,0,9.68,-1.06,22,0.0,1,100,9,0.0,2.9,153,15.7,1.08,0.63,100,1.8,24100,11.74,32,0.0,39,0,100,11.07,60,1015,1.47,0.0
2026-03-24 22:00:00.000,77,7.96,0.0,0,10.52,-0.75,22,0.0,1,100,11,0.02,3.03,148,15.63,1.12,0.64,100,1.91,24100,12.55,34,0.0,40,0,100,11.84,22,1015,1.48,84.59
2026-03-24 23:00:00.000,74,8.49,0.0,0,11.64,30.85,22,0.0,1,100,14,0.04,3.17,143,15.53,1.17,0.64,100,2.03,24100,13.6,36,0.0,41,0,100,12.86,0,1015,1.51,340.66
2026-03-25 00:00:00.000,69,8.31,0.0,0,12.7,95.08,22,0.0,1,100,16,0.07,3.3,109,15.3,1.05,0.64,100,2.16,24100,14.66,37,0.0,42,1,100,13.88,0,1015,1.61,613.61
2026-03-25 01:00:00.000,66,8.19,0.0,0,13.01,172.64,22,0.0,1,100,14,0.12,3.41,98,14.89,1.22,0.65,100,2.3,24100,15.16,38,0.0,42,2,100,14.34,0,1015,1.83,846.29
2026-03-25 02:00:00.000,65,8.14,0.0,0,13.26,224.32,22,0.0,1,100,12,0.15,3.5,89,14.35,1.26,0.67,100,2.44,24100,15.49,38,0.01,42,4,100,14.63,0,1014,2.13,1022.84
2026-03-25 03:00:00.000,65,8.29,0.0,0,13.43,247.32,22,0.0,1,69,10,0.16,3.6,85,13.8,1.16,0.68,100,2.58,24100,15.57,38,0.01,42,5,100,14.68,0,1014,2.4,1131.25
2026-03-25 04:00:00.000,65,8.56,0.0,0,13.8,243.85,22,0.0,1,27,7,0.16,3.73,82,13.26,1.0,0.69,100,2.73,24100,15.79,38,0.01,41,6,100,14.87,0,1013,2.66,1164.15
2026-03-25 05:00:00.000,65,8.83,0.0,0,14.35,222.65,22,0.0,1,0,5,0.15,3.85,80,12.71,0.8,0.7,100,2.88,24100,16.14,39,0.01,41,6,100,15.22,0,1013,2.9,1119.31
2026-03-25 06:00:00.000,65,9.0,0.0,0,14.69,182.73,22,0.0,1,0,4,0.12,3.9,81,12.2,0.68,0.69,100,2.94,24100,16.33,39,0.01,42,5,100,15.43,0,1013,3.0,999.82
2026-03-25 07:00:00.000,65,8.93,0.0,0,14.52,136.84,22,0.0,1,0,3,0.1,3.82,95,11.71,0.7,0.68,100,2.86,24100,16.12,40,0.01,42,3,100,15.29,0,1013,2.9,813.83
2026-03-25 08:00:00.000,67,8.91,0.0,0,14.03,85.39,22,0.0,1,0,4,0.07,3.66,111,11.26,0.75,0.65,100,2.7,24100,15.57,42,0.01,42,1,100,14.84,0,1013,2.66,574.05
2026-03-25 09:00:00.000,70,8.95,0.0,0,13.37,32.85,22,0.0,1,0,5,0.04,3.5,123,10.9,0.81,0.63,100,2.52,24100,14.84,43,0.0,43,0,100,14.21,0,1013,2.4,296.84
2026-03-25 10:00:00.000,74,9.12,0.0,0,12.7,2.57,22,0.0,0,0,6,0.03,3.36,132,10.61,0.76,0.62,100,2.36,24100,13.99,44,0.0,43,0,100,13.46,0,1014,2.12,62.13
2026-03-25 11:00:00.000,79,9.19,0.0,0,11.91,-0.32,22,0.0,0,0,7,0.0,3.23,139,10.43,0.7,0.61,100,2.18,24100,13.03,44,0.0,44,0,100,12.61,0,1014,1.83,0.0
2026-03-25 12:00:00.000,82,8.99,0.0,0,11.15,0.0,22,0.0,0,0,8,0.0,3.1,143,10.5,0.62,0.6,100,2.02,24100,12.17,44,0.0,45,0,100,11.85,0,1014,1.61,0.0
2026-03-25 13:00:00.000,84,8.68,0.0,0,10.43,0.0,22,0.0,0,0,7,0.0,2.98,145,10.96,0.55,0.59,100,1.9,24100,11.38,42,0.0,44,0,100,11.16,0,1014,1.53,0.0
2026-03-25 14:00:00.000,86,8.43,0.0,0,9.84,0.0,22,0.0,0,0,7,0.0,2.87,147,11.67,0.51,0.57,94,1.81,24100,10.74,39,0.0,44,0,94,10.6,10,1014,1.53,0.0
2026-03-25 15:00:00.000,88,8.36,0.0,0,9.43,0.0,7,0.0,0,0,7,0.0,2.8,156,12.4,0.49,0.56,56,1.75,24100,10.28,36,0.0,44,0,56,10.21,11,1014,1.54,0.0
2026-03-25 16:00:00.000,89,8.34,0.0,0,9.19,0.0,4,0.0,0,0,6,0.0,2.78,169,13.16,0.55,0.55,18,1.74,24100,10.04,33,0.0,43,0,18,10.01,11,1014,1.56,0.0
2026-03-25 17:00:00.000,89,8.3,0.0,0,9.04,0.0,4,0.0,0,0,6,0.0,2.79,180,13.93,0.67,0.54,10,1.77,24100,9.98,29,0.0,43,0,0,9.96,10,1014,1.6,0.0
2026-03-25 18:00:00.000,88,8.34,0.0,0,9.1,0.0,4,0.0,0,0,7,0.0,2.8,186,14.4,0.81,0.53,10,1.8,24100,10.18,27,0.0,43,0,0,10.1,10,1014,1.61,0.0
2026-03-25 19:00:00.000,88,8.57,0.0,0,9.4,0.0,4,0.0,0,0,7,0.0,2.79,192,14.38,0.95,0.54,10,1.83,24100,10.68,26,0.0,42,0,0,10.44,10,1014,1.56,0.0
2026-03-25 20:00:00.000,86,8.82,0.0,0,9.9,0.0,5,0.0,0,10,7,0.0,2.78,197,14.06,1.06,0.56,10,1.86,24100,11.42,26,0.0,40,0,0,10.95,10,1014,1.48,0.0
2026-03-25 21:00:00.000,84,9.19,0.0,0,10.66,-1.06,14,0.0,1,11,7,0.0,2.8,201,13.7,1.14,0.58,3,1.92,24100,12.37,26,0.0,40,0,0,11.66,0,1014,1.42,0.0
2026-03-25 22:00:00.000,81,9.49,0.0,44,11.68,12.49,14,0.0,1,11,7,0.02,2.87,200,13.34,1.16,0.6,3,2.02,24100,13.58,26,0.0,39,0,0,12.62,0,1014,1.37,87.89
2026-03-25 23:00:00.000,76,9.84,0.0,57,12.99,122.84,2,0.0,1,11,7,0.07,2.97,200,12.94,1.15,0.62,3,2.15,24100,15.07,27,0.0,39,0,0,13.83,0,1015,1.33,347.06
2026-03-26 00:00:00.000,69,9.44,0.0,57,14.58,309.4,2,0.0,1,11,7,0.16,3.1,205,12.6,0.51,0.63,3,2.26,24100,16.6,28,0.0,39,0,0,15.07,0,1015,1.37,619.63
2026-03-26 01:00:00.000,64,9.09,0.0,57,15.44,493.4,2,0.0,1,11,6,0.27,3.28,212,12.34,0.14,0.65,3,2.34,24100,17.62,28,0.01,38,0,0,15.77,0,1015,1.52,851.87
2026-03-26 02:00:00.000,60,8.78,0.0,57,16.33,630.16,2,0.0,1,11,5,0.36,3.49,342,12.14,0.3,0.65,3,2.41,24100,18.49,28,0.01,38,1,0,16.32,0,1014,1.74,1027.96
2026-03-26 03:00:00.000,59,8.68,0.0,57,16.85,708.81,2,0.0,1,11,5,0.41,3.7,337,12.0,0.64,0.66,3,2.48,24100,19.04,28,0.01,39,1,0,16.59,0,1014,1.96,1135.92
2026-03-26 04:00:00.000,57,8.65,0.0,57,17.1,726.63,2,0.0,1,10,4,0.42,3.94,331,11.91,0.94,0.67,3,2.59,24100,19.66,28,0.01,39,1,0,16.98,0,1014,2.17,1168.4
2026-03-26 05:00:00.000,55,8.57,0.0,60,17.19,700.08,1,0.0,1,0,4,0.41,4.18,327,11.9,1.21,0.67,0,2.69,24100,20.35,28,0.02,39,1,0,17.48,0,1014,2.38,1123.21
2026-03-26 06:00:00.000,54,8.45,0.0,60,16.74,605.1,1,0.0,1,0,5,0.35,4.3,326,12.0,1.31,0.66,0,2.72,24100,20.59,28,0.02,40,1,0,17.73,0,1014,2.5,1003.45
2026-03-26 07:00:00.000,54,8.21,0.0,60,16.22,465.67,1,0.0,1,0,5,0.27,4.22,329,12.27,1.08,0.61,0,2.62,24100,20.03,26,0.02,39,1,0,17.44,0,1014,2.49,817.31
2026-03-26 08:00:00.000,56,8.16,0.0,53,15.73,280.95,4,0.0,1,0,5,0.16,4.01,332,12.67,0.72,0.55,10,2.44,24100,18.85,24,0.02,39,0,10,16.72,0,1015,2.39,577.49
2026-03-26 09:00:00.000,60,8.21,0.0,52,15.07,113.47,4,0.0,1,0,6,0.06,3.8,340,13.1,0.37,0.49,11,2.27,24100,17.46,22,0.01,39,0,11,15.8,0,1015,2.27,300.37
2026-03-26 10:00:00.000,65,8.39,0.0,31,14.21,12.76,4,0.0,0,0,6,0.01,3.61,0,13.57,0.16,0.43,11,2.11,24100,15.92,20,0.01,39,0,11,14.75,10,1016,2.14,63.94
2026-03-26 11:00:00.000,71,8.46,0.0,0,13.05,-0.32,4,0.0,0,0,6,0.0,3.4,89,14.07,0.17,0.39,10,1.96,24100,14.23,18,0.01,39,0,10,13.57,10,1016,2.0,0.0
2026-03-26 12:00:00.000,74,8.17,0.0,0,11.87,0.0,4,0.0,0,0,7,0.0,3.2,109,14.5,0.28,0.39,10,1.84,24100,12.81,17,0.01,40,0,10,12.55,10,1016,1.9,0.0
2026-03-26 13:00:00.000,76,7.74,0.0,0,10.89,0.0,4,0.0,0,0,6,0.0,2.99,121,14.81,0.33,0.46,10,1.77,24100,11.77,16,0.01,40,0,10,11.71,10,1016,1.88,0.0
2026-03-26 14:00:00.000,77,7.36,0.0,0,10.14,0.0,4,0.0,0,0,5,0.0,2.77,134,15.04,0.36,0.57,11,1.72,24100,11.05,15,0.0,40,0,10,11.07,11,1016,1.9,0.0
2026-03-26 15:00:00.000,79,7.19,0.0,0,9.61,0.0,4,0.0,0,0,4,0.0,2.6,150,15.2,0.41,0.68,11,1.7,24100,10.56,14,0.0,41,0,0,10.62,11,1016,1.93,0.0
2026-03-26 16:00:00.000,80,7.08,0.0,0,9.27,0.0,4,0.0,0,0,2,0.0,2.49,161,15.33,0.5,0.79,10,1.71,24100,10.31,14,0.0,41,0,0,10.37,10,1016,1.96,0.0
2026-03-26 17:00:00.000,79,6.96,0.0,0,9.08,0.0,1,0.0,0,0,1,0.0,2.42,168,15.37,0.61,0.9,0,1.75,24100,10.27,14,0.0,41,0,0,10.29,0,1016,1.99,0.0
2026-03-26 18:00:00.000,78,6.89,0.0,0,9.12,0.0,1,0.0,0,0,1,0.0,2.4,171,15.2,0.71,0.93,0,1.78,24100,10.46,14,0.0,42,0,0,10.41,0,1016,2.0,0.0
2026-03-26 19:00:00.000,77,6.97,0.0,0,9.4,0.0,1,0.0,0,0,0,0.0,2.42,176,14.68,0.79,0.86,0,1.78,24100,10.87,13,0.0,41,0,0,10.73,0,1016,1.95,0.0
2026-03-26 20:00:00.000,75,7.01,0.0,0,9.9,0.0,2,0.0,0,18,0,0.0,2.49,179,13.94,0.8,0.72,5,1.76,24100,11.47,13,0.0,40,0,0,11.23,0,1016,1.87,0.0
2026-03-26 21:00:00.000,72,7.2,0.0,0,10.67,-1.06,3,0.0,1,56,0,0.0,2.6,180,13.2,0.76,0.58,16,1.78,24100,12.3,13,0.0,40,0,0,11.92,0,1016,1.81,0.0
2026-03-26 22:00:00.000,69,7.33,0.0,32,11.73,13.52,3,0.0,1,94,0,0.02,2.77,171,12.48,0.64,0.46,28,1.85,24100,13.4,13,0.0,39,0,0,12.87,0,1017,1.75,91.16
2026-03-26 23:00:00.000,64,7.52,0.0,40,13.07,116.86,3,0.0,1,100,0,0.07,2.98,151,11.76,0.52,0.33,30,1.95,24100,14.77,13,0.0,39,0,0,14.08,0,1017,1.71,353.4
2026-03-27 00:00:00.000,57,6.87,0.0,40,14.08,275.69,3,0.0,1,100,2,0.15,3.2,67,11.2,0.63,0.27,30,2.08,24100,16.2,13,0.0,39,1,0,15.32,0,1017,1.74,625.59
2026-03-27 01:00:00.000,52,6.43,0.0,40,14.39,434.49,3,0.0,1,100,4,0.25,3.43,60,10.87,1.03,0.35,30,2.26,24100,17.15,13,0.0,38,2,0,16.02,0,1017,1.88,857.38
2026-03-27 02:00:00.000,50,6.14,0.0,40,14.68,546.52,3,0.0,1,100,7,0.32,3.67,54,10.7,1.31,0.51,30,2.48,24100,17.98,13,0.01,38,4,0,16.56,0,1016,2.09,1033.0
2026-03-27 03:00:00.000,49,6.22,0.0,40,15.26,604.1,3,0.0,1,100,11,0.36,3.9,49,10.6,1.37,0.67,30,2.69,24100,18.5,13,0.01,38,5,0,16.84,0,1016,2.3,1140.49
2026-03-27 04:00:00.000,49,6.5,0.0,40,15.75,607.18,3,0.0,1,100,14,0.36,4.14,45,10.58,1.35,0.83,30,2.91,24100,19.11,13,0.01,38,6,0,17.24,0,1016,2.5,1172.55
2026-03-27 05:00:00.000,48,6.8,0.0,40,16.13,564.71,3,0.0,1,100,17,0.34,4.37,41,10.64,1.27,0.99,30,3.12,24100,19.8,14,0.01,38,6,0,17.75,0,1015,2.69,1127.01
2026-03-27 06:00:00.000,48,7.01,0.0,40,16.42,478.18,3,0.0,1,100,20,0.3,4.5,40,10.7,1.18,1.09,30,3.22,24100,20.1,15,0.01,39,5,0,18.02,0,1015,2.8,1006.99
2026-03-27 07:00:00.000,49,6.99,0.0,40,16.26,365.77,3,0.0,1,100,19,0.23,4.47,51,10.72,1.07,1.1,30,3.15,24100,19.66,16,0.01,39,3,0,17.78,0,1015,2.79,820.7
2026-03-27 08:00:00.000,51,7.14,0.0,40,15.72,233.12,6,0.0,1,100,17,0.15,4.34,67,10.74,0.94,1.04,30,2.96,24100,18.64,17,0.01,38,1,0,17.11,29,1016,2.69,580.86
2026-03-27 09:00:00.000,55,7.37,0.0,13,14.96,68.25,9,0.0,1,100,16,0.06,4.2,86,10.8,0.87,0.97,72,2.78,24100,17.41,18,0.01,39,0,0,16.25,72,1016,2.58,303.83
2026-03-27 10:00:00.000,60,7.72,0.0,0,14.09,5.07,22,0.0,1,100,14,0.03,4.08,102,10.93,0.81,0.89,100,2.64,24100,16.03,20,0.01,39,0,0,15.25,100,1016,2.45,65.72
2026-03-27 11:00:00.000,66,7.91,0.0,0,13.0,-0.32,22,0.0,0,100,12,0.0,3.94,117,11.11,0.82,0.79,100,2.51,24100,14.51,21,0.01,39,0,0,14.13,100,1017,2.31,0.0
2026-03-27 12:00:00.000,69,7.73,0.0,0,11.97,0.0,22,0.0,0,100,11,0.0,3.8,126,11.3,0.83,0.71,100,2.39,24100,13.24,22,0.01,40,0,0,13.15,100,1017,2.21,0.0
2026-03-27 13:00:00.000,71,7.42,0.0,0,11.11,0.0,22,0.0,0,100,10,0.0,3.63,132,11.49,0.82,0.66,100,2.27,24100,12.3,22,0.0,40,0,0,12.35,100,1017,2.18,0.0
2026-03-27 14:00:00.000,73,7.16,0.0,0,10.44,0.0,22,0.0,0,100,10,0.0,3.46,136,11.69,0.82,0.63,100,2.18,24100,11.66,22,0.0,39,0,0,11.75,100,1016,2.19,0.0
2026-03-27 15:00:00.000,75,7.11,0.0,0,10.0,0.0,22,0.0,0,100,11,0.0,3.3,142,11.9,0.82,0.6,100,2.11,24100,11.24,22,0.0,40,0,0,11.32,100,1016,2.2,0.0
2026-03-27 16:00:00.000,76,7.14,0.0,0,9.75,0.0,22,0.0,0,100,11,0.0,3.17,149,12.13,0.85,0.58,100,2.09,24100,11.04,22,0.0,40,0,0,11.09,100,1016,2.21,0.0
2026-03-27 17:00:00.000,77,7.16,0.0,0,9.64,0.0,22,0.0,0,100,12,0.0,3.07,156,12.37,0.91,0.56,100,2.1,24100,11.04,21,0.0,40,0,0,11.0,100,1016,2.23,0.0
2026-03-27 18:00:00.000,76,7.19,0.0,0,9.71,0.0,22,0.0,0,100,13,0.0,3.0,161,12.6,0.96,0.56,100,2.11,24100,11.24,22,0.0,41,0,0,11.1,100,1016,2.21,0.0
2026-03-27 19:00:00.000,76,7.32,0.0,0,9.99,0.0,22,0.0,0,100,12,0.0,2.97,168,12.83,0.96,0.58,100,2.1,24100,11.64,23,0.0,40,0,0,11.35,100,1016,2.13,0.0
2026-03-27 20:00:00.000,74,7.38,0.0,0,10.43,0.0,22,0.0,0,100,10,0.0,2.97,175,13.06,0.91,0.61,100,2.1,24100,12.2,24,0.0,39,0,0,11.75,100,1016,2.02,0.0
2026-03-27 21:00:00.000,72,7.6,0.0,0,11.12,-1.06,9,0.0,1,100,9,0.0,3.0,180,13.2,0.86,0.64,72,2.13,24100,12.97,25,0.0,39,0,0,12.34,72,1016,1.93,0.0
2026-03-27 22:00:00.000,69,7.77,0.0,33,12.04,11.98,6,0.0,1,100,7,0.03,3.06,177,13.32,0.8,0.67,30,2.19,24100,13.99,27,0.0,38,0,0,13.18,29,1016,1.85,94.41
2026-03-27 23:00:00.000,65,8.0,0.0,40,13.25,104.57,3,0.0,1,100,6,0.07,3.15,170,13.37,0.72,0.69,30,2.29,24100,15.27,28,0.0,38,0,0,14.28,0,1016,1.79,359.7
2026-03-28 00:00:00.000,59,7.45,0.0,40,14.47,244.45,3,0.0,1,100,6,0.14,3.3,98,13.1,0.39,0.7,30,2.41,24100,16.56,29,0.0,38,1,0,15.4,0,1016,1.83,631.48
2026-03-28 01:00:00.000,55,7.13,0.0,40,14.77,391.18,3,0.0,1,100,5,0.23,3.53,68,12.34,0.68,0.68,30,2.55,24100,17.3,29,0.0,37,2,0,15.99,0,1016,2.04,862.81
2026-03-28 02:00:00.000,53,6.98,0.0,49,14.99,537.53,3,0.0,1,53,5,0.31,3.82,51,11.26,0.92,0.64,16,2.73,24100,17.86,28,0.01,37,4,0,16.42,0,1016,2.36,1037.96
2026-03-28 03:00:00.000,53,7.12,0.0,57,15.72,641.4,2,0.0,1,11,5,0.37,4.1,39,10.2,1.02,0.6,3,2.91,24100,18.13,27,0.01,38,5,0,16.59,0,1016,2.66,1144.99
2026-03-28 04:00:00.000,53,7.37,0.0,60,16.19,664.03,1,0.0,1,0,5,0.39,4.39,29,9.16,1.06,0.56,0,3.12,24100,18.49,26,0.01,38,6,0,16.89,0,1015,2.96,1176.63
2026-03-28 05:00:00.000,52,7.59,0.0,60,16.42,625.37,1,0.0,1,0,6,0.37,4.66,18,8.12,1.06,0.53,0,3.34,24100,18.95,25,0.01,39,6,0,17.31,0,1015,3.24,1130.74
2026-03-28 06:00:00.000,52,7.71,0.0,60,16.2,537.11,1,0.0,1,0,7,0.32,4.8,15,7.4,1.03,0.49,0,3.44,24100,19.09,25,0.01,40,5,0,17.52,0,1015,3.4,1010.47
2026-03-28 07:00:00.000,52,7.58,0.0,60,16.02,409.87,1,0.0,1,0,7,0.24,4.73,26,7.16,0.87,0.44,0,3.34,24100,18.62,24,0.01,40,3,0,17.26,0,1015,3.35,824.04
2026-03-28 08:00:00.000,55,7.58,0.0,60,15.49,260.91,1,0.0,1,0,6,0.15,4.52,46,7.23,0.67,0.4,0,3.11,24100,17.66,23,0.01,41,1,0,16.59,0,1016,3.17,584.18
2026-03-28 09:00:00.000,58,7.67,0.0,49,14.73,96.7,3,0.0,1,56,7,0.06,4.3,75,7.4,0.59,0.37,16,2.88,24100,16.51,23,0.01,42,0,0,15.75,0,1016,2.96,307.26
2026-03-28 10:00:00.000,63,7.89,0.0,25,13.83,10.04,3,0.0,1,100,7,0.02,4.1,97,7.65,0.57,0.34,30,2.69,24080,15.23,22,0.01,43,0,0,14.78,0,1016,2.74,67.49
2026-03-28 11:00:00.000,68,7.98,0.0,0,12.71,-0.32,3,0.0,0,100,8,0.0,3.9,115,8.0,0.64,0.33,30,2.48,24061,13.82,22,0.01,44,0,0,13.69,0,1017,2.49,0.0
2026-03-28 12:00:00.000,71,7.75,0.0,0,11.67,0.0,3,0.0,0,100,9,0.0,3.7,124,8.3,0.69,0.34,30,2.3,24100,12.63,22,0.0,45,0,0,12.74,0,1017,2.3,0.0
2026-03-28 13:00:00.000,73,7.43,0.0,0,10.79,0.0,3,0.0,0,100,9,0.0,3.52,129,8.5,0.71,0.4,30,2.14,24273,11.71,22,0.0,45,0,0,11.95,0,1017,2.21,0.0
2026-03-28 14:00:00.000,75,7.18,0.0,0,10.12,0.0,6,0.0,0,100,9,0.0,3.35,132,8.66,0.73,0.48,30,2.0,24504,11.06,21,0.0,45,0,0,11.36,10,1017,2.17,0.0
2026-03-28 15:00:00.000,77,7.12,0.0,0,9.68,0.0,6,0.0,0,97,10,0.0,3.2,137,8.8,0.75,0.57,29,1.89,24620,10.61,21,0.0,45,0,0,10.94,11,1017,2.15,0.0
2026-03-28 16:00:00.000,78,7.11,0.0,0,9.43,0.0,6,0.0,0,56,10,0.0,3.07,143,8.95,0.79,0.65,16,1.82,24624,10.38,21,0.0,44,0,0,10.73,11,1016,2.13,0.0
2026-03-28 17:00:00.000,78,7.07,0.0,0,9.33,0.0,5,0.0,0,11,10,0.0,2.97,148,9.07,0.85,0.73,10,1.78,24513,10.35,21,0.0,44,0,0,10.67,10,1016,2.13,0.0
2026-03-28 18:00:00.000,77,7.09,0.0,0,9.43,0.0,4,0.0,0,0,11,0.0,2.9,153,9.1,0.9,0.76,10,1.75,24100,10.5,21,0.0,44,0,0,10.81,10,1016,2.11,0.0
2026-03-28 19:00:00.000,77,7.33,0.0,0,9.79,0.0,4,0.0,0,0,11,0.0,2.87,160,8.99,0.92,0.71,10,1.71,23292,10.82,21,0.0,42,0,0,11.12,10,1016,2.06,0.0
2026-03-28 20:00:00.000,76,7.57,0.0,0,10.34,0.0,4,0.0,0,0,11,0.0,2.87,167,8.78,0.89,0.6,10,1.67,22182,11.31,21,0.0,41,0,0,11.59,10,1016,2.0,0.0
2026-03-28 21:00:00.000,74,7.93,0.0,0,11.13,-1.06,1,0.0,1,0,11,0.0,2.9,174,8.5,0.87,0.49,0,1.66,20860,12.0,21,0.0,40,0,0,12.27,0,1017,1.95,0.0
2026-03-28 22:00:00.000,71,8.19,0.0,49,12.15,17.08,1,0.0,1,0,11,0.02,2.98,172,8.21,0.83,0.39,0,1.7,19408,12.96,21,0.0,39,0,0,13.21,0,1017,1.91,97.65
2026-03-28 23:00:00.000,67,8.48,0.0,60,13.47,135.8,1,0.0,1,0,11,0.08,3.1,167,7.86,0.78,0.29,0,1.78,17743,14.19,21,0.0,38,0,0,14.42,0,1017,1.89,365.97
2026-03-29 00:00:00.000,60,7.96,0.0,60,14.86,313.26,1,0.0,1,0,11,0.17,3.2,112,7.3,0.41,0.22,0,1.86,15700,15.46,21,0.0,38,1,0,15.68,0,1017,1.93,637.33
2026-03-29 01:00:00.000,55,7.6,0.0,60,15.46,493.57,1,0.0,1,0,9,0.28,3.28,83,6.4,0.54,0.21,0,1.95,13035,16.22,20,0.0,38,2,0,16.46,0,1017,2.08,868.2
2026-03-29 02:00:00.000,52,7.35,0.0,60,16.53,627.58,1,0.0,1,0,8,0.36,3.34,62,5.3,0.59,0.23,0,2.05,9991,16.83,19,0.0,39,4,0,17.12,0,1017,2.29,1042.86
2026-03-29 03:00:00.000,51,7.4,0.0,60,17.49,704.53,1,0.0,1,0,7,0.41,3.4,42,4.3,0.52,0.27,0,2.16,7130,17.18,17,0.0,40,5,0,17.5,0,1016,2.5,1149.42
2026-03-29 04:00:00.000,50,7.59,0.0,60,18.18,721.3,1,0.0,1,0,5,0.43,3.46,15,3.38,0.48,0.31,0,2.31,4388,17.65,16,0.0,41,6,0,18.0,0,1016,2.7,1180.64
2026-03-29 05:00:00.000,49,7.75,0.0,60,18.54,684.09,1,0.0,1,0,4,0.41,3.51,347,2.56,0.53,0.37,0,2.46,1829,18.23,15,0.0,42,6,0,18.61,0,1016,2.89,1134.41
2026-03-29 06:00:00.000,48,7.84,0.0,60,18.26,592.32,1,0.0,1,0,4,0.36,3.5,335,2.2,0.54,0.44,0,2.52,200,18.56,15,0.0,43,5,0,18.93,0,1016,3.0,1013.89
2026-03-29 07:00:00.000,49,7.75,0.0,60,17.85,450.09,1,0.0,1,0,3,0.27,3.37,338,2.55,0.32,0.51,0,2.43,0,18.36,14,0.0,43,3,0,18.66,0,1016,2.97,827.34
2026-03-29 08:00:00.000,51,7.86,0.0,60,17.33,285.61,1,0.0,1,0,3,0.16,3.18,52,3.37,0.04,0.59,0,2.25,722,17.71,14,0.0,43,1,0,17.91,0,1016,2.86,587.47
2026-03-29 09:00:00.000,55,8.04,0.0,60,16.25,117.25,1,0.0,1,0,3,0.06,3.0,145,4.3,0.3,0.67,0,2.08,1640,16.88,14,0.0,43,0,0,16.97,0,1016,2.73,310.68
2026-03-29 10:00:00.000,60,8.32,0.0,38,15.09,13.85,1,0.0,1,0,3,0.02,2.84,149,5.34,0.51,0.76,0,1.95,2748,15.91,14,0.0,43,0,0,15.89,0,1016,2.58,69.25
2026-03-29 11:00:00.000,66,8.43,0.0,0,13.76,-0.32,1,0.0,0,0,3,0.0,2.7,147,6.49,0.72,0.86,0,1.83,4048,14.82,14,0.0,43,0,0,14.68,0,1016,2.42,0.0
2026-03-29 12:00:00.000,69,8.21,0.0,0,12.59,0.0,1,0.0,0,0,4,0.0,2.6,146,7.4,0.84,0.93,0,1.72,4800,13.88,15,0.0,44,0,0,13.65,0,1017,2.3,0.0
2026-03-29 13:00:00.000,71,7.91,0.0,0,11.71,0.0,1,0.0,0,0,4,0.0,2.56,146,7.87,0.85,0.98,0,1.63,4510,13.14,14,0.0,43,0,0,12.85,0,1016,2.25,0.0
2026-03-29 14:00:00.000,73,7.68,0.0,0,11.09,0.0,1,0.0,0,0,4,0.0,2.56,147,8.1,0.84,1.0,0,1.56,3673,12.6,14,0.0,43,0,0,12.28,0,1016,2.24,0.0
2026-03-29 15:00:00.000,75,7.66,0.0,0,10.68,0.0,1,0.0,0,0,5,0.0,2.6,152,8.3,0.85,1.01,0,1.53,3030,12.24,13,0.0,43,0,0,11.89,0,1016,2.24,0.0
2026-03-29 16:00:00.000,76,7.65,0.0,0,10.42,0.0,1,0.0,0,0,5,0.0,2.7,157,8.53,0.95,1.03,0,1.55,2557,12.08,13,0.0,43,0,0,11.7,0,1015,2.24,0.0
2026-03-29 17:00:00.000,76,7.62,0.0,0,10.29,0.0,1,0.0,0,0,6,0.0,2.84,162,8.74,1.1,1.03,0,1.62,2278,12.08,13,0.01,43,0,0,11.67,0,1015,2.24,0.0
2026-03-29 18:00:00.000,75,7.68,0.0,0,10.34,0.0,1,0.0,0,0,7,0.0,3.0,165,9.0,1.24,0.99,0,1.7,3000,12.22,13,0.01,43,0,0,11.81,0,1015,2.21,0.0
2026-03-29 19:00:00.000,76,8.02,0.0,0,10.61,0.0,1,0.0,0,0,6,0.0,3.15,170,9.34,1.35,0.87,0,1.78,5302,12.47,14,0.01,42,0,0,12.07,0,1015,2.14,0.0
2026-03-29 20:00:00.000,76,8.39,0.0,0,11.06,0.0,1,0.0,0,0,6,0.0,3.31,173,9.73,1.41,0.7,0,1.86,8605,12.83,14,0.01,41,0,0,12.47,0,1015,2.04,0.0
2026-03-29 21:00:00.000,75,8.89,0.0,0,11.75,-1.06,2,0.0,1,36,6,0.01,3.5,176,10.1,1.46,0.54,10,1.97,11970,13.42,15,0.01,41,0,0,13.06,0,1015,1.96,0.0
2026-03-29 22:00:00.000,73,9.3,0.0,40,12.66,13.85,3,0.0,1,64,5,0.03,3.73,174,10.47,1.53,0.4,19,2.11,15367,14.27,16,0.01,40,0,0,13.91,0,1016,1.88,100.88
2026-03-29 23:00:00.000,70,9.76,0.0,42,13.86,102.76,3,0.0,1,91,6,0.07,3.97,171,10.83,1.59,0.26,27,2.28,18827,15.41,17,0.01,40,0,0,15.03,0,1016,1.81,372.21
2026-03-30 00:00:00.000,64,9.42,0.0,40,15.26,228.52,3,0.0,1,100,6,0.14,4.2,155,11.1,1.16,0.19,30,2.47,21500,16.7,18,0.01,40,1,0,16.22,0,1016,1.8,643.14
2026-03-30 01:00:00.000,60,9.14,0.0,40,15.95,369.6,3,0.0,1,100,5,0.22,4.39,142,11.23,1.11,0.23,30,2.69,22926,17.67,19,0.02,39,2,0,16.95,0,1016,1.88,873.54
2026-03-30 02:00:00.000,56,8.9,0.0,40,16.59,474.36,3,0.0,1,100,5,0.29,4.55,135,11.26,0.98,0.33,30,2.93,23565,18.62,19,0.02,38,3,0,17.57,0,1015,2.01,1047.71
2026-03-30 03:00:00.000,55,8.9,0.0,40,17.06,534.47,3,0.0,1,100,5,0.33,4.7,138,11.3,0.83,0.44,30,3.18,23950,19.28,20,0.02,38,5,0,17.93,0,1015,2.14,1153.8
2026-03-30 04:00:00.000,54,9.02,0.0,40,17.65,547.9,6,0.0,1,100,5,0.34,4.87,151,11.35,0.71,0.56,30,3.46,24170,20.04,21,0.02,37,5,10,18.41,0,1014,2.27,1184.59
2026-03-30 05:00:00.000,52,9.09,0.0,40,18.3,520.78,6,0.0,1,100,5,0.33,5.04,171,11.4,0.67,0.69,30,3.74,24134,20.91,22,0.03,37,5,10,19.01,0,1014,2.41,1138.01
2026-03-30 06:00:00.000,51,9.09,0.0,40,18.59,451.38,6,0.0,1,100,6,0.29,5.1,182,11.5,0.71,0.77,30,3.89,24100,21.35,23,0.03,38,4,10,19.33,0,1014,2.49,1017.26
2026-03-30 07:00:00.000,51,8.9,0.0,40,18.24,350.75,6,0.0,1,100,6,0.22,5.0,175,11.68,0.79,0.78,30,3.83,24164,21.0,23,0.03,38,3,10,19.08,0,1014,2.49,830.59
2026-03-30 08:00:00.000,53,8.9,0.0,45,17.47,238.21,6,0.0,1,77,7,0.15,4.8,168,11.91,0.88,0.73,23,3.65,24230,20.06,23,0.03,38,1,11,18.37,0,1014,2.45,590.74
2026-03-30 09:00:00.000,57,9.03,0.0,52,16.53,108.72,5,0.0,1,26,9,0.08,4.6,163,12.1,0.99,0.69,11,3.44,24260,18.89,23,0.03,39,0,11,17.47,0,1015,2.39,314.08
2026-03-30 10:00:00.000,62,9.35,0.0,34,15.53,13.49,2,0.0,1,33,10,0.03,4.43,163,12.29,1.04,0.64,10,3.23,24224,17.56,22,0.03,39,0,0,16.43,0,1015,2.33,71.01
2026-03-30 11:00:00.000,68,9.55,0.0,0,14.38,-0.32,2,0.0,0,17,12,0.0,4.26,161,12.44,1.09,0.6,5,3.01,24153,16.08,22,0.03,40,0,0,15.25,0,1015,2.26,0.0
2026-03-30 12:00:00.000,72,9.4,0.0,0,13.34,0.0,1,0.0,0,0,13,0.0,4.1,159,12.4,1.06,0.57,0,2.82,24100,14.82,22,0.02,41,0,0,14.24,0,1015,2.21,0.0
2026-03-30 13:00:00.000,75,9.13,0.0,0,12.51,0.0,2,0.0,0,16,12,0.0,3.95,160,12.05,0.98,0.19,4,2.69,24088,13.85,21,0.02,40,0,0,13.43,0,1015,2.21,0.0
2026-03-30 14:00:00.000,77,8.92,0.0,0,11.91,0.0,2,0.0,0,32,11,0.0,3.81,161,11.51,0.9,0.21,9,2.61,24094,13.16,19,0.02,40,0,0,12.82,0,1015,2.23,0.0
2026-03-30 15:00:00.000,79,8.91,0.0,0,11.49,0.0,2,0.0,0,49,10,0.0,3.7,166,11.0,0.88,0.23,14,2.56,24100,12.67,17,0.01,40,0,0,12.39,0,1015,2.25,0.0
2026-03-30 16:00:00.000,80,8.93,0.0,0,11.2,0.0,6,0.0,0,67,8,0.0,3.61,172,10.51,0.96,0.27,20,2.53,24100,12.4,15,0.01,40,0,10,12.15,0,1014,2.27,0.0
2026-03-30 17:00:00.000,81,8.93,0.0,0,11.02,0.0,6,0.0,0,86,7,0.0,3.54,177,10.04,1.09,0.3,25,2.53,24100,12.32,13,0.01,40,0,10,12.07,0,1014,2.3,0.0
2026-03-30 18:00:00.000,80,8.95,0.0,0,11.03,0.0,15,0.0,0,100,6,0.0,3.5,179,9.8,1.21,0.33,30,2.52,24100,12.46,12,0.0,40,0,0,12.15,0,1014,2.31,0.0
2026-03-30 19:00:00.000,80,9.1,0.0,0,11.26,0.0,15,0.0,0,100,5,0.0,3.47,183,9.92,1.25,0.36,30,2.5,24100,12.81,12,0.0,39,0,0,12.37,0,1014,2.28,0.0
2026-03-30 20:00:00.000,79,9.21,0.0,0,11.67,0.0,3,0.0,0,100,5,0.0,3.47,187,10.27,1.22,0.37,30,2.47,24100,13.35,12,0.0,38,0,0,12.72,0,1014,2.23,0.0
2026-03-30 21:00:00.000,77,9.48,0.0,0,12.32,-1.06,3,0.0,1,100,5,0.0,3.5,190,10.7,1.18,0.4,30,2.47,24100,14.09,14,0.0,38,0,0,13.27,0,1014,2.21,0.0
2026-03-30 22:00:00.000,75,9.72,0.0,35,13.22,13.96,3,0.0,1,100,4,0.03,3.58,186,11.19,1.11,0.44,30,2.5,24100,15.1,15,0.0,37,0,0,14.07,0,1014,2.2,104.1
2026-03-30 23:00:00.000,71,10.04,0.0,40,14.41,105.83,3,0.0,1,100,4,0.07,3.69,179,11.75,1.05,0.48,30,2.55,24100,16.37,17,0.0,38,0,0,15.12,0,1015,2.21,378.42
2026-03-31 00:00:00.000,65,9.64,0.0,40,15.75,233.64,3,0.0,1,100,5,0.14,3.8,148,12.3,0.54,0.53,30,2.61,24100,17.69,19,0.01,38,1,0,16.21,0,1015,2.33,648.92
