time,relativehumidity,dewpointtemperature,precipitation,sunshinetime,felttemperature,ghi_backwards,pictocode,snowfraction,isdaylight,highclouds,cape,referenceevapotranspiration_fao,gust,winddirection,liftedindex,windspeed,precipitation_spread,totalcloudcover,windspeed_spread,visibility,skintemperature,precipitation_probability,evapotranspiration,totalcloudcover_spread,uvindex,lowclouds,temperature,midclouds,sealevelpressure,temperature_spread,extraterrestrialradiation_backwards
2026-05-21 00:00:00.000,74,19.68,1.75,1,25.53,102.0,28,0.0,1,97,1191,0.12,10.35,228,-1.99,3.71,1.18,92,0.57,10020,22.79,79,0.08,0,1,92,24.42,91,1006,0.3,829.33
2026-05-21 01:00:00.000,74,19.55,1.63,0,25.58,125.11,28,0.0,1,98,1113,0.14,10.07,230,-1.69,3.63,1.18,98,0.6,9820,22.72,80,0.07,0,1,98,24.49,92,1006,0.33,1034.06
2026-05-21 02:00:00.000,74,19.41,1.44,0,25.3,179.07,28,0.0,1,99,1035,0.17,10.15,237,-1.14,3.57,1.19,100,0.66,3620,22.76,77,0.07,0,1,100,24.22,93,1006,0.37,1185.63
2026-05-21 03:00:00.000,76,19.36,1.2,0,24.94,245.32,28,0.0,1,100,957,0.2,10.6,247,-0.98,3.44,1.17,100,0.72,20,23.59,72,0.04,0,1,100,23.8,94,1006,0.4,1273.71
2026-05-21 04:00:00.000,77,19.18,0.84,0,24.57,218.49,28,0.0,1,100,679,0.18,8.91,268,-0.41,3.18,1.14,99,0.78,20,22.23,65,0.01,0,1,99,23.32,88,1006,0.4,1292.34
2026-05-21 05:00:00.000,78,18.94,0.42,0,24.19,189.99,33,0.0,1,99,360,0.16,8.45,260,2.13,2.85,1.09,98,0.85,20,23.08,55,0.03,0,1,98,22.84,72,1005,0.38,1240.24
2026-05-21 06:00:00.000,78,18.49,0.11,5,23.63,175.8,33,0.0,1,96,210,0.14,8.0,250,4.11,2.64,1.04,85,0.89,9020,25.36,47,0.25,0,2,85,22.34,72,1005,0.4,1120.99
2026-05-21 07:00:00.000,79,18.14,0.0,20,22.92,291.0,9,0.0,1,86,130,0.2,7.75,256,5.78,2.59,0.99,61,0.89,10020,24.82,41,0.24,3,4,61,21.75,53,1005,0.5,942.73
2026-05-21 08:00:00.000,82,17.9,0.0,34,22.1,320.62,9,0.0,1,74,76,0.2,7.51,269,6.73,2.62,0.93,40,0.87,10020,23.72,30,0.16,7,2,40,21.06,8,1006,0.63,717.62
2026-05-21 09:00:00.000,86,17.83,0.0,28,21.26,152.12,9,0.0,1,66,42,0.1,7.45,269,6.43,2.61,0.89,49,0.89,9420,22.49,21,0.11,11,1,49,20.25,0,1006,0.71,461.0
2026-05-21 10:00:00.000,90,17.8,0.0,9,20.49,45.32,21,0.0,1,68,46,0.03,7.38,268,6.68,2.36,0.87,79,1.02,1020,20.58,11,0.04,10,0,79,19.32,0,1006,0.67,190.38
2026-05-21 11:00:00.000,94,17.71,0.0,0,19.97,0.35,22,0.0,0,75,55,0.02,6.57,274,7.24,1.97,0.87,97,1.2,420,20.0,7,0.01,9,0,97,18.56,0,1007,0.57,14.66
2026-05-21 12:00:00.000,97,17.6,0.0,0,19.54,0.0,22,0.0,0,78,61,0.0,6.0,287,8.54,1.77,0.86,98,1.3,230,19.19,7,0.01,9,0,98,18.04,0,1007,0.5,0.0
2026-05-21 13:00:00.000,97,17.42,0.0,0,19.2,0.0,22,0.0,0,68,70,0.0,6.2,281,9.93,1.8,0.83,93,1.27,290,17.81,10,0.0,11,0,93,17.8,0,1008,0.48,0.0
2026-05-21 14:00:00.000,97,17.2,0.0,0,18.74,0.0,22,0.0,0,54,75,0.0,5.92,267,10.97,1.98,0.79,91,1.17,280,17.23,18,0.0,14,0,91,17.55,0,1008,0.49,0.0
2026-05-21 15:00:00.000,97,16.98,0.0,0,18.34,0.0,22,0.0,0,46,79,0.0,5.75,265,11.53,2.05,0.75,92,1.08,280,17.31,26,0.01,16,0,92,17.31,0,1008,0.5,0.0
2026-05-21 16:00:00.000,97,16.73,0.0,0,18.06,0.0,22,0.0,0,54,80,0.0,5.07,276,12.54,1.95,0.73,90,1.02,480,17.04,31,0.02,14,0,90,17.06,0,1008,0.5,0.0
2026-05-21 17:00:00.000,97,16.47,0.0,0,17.8,0.0,21,0.0,0,69,85,0.0,4.6,284,13.36,1.81,0.72,86,0.97,880,16.61,30,0.03,10,0,86,16.81,0,1008,0.5,0.0
2026-05-21 18:00:00.000,96,16.19,0.0,0,17.71,0.0,21,0.0,0,73,85,0.0,3.85,283,12.92,1.64,0.69,82,0.92,880,16.63,26,0.02,10,0,82,16.72,1,1009,0.5,0.0
2026-05-21 19:00:00.000,94,16.0,0.0,0,17.96,0.0,9,0.0,0,53,57,0.0,2.96,289,12.6,1.51,0.66,74,0.87,450,16.74,21,0.02,15,0,74,16.95,21,1009,0.47,0.0
2026-05-21 20:00:00.000,89,15.84,0.0,0,18.56,0.0,8,0.0,1,22,52,0.0,3.11,337,12.04,1.45,0.61,72,0.81,230,17.01,20,0.01,22,0,72,17.58,31,1009,0.44,0.0
2026-05-21 21:00:00.000,83,15.61,0.0,6,19.26,14.51,19,0.0,1,0,52,0.03,3.15,28,12.27,1.64,0.58,80,0.78,30,17.87,18,0.01,27,0,80,18.51,56,1010,0.5,78.84
2026-05-21 22:00:00.000,76,15.27,0.0,6,19.82,72.79,19,0.0,1,0,42,0.07,4.61,35,12.82,2.14,0.56,83,0.8,220,18.56,16,0.05,24,0,83,19.54,57,1010,0.74,320.56
2026-05-21 23:00:00.000,70,14.92,0.0,8,20.34,159.69,19,0.0,1,0,41,0.13,5.66,35,13.08,2.67,0.54,81,0.84,30,19.24,15,0.08,17,0,81,20.57,51,1011,1.06,586.72
2026-05-22 00:00:00.000,64,14.41,0.0,10,20.65,277.95,19,0.0,1,2,37,0.21,6.65,33,13.22,3.12,0.53,78,0.85,30,19.92,13,0.09,13,1,78,21.38,30,1011,1.3,830.32
2026-05-22 01:00:00.000,61,14.18,0.0,14,20.88,318.96,7,0.0,1,1,34,0.25,7.44,30,13.26,3.43,0.53,71,0.79,230,20.58,12,0.1,12,2,71,21.92,13,1011,1.36,1034.79
2026-05-22 02:00:00.000,60,14.08,0.0,15,21.12,590.7,7,0.0,1,0,34,0.39,8.03,29,12.7,3.74,0.53,70,0.71,230,20.93,9,0.09,13,3,70,22.21,3,1011,1.34,1186.18
2026-05-22 03:00:00.000,59,14.13,0.0,14,21.51,692.46,7,0.0,1,0,37,0.44,8.65,27,12.31,4.05,0.53,70,0.67,1030,22.23,8,0.1,14,5,70,22.29,6,1011,1.3,1274.22
2026-05-22 04:00:00.000,60,14.16,0.0,12,21.34,714.39,7,0.0,1,0,38,0.45,9.29,25,12.14,4.31,0.54,75,0.7,9430,22.79,7,0.1,14,6,75,22.2,11,1011,1.27,1292.91
2026-05-22 05:00:00.000,61,14.31,0.0,17,20.7,669.48,7,0.0,1,0,31,0.42,9.58,25,12.6,4.58,0.54,66,0.77,10020,22.91,8,0.11,15,7,66,21.92,8,1010,1.24,1240.99
2026-05-22 06:00:00.000,63,14.31,0.0,19,19.96,621.67,7,0.0,1,0,30,0.39,9.6,26,13.21,4.69,0.54,64,0.81,10220,22.66,8,0.12,16,5,64,21.5,5,1010,1.21,1122.02
2026-05-22 07:00:00.000,66,14.37,0.0,23,19.02,430.52,7,0.0,1,0,24,0.28,9.26,29,12.66,4.74,0.52,57,0.79,10220,22.03,8,0.11,17,3,57,20.9,1,1010,1.21,944.11
2026-05-22 08:00:00.000,69,14.53,0.0,24,18.39,334.61,7,0.0,1,0,30,0.22,9.31,31,12.34,4.75,0.5,55,0.74,10020,21.05,5,0.09,18,2,55,20.22,5,1010,1.21,719.42
2026-05-22 09:00:00.000,73,14.75,0.0,21,17.87,199.32,7,0.0,1,0,28,0.14,9.65,34,12.48,4.6,0.48,60,0.72,9220,18.9,4,0.05,19,1,60,19.52,9,1010,1.21,463.25
2026-05-22 10:00:00.000,77,14.84,0.0,25,17.48,64.12,7,0.0,1,5,20,0.07,8.8,38,12.6,4.31,0.47,54,0.75,9030,17.39,4,0.03,18,0,54,18.88,12,1010,1.18,193.07
2026-05-22 11:00:00.000,80,14.89,0.0,9,17.3,1.25,8,0.0,0,12,26,0.05,8.44,41,12.37,3.83,0.46,44,0.8,8840,17.06,4,0.02,17,0,44,18.35,29,1010,1.15,16.1
2026-05-22 12:00:00.000,82,14.96,0.0,0,17.27,0.0,8,0.0,0,15,30,0.02,8.1,42,12.03,3.39,0.48,48,0.85,640,16.98,4,0.01,17,0,48,17.99,45,1011,1.11,0.0
2026-05-22 13:00:00.000,83,14.92,0.0,0,17.4,0.0,8,0.0,0,11,26,0.01,6.85,50,12.18,2.89,0.55,47,0.9,870,16.73,4,0.01,19,0,47,17.78,27,1010,1.08,0.0
2026-05-22 14:00:00.000,83,14.89,0.0,0,17.56,0.0,7,0.0,0,3,19,0.01,5.7,52,12.39,2.45,0.65,57,0.94,7880,16.6,4,0.01,23,0,57,17.65,50,1010,1.04,0.0
2026-05-22 15:00:00.000,84,14.96,0.0,0,17.83,0.0,7,0.0,0,0,16,0.0,4.6,62,12.48,1.94,0.76,58,0.95,8890,16.44,3,0.01,25,0,58,17.54,46,1010,1.0,0.0
2026-05-22 16:00:00.000,85,14.99,0.0,0,17.88,0.0,7,0.0,0,2,10,0.0,4.06,72,12.83,1.72,0.87,61,0.92,6480,16.19,3,0.01,22,0,61,17.42,39,1010,0.94,0.0
2026-05-22 17:00:00.000,85,14.94,0.0,0,17.93,0.0,7,0.0,0,8,6,0.0,3.32,81,12.43,1.53,0.98,59,0.86,3080,15.73,3,0.01,18,0,59,17.35,32,1010,0.86,0.0
2026-05-22 18:00:00.000,85,14.87,0.0,0,17.99,0.0,8,0.0,0,20,6,0.0,3.5,85,10.82,1.38,1.08,47,0.81,480,15.44,3,0.01,17,0,47,17.33,15,1010,0.8,0.0
2026-05-22 19:00:00.000,84,14.88,0.0,0,18.38,0.0,8,0.0,0,45,5,0.0,2.75,91,9.79,1.19,1.16,46,0.74,840,15.53,4,0.01,21,0,46,17.59,0,1010,0.75,0.0
2026-05-22 20:00:00.000,80,14.87,0.0,0,19.1,0.0,9,0.0,1,75,6,0.0,2.35,100,9.17,1.01,1.23,54,0.66,9220,15.34,4,0.0,28,0,54,18.19,0,1010,0.72,0.0
2026-05-22 21:00:00.000,75,14.81,0.0,14,20.17,20.45,9,0.0,1,98,8,0.02,2.58,122,8.92,0.94,1.28,64,0.64,9820,17.49,4,0.01,33,0,64,19.23,0,1010,0.71,79.81
2026-05-22 22:00:00.000,68,14.7,0.0,22,21.59,129.11,9,0.0,1,100,10,0.08,3.29,107,8.42,0.83,1.33,58,0.69,11020,22.21,5,0.05,30,0,58,20.61,10,1010,0.68,322.32
2026-05-22 23:00:00.000,62,14.57,0.0,24,23.1,258.9,9,0.0,1,100,11,0.17,3.29,57,8.54,0.77,1.37,55,0.8,12220,24.06,5,0.09,24,1,49,22.13,55,1010,0.67,588.06
2026-05-23 00:00:00.000,56,14.28,0.0,23,24.29,417.66,9,0.0,1,100,14,0.28,2.85,1,8.08,0.8,1.38,56,0.94,13230,29.19,5,0.14,21,2,50,23.45,56,1010,0.83,831.31
2026-05-23 01:00:00.000,53,14.25,0.0,26,25.1,551.72,9,0.0,1,100,22,0.38,3.61,342,7.76,0.94,1.35,52,1.13,13630,28.01,6,0.18,21,4,52,24.36,52,1010,1.29,1035.51
2026-05-23 02:00:00.000,52,14.31,0.0,28,25.52,575.36,9,0.0,1,100,31,0.4,4.62,321,7.11,1.23,1.3,49,1.35,13430,31.83,7,0.14,23,6,48,24.81,49,1010,1.92,1186.74
2026-05-23 03:00:00.000,52,14.49,0.0,26,26.1,670.24,9,0.0,1,100,41,0.47,5.05,329,6.33,1.43,1.32,52,1.56,13620,29.33,11,0.18,24,5,44,24.89,52,1010,2.43,1274.72
2026-05-23 04:00:00.000,53,14.69,0.0,28,25.76,655.53,9,0.0,1,82,31,0.46,5.15,351,6.38,1.52,1.46,49,1.7,12420,27.12,16,0.15,19,7,36,24.64,49,1009,2.75,1293.47
2026-05-23 05:00:00.000,56,15.01,0.0,19,25.87,750.18,9,0.0,1,57,26,0.5,5.02,353,4.46,1.65,1.67,63,1.81,11020,23.28,19,0.11,12,7,16,24.15,63,1009,2.95,1241.73
2026-05-23 06:00:00.000,59,15.2,0.0,20,24.41,606.03,8,0.0,1,41,21,0.41,4.65,339,5.27,1.67,1.85,62,1.92,10420,22.4,20,0.06,8,6,31,23.5,62,1009,3.0,1123.03
2026-05-23 07:00:00.000,63,15.5,0.0,34,23.36,521.11,5,0.0,1,40,46,0.34,3.2,338,3.74,1.78,1.98,39,2.04,10420,22.45,21,0.05,8,5,39,22.74,34,1009,2.85,945.49
2026-05-23 08:00:00.000,68,15.81,0.0,34,22.59,379.19,5,0.0,1,47,88,0.24,3.4,346,5.8,1.89,2.08,39,2.15,9820,21.56,22,0.05,12,2,39,21.92,37,1009,2.54,721.21
2026-05-23 09:00:00.000,73,16.16,0.0,21,22.02,206.02,9,0.0,1,53,130,0.13,3.3,2,5.41,1.82,2.09,60,2.2,9620,20.4,26,0.06,16,1,40,21.17,60,1009,2.21,465.49
2026-05-23 10:00:00.000,77,16.51,0.0,20,21.6,59.71,9,0.0,1,56,197,0.05,2.76,16,6.06,1.7,1.94,61,2.16,9220,19.62,27,0.04,18,0,45,20.52,61,1009,1.86,195.76
2026-05-23 11:00:00.000,81,16.83,0.0,7,21.29,1.24,9,0.0,0,58,264,0.03,4.32,21,4.99,1.59,1.69,56,2.06,9230,18.7,28,0.02,20,0,56,20.0,38,1009,1.49,17.55
2026-05-23 12:00:00.000,85,17.12,0.0,0,21.02,0.0,9,0.0,0,55,331,0.0,4.2,22,2.32,1.5,1.49,57,1.91,8840,18.78,25,0.01,22,0,57,19.53,43,1009,1.21,0.0
2026-05-23 13:00:00.000,89,17.32,0.0,0,20.81,0.0,8,0.0,0,43,227,0.0,3.53,26,3.96,1.35,1.41,56,1.66,470,18.8,20,0.01,23,0,56,19.14,43,1009,1.08,0.0
2026-05-23 14:00:00.000,92,17.47,0.0,0,20.48,0.0,8,0.0,0,27,123,0.0,2.18,23,5.77,1.34,1.38,54,1.36,270,18.7,17,0.0,24,0,54,18.74,39,1009,1.03,0.0
2026-05-23 15:00:00.000,94,17.53,0.0,0,20.12,0.0,8,0.0,0,15,20,0.0,2.9,15,6.39,1.38,1.35,53,1.14,280,18.41,15,0.0,25,0,53,18.38,46,1010,1.0,0.0
2026-05-23 16:00:00.000,97,17.56,0.0,0,19.76,0.0,7,0.0,0,9,23,0.0,3.13,10,6.67,1.39,1.27,63,1.07,670,18.26,15,0.0,23,0,62,18.02,63,1009,0.96,0.0
2026-05-23 17:00:00.000,98,17.46,0.0,0,19.48,0.0,16,0.0,0,7,39,0.0,3.04,1,6.69,1.35,1.19,70,1.09,870,18.25,13,0.0,21,0,70,17.75,55,1009,0.92,0.0
2026-05-23 18:00:00.000,97,17.36,0.0,0,19.43,0.0,17,0.0,0,10,54,0.0,3.2,8,6.56,1.38,1.13,67,1.13,870,18.27,11,0.02,21,0,67,17.76,36,1009,0.9,0.0
2026-05-23 19:00:00.000,94,17.34,0.0,0,19.85,0.0,17,0.0,0,21,57,0.0,2.79,16,6.62,1.45,1.14,72,1.17,440,18.08,10,0.01,23,0,72,18.24,30,1009,0.86,0.0
2026-05-23 20:00:00.000,88,17.23,0.0,0,20.74,0.0,17,0.0,1,38,61,0.0,3.12,39,6.7,1.49,1.18,73,1.23,420,17.94,9,0.0,27,0,73,19.21,10,1009,0.83,0.0
2026-05-23 21:00:00.000,81,17.08,0.0,12,21.86,18.96,18,0.0,1,55,53,0.03,3.23,57,6.91,1.56,1.21,69,1.28,230,18.71,9,0.0,30,0,69,20.45,3,1009,0.89,80.78
2026-05-23 22:00:00.000,73,16.82,0.0,21,23.05,119.3,18,0.0,1,71,45,0.09,3.3,54,7.21,1.62,1.24,60,1.31,430,20.09,9,0.07,31,0,60,21.78,0,1010,1.08,324.07
2026-05-23 23:00:00.000,66,16.56,0.0,22,24.11,254.41,9,0.0,1,88,42,0.18,3.24,38,7.24,1.77,1.26,58,1.32,230,21.59,9,0.12,31,1,58,23.06,0,1010,1.35,589.4
2026-05-24 00:00:00.000,61,16.17,0.0,17,24.85,352.9,9,0.0,1,100,35,0.26,3.35,25,7.02,1.93,1.26,66,1.35,1030,23.15,9,0.15,32,2,66,24.07,1,1010,1.64,832.3
2026-05-24 01:00:00.000,58,16.13,0.0,21,25.3,406.46,9,0.0,1,100,36,0.3,3.65,21,6.57,2.15,1.22,60,1.39,2830,24.62,9,0.16,32,4,59,24.69,60,1010,1.96,1036.22
2026-05-24 02:00:00.000,57,16.09,0.0,24,25.38,516.11,9,0.0,1,100,45,0.38,4.13,16,6.18,2.44,1.15,55,1.44,1220,26.07,11,0.14,33,6,55,24.99,55,1010,2.3,1187.29
2026-05-24 03:00:00.000,58,16.17,0.0,26,25.5,604.28,9,0.0,1,100,58,0.43,4.7,12,5.96,2.73,1.07,52,1.49,1820,26.15,14,0.13,33,7,52,24.99,48,1010,2.53,1275.21
2026-05-24 04:00:00.000,59,16.23,0.0,27,25.29,634.15,9,0.0,1,100,55,0.44,5.15,12,6.11,2.98,0.99,51,1.55,820,25.88,17,0.13,28,7,51,24.76,38,1010,2.6,1294.03
2026-05-24 05:00:00.000,60,16.3,0.0,27,24.67,627.35,9,0.0,1,100,66,0.43,5.44,12,6.64,3.17,0.91,50,1.62,2420,26.25,17,0.13,23,5,50,24.3,26,1009,2.57,1242.46
2026-05-24 06:00:00.000,62,16.18,0.0,29,23.7,568.29,9,0.0,1,100,73,0.39,5.75,13,6.26,3.25,0.82,48,1.63,1220,23.95,14,0.11,21,5,48,23.74,16,1009,2.5,1124.05
2026-05-24 07:00:00.000,65,16.29,0.0,31,23.03,471.04,9,0.0,1,100,52,0.32,5.43,15,6.07,3.16,0.74,44,1.52,3020,25.99,11,0.11,24,4,44,23.06,8,1009,2.39,946.86
2026-05-24 08:00:00.000,69,16.41,0.0,34,22.5,350.18,6,0.0,1,100,43,0.24,4.87,19,5.79,2.92,0.65,39,1.34,1820,24.52,9,0.11,30,2,39,22.31,1,1009,2.24,723.0
2026-05-24 09:00:00.000,73,16.62,0.0,36,22.12,202.95,6,0.0,1,100,37,0.14,4.4,25,5.72,2.56,0.58,36,1.2,420,22.06,9,0.08,35,1,36,21.6,0,1009,2.11,467.72
2026-05-24 10:00:00.000,77,16.86,0.0,37,21.85,64.99,6,0.0,1,100,28,0.06,3.63,29,5.86,2.14,0.51,35,1.15,230,19.22,9,0.03,35,0,35,20.92,7,1010,2.02,198.44
2026-05-24 11:00:00.000,80,16.91,0.0,12,21.56,4.03,6,0.0,0,100,20,0.02,3.26,35,6.21,1.7,0.45,35,1.14,230,18.2,8,0.01,34,0,35,20.32,20,1010,1.96,18.99
2026-05-24 12:00:00.000,83,16.84,0.0,0,21.17,0.0,6,0.0,0,100,14,0.0,3.2,41,6.47,1.41,0.42,38,1.13,230,18.01,8,0.0,35,0,38,19.75,30,1010,1.9,0.0
2026-05-24 13:00:00.000,85,16.68,0.0,0,20.68,0.0,9,0.0,0,70,7,0.0,3.54,47,6.83,1.32,0.45,46,1.13,90,17.73,8,0.0,37,0,46,19.26,36,1010,1.86,0.0
2026-05-24 14:00:00.000,86,16.53,0.0,0,20.24,0.0,8,0.0,0,29,12,0.0,3.4,50,6.76,1.16,0.51,57,1.16,90,17.24,8,0.0,41,0,57,18.77,39,1011,1.83,0.0
2026-05-24 15:00:00.000,87,16.32,0.0,0,19.87,0.0,7,0.0,0,0,16,0.0,3.31,58,6.44,1.01,0.57,65,1.17,90,16.87,8,0.0,43,0,65,18.38,39,1011,1.8,0.0
2026-05-24 16:00:00.000,89,16.27,0.0,0,19.51,0.0,7,0.0,0,0,20,0.0,3.17,59,6.02,0.98,0.65,69,1.14,90,16.56,8,0.0,41,0,69,18.02,30,1010,1.77,0.0
2026-05-24 17:00:00.000,90,16.13,0.0,0,19.2,0.0,16,0.0,0,0,25,0.0,3.2,55,5.66,1.01,0.73,98,1.11,80,16.24,7,0.0,37,0,98,17.79,16,1010,1.73,0.0
2026-05-24 18:00:00.000,89,16.01,0.0,0,19.12,0.0,16,0.0,0,0,30,0.0,3.09,63,5.49,1.03,0.8,98,1.08,80,15.98,7,0.0,35,0,98,17.77,7,1010,1.71,0.0
2026-05-24 19:00:00.000,86,15.93,0.0,0,19.51,0.0,16,0.0,0,0,33,0.0,3.2,86,5.41,1.04,0.85,98,1.04,50,15.8,8,0.0,35,0,98,18.2,9,1010,1.71,0.0
2026-05-24 20:00:00.000,81,15.89,0.0,0,20.39,0.0,7,0.0,1,0,37,0.0,3.12,137,5.77,1.06,0.9,66,1.02,230,15.66,8,0.0,38,0,66,19.11,15,1010,1.73,0.0
2026-05-24 21:00:00.000,75,15.94,0.0,15,21.74,18.75,7,0.0,1,0,41,0.03,3.33,136,6.16,1.09,0.93,64,1.03,30,17.01,8,0.0,39,0,64,20.47,18,1010,1.71,81.76
2026-05-24 22:00:00.000,67,15.87,0.0,19,23.38,121.54,7,0.0,1,3,29,0.08,3.25,18,6.41,1.05,0.97,63,1.11,30,19.9,9,0.01,36,0,63,22.11,15,1010,1.61,325.82
2026-05-24 23:00:00.000,60,15.83,0.0,20,25.12,273.32,7,0.0,1,7,17,0.19,2.84,10,6.43,1.08,0.99,62,1.23,830,24.6,9,0.11,32,1,62,23.88,9,1010,1.48,590.74
2026-05-25 00:00:00.000,54,15.6,0.36,22,26.6,430.08,31,0.0,1,10,6,0.3,2.7,5,5.84,1.15,1.0,59,1.34,3230,28.26,25,0.15,31,2,59,25.51,6,1010,1.4,833.28
2026-05-25 01:00:00.000,50,15.6,0.28,27,28.08,588.73,31,0.0,1,7,8,0.42,3.19,1,5.77,1.23,0.99,51,1.42,11630,30.52,25,0.19,33,4,51,26.8,6,1010,1.4,1036.93
2026-05-25 02:00:00.000,47,15.44,0.12,28,29.72,725.94,31,0.0,1,3,13,0.52,3.48,358,6.01,1.31,0.97,50,1.48,2630,31.45,25,0.22,38,5,41,27.71,9,1010,1.45,1187.83
2026-05-25 03:00:00.000,46,15.49,0.0,38,30.77,829.43,4,0.0,1,0,19,0.6,3.8,356,5.12,1.4,0.94,33,1.57,5420,33.18,17,0.25,41,7,33,28.18,11,1009,1.5,1275.7
2026-05-25 04:00:00.000,46,15.55,0.0,42,30.78,853.78,4,0.0,1,0,13,0.62,4.15,355,3.93,1.64,0.91,27,1.7,2820,32.86,18,0.26,40,5,27,28.23,11,1009,1.55,1294.58
2026-05-25 05:00:00.000,47,15.71,0.0,44,30.13,827.07,4,0.0,1,0,7,0.59,4.78,356,3.42,1.87,0.88,24,1.86,4220,32.43,19,0.25,38,7,24,27.86,11,1009,1.61,1243.19
2026-05-25 06:00:00.000,49,15.79,0.0,45,29.01,748.21,4,0.0,1,0,2,0.53,5.15,357,3.83,1.95,0.86,22,1.97,1620,31.14,19,0.23,37,5,22,27.24,9,1009,1.61,1125.05
2026-05-25 07:00:00.000,53,16.19,0.0,46,27.47,592.54,4,0.0,1,0,1,0.42,5.01,353,4.34,1.87,0.84,20,2.02,3620,29.39,18,0.19,37,3,20,26.39,6,1009,1.5,948.23
2026-05-25 08:00:00.000,58,16.58,0.0,46,26.52,416.3,4,0.0,1,2,0,0.29,4.55,349,5.43,1.66,0.83,20,2.02,1430,26.75,14,0.14,38,2,20,25.39,3,1008,1.33,724.78
2026-05-25 09:00:00.000,63,16.96,0.0,44,25.77,235.36,4,0.0,1,2,0,0.16,4.02,341,6.3,1.47,0.82,23,2.01,3830,23.38,11,0.09,38,1,23,24.34,0,1008,1.21,469.95
2026-05-25 10:00:00.000,67,17.05,0.0,38,24.97,78.02,4,0.0,1,2,0,0.06,4.04,348,6.04,1.21,0.81,33,2.0,2830,18.99,10,0.04,35,0,33,23.32,1,1009,1.18,201.11
2026-05-25 11:00:00.000,71,17.02,0.0,10,24.24,5.18,7,0.0,0,0,1,0.01,3.23,18,6.78,0.91,0.8,46,1.96,430,18.66,10,0.0,32,0,46,22.4,4,1009,1.2,20.43
2026-05-25 12:00:00.000,74,16.86,0.0,0,23.49,0.0,7,0.0,0,0,2,0.0,2.39,72,8.27,0.72,0.8,54,1.88,8630,15.85,10,0.0,30,0,54,21.58,5,1009,1.21,0.0
2026-05-25 13:00:00.000,77,16.72,0.0,0,22.79,0.0,7,0.0,0,0,1,0.0,2.06,159,9.56,0.68,0.8,52,1.7,9090,15.86,9,0.0,29,0,52,20.9,3,1009,1.18,0.0
2026-05-25 14:00:00.000,79,16.64,0.0,0,22.14,0.0,7,0.0,0,0,0,0.0,3.44,184,10.79,0.75,0.79,44,1.49,9490,15.51,9,0.0,29,0,44,20.34,0,1008,1.15,0.0
2026-05-25 15:00:00.000,82,16.78,0.0,0,21.73,0.0,4,0.0,0,0,0,0.0,3.11,175,9.32,0.81,0.79,38,1.34,10090,15.32,9,0.0,29,0,38,19.92,4,1008,1.11,0.0
2026-05-25 16:00:00.000,84,16.94,0.0,0,21.39,0.0,4,0.0,0,0,11,0.0,3.05,157,4.02,0.89,0.79,35,1.33,10290,15.85,10,0.0,26,0,35,19.56,20,1008,1.07,0.0
2026-05-25 17:00:00.000,86,17.01,0.0,0,21.18,0.0,7,0.0,0,0,28,0.0,3.72,127,2.99,0.99,0.8,44,1.38,10690,18.97,10,0.0,22,0,34,19.39,44,1007,1.02,0.0
2026-05-25 18:00:00.000,85,17.02,0.0,0,21.17,0.0,7,0.0,0,0,55,0.0,3.22,108,2.93,1.14,0.8,64,1.48,10890,19.2,15,0.01,19,0,39,19.49,64,1007,1.0,0.0
2026-05-25 19:00:00.000,83,17.16,0.0,0,21.71,0.0,20,0.0,0,27,71,0.0,3.8,112,2.9,1.26,0.8,75,1.6,10840,16.52,20,0.0,17,0,54,20.05,75,1006,0.99,0.0
2026-05-25 20:00:00.000,79,17.36,0.0,0,22.66,0.0,21,0.0,1,64,74,0.0,3.91,116,2.33,1.37,0.8,81,1.76,10620,16.71,27,0.0,16,0,76,20.99,81,1006,1.0,0.0
2026-05-25 21:00:00.000,75,17.59,0.0,2,23.9,14.0,22,0.0,1,91,55,0.03,4.67,119,1.67,1.47,0.81,90,1.92,10420,21.28,30,0.0,16,0,90,22.19,83,1006,1.11,82.62
2026-05-25 22:00:00.000,69,17.69,0.36,3,25.1,90.42,33,0.0,1,100,23,0.09,5.39,127,1.6,1.69,0.83,88,2.08,12220,27.05,36,0.06,17,0,88,23.51,77,1006,1.35,327.35
2026-05-25 23:00:00.000,65,17.78,0.84,10,26.17,186.22,33,0.0,1,98,49,0.16,6.72,141,0.01,1.99,0.86,78,2.24,13420,26.43,42,0.1,19,1,78,24.75,65,1006,1.68,591.86
2026-05-26 00:00:00.000,61,17.66,0.0,15,26.87,274.01,9,0.0,1,97,55,0.23,7.91,156,-0.02,2.3,0.93,70,2.37,13420,29.61,46,0.09,20,1,70,25.72,60,1006,2.15,834.06
2026-05-26 01:00:00.000,59,17.66,0.0,15,27.32,352.92,9,0.0,1,98,48,0.29,8.51,182,0.09,2.48,1.05,69,2.43,14220,34.04,47,0.15,17,1,67,26.29,69,1005,2.89,1037.46
2026-05-26 02:00:00.000,57,17.65,0.0,5,27.58,405.76,21,0.0,1,99,47,0.33,9.06,209,0.02,2.59,1.2,84,2.48,14420,31.81,47,0.21,14,1,66,26.64,84,1005,3.75,1188.22
2026-05-26 03:00:00.000,57,17.77,0.0,0,27.65,412.38,22,0.0,1,100,60,0.34,9.75,220,0.31,2.72,1.35,95,2.56,14820,35.35,50,0.2,12,1,68,26.75,95,1004,4.33,1276.07
2026-05-26 04:00:00.000,58,17.88,1.15,0,27.58,343.29,33,0.0,1,100,60,0.3,10.21,217,-0.0,2.85,1.46,96,2.72,14020,29.28,53,0.21,11,0,73,26.72,96,1003,4.43,1295.03
2026-05-26 05:00:00.000,60,18.07,2.7,1,27.26,249.94,23,0.0,1,100,61,0.24,10.21,199,-0.03,3.03,1.57,92,2.91,14220,35.83,56,0.18,13,0,80,26.44,92,1003,4.26,1243.84
2026-05-26 06:00:00.000,62,18.24,3.64,2,26.91,168.03,23,0.0,1,100,70,0.19,10.24,177,-0.46,3.06,1.64,90,3.02,13420,31.06,57,0.19,14,0,85,26.03,90,1002,4.0,1125.99
2026-05-26 07:00:00.000,65,18.45,3.41,0,26.39,124.6,23,0.0,1,100,83,0.15,10.52,166,-1.06,3.1,1.68,92,3.01,13220,28.94,56,0.13,14,0,86,25.45,92,1002,3.68,949.53
2026-05-26 08:00:00.000,69,18.75,2.56,0,25.88,76.07,23,0.0,1,100,94,0.12,10.13,182,-1.22,3.12,1.68,96,2.93,12820,28.47,57,0.08,15,0,84,24.8,96,1002,3.28,726.48
2026-05-26 09:00:00.000,73,19.11,1.78,0,25.45,48.07,33,0.0,1,100,132,0.09,9.6,192,-0.83,3.1,1.66,99,2.8,12420,27.21,58,0.08,15,0,83,24.2,99,1001,2.9,472.07
2026-05-26 10:00:00.000,77,19.59,1.29,0,25.21,15.82,33,0.0,1,100,167,0.06,10.11,200,0.06,3.11,1.62,100,2.62,11820,24.61,59,0.04,13,0,81,23.73,100,1001,2.57,203.62
2026-05-26 11:00:00.000,81,20.03,0.87,0,25.13,0.71,33,0.0,0,100,252,0.05,10.74,204,0.41,3.15,1.55,100,2.41,11630,23.7,59,0.01,11,0,80,23.46,100,1001,2.27,21.76
2026-05-26 12:00:00.000,84,20.49,0.58,0,25.23,0.0,33,0.0,0,100,339,0.02,11.45,208,0.6,3.16,1.44,98,2.22,11830,23.4,58,0.01,9,0,79,23.33,98,1002,2.0,0.0
2026-05-26 13:00:00.000,86,20.86,0.0,0,24.99,0.0,22,0.0,0,100,64,0.02,11.29,206,0.4,3.73,1.26,90,2.08,12080,23.39,57,0.01,6,0,80,23.29,90,1001,1.76,0.0
2026-05-26 14:00:00.000,88,21.19,0.23,0,25.22,0.0,33,0.0,0,100,23,0.01,11.12,205,0.3,3.58,1.04,81,1.97,11880,23.37,54,0.02,3,0,81,23.25,81,1001,1.55,0.0
2026-05-26 15:00:00.000,89,21.34,1.16,0,25.32,0.0,33,0.0,0,100,17,0.01,10.8,206,0.11,3.48,0.83,83,1.92,11880,23.25,54,0.01,2,0,83,23.19,77,1001,1.4,0.0
2026-05-26 16:00:00.000,90,21.45,2.56,0,25.28,0.0,23,0.0,0,100,68,0.01,10.44,207,0.08,3.45,0.64,82,1.95,11680,23.17,57,0.01,1,0,82,23.07,82,1000,1.33,0.0
2026-05-26 17:00:00.000,91,21.46,2.21,0,25.2,0.0,33,0.0,0,100,120,0.01,9.99,210,-0.06,3.38,0.47,92,2.06,11670,23.16,63,0.01,1,0,81,22.93,92,1000,1.31,0.0
2026-05-26 18:00:00.000,91,21.44,0.0,0,25.12,0.0,22,0.0,0,90,173,0.01,10.35,214,-0.11,3.37,0.35,99,2.24,11470,23.1,62,0.01,2,0,82,22.86,99,1000,1.3,0.0
2026-05-26 19:00:00.000,91,21.44,0.0,0,25.27,0.0,22,0.0,0,61,152,0.01,10.65,216,0.04,3.3,0.31,100,2.51,11440,23.01,60,0.01,1,0,87,22.96,100,1000,1.29,0.0
2026-05-26 20:00:00.000,89,21.39,0.0,0,25.56,0.0,22,0.0,1,23,132,0.01,11.27,217,0.3,3.31,0.32,100,2.83,11620,22.98,57,0.01,0,0,95,23.28,100,1000,1.3,0.0
2026-05-26 21:00:00.000,85,21.25,0.0,0,26.03,6.67,22,0.0,1,4,111,0.04,11.65,218,0.88,3.27,0.33,100,3.1,11820,24.6,57,0.02,1,0,100,23.81,96,1000,1.3,83.31
2026-05-26 22:00:00.000,80,20.99,0.0,0,26.49,37.73,22,0.0,1,26,66,0.07,11.34,217,1.01,3.41,0.3,100,3.26,12420,27.18,58,0.07,1,0,100,24.51,88,1001,1.26,328.56
2026-05-26 23:00:00.000,76,20.72,0.0,0,27.08,76.2,22,0.0,1,68,40,0.1,10.89,217,0.86,3.43,0.26,99,3.35,13220,29.77,56,0.13,2,0,99,25.25,77,1001,1.23,592.72
2026-05-27 00:00:00.000,71,20.34,0.0,0,27.43,112.0,22,0.0,1,90,7,0.14,10.6,218,0.53,3.44,0.27,97,3.42,13420,31.64,51,0.18,5,0,97,25.8,64,1001,1.27,834.64
2026-05-27 01:00:00.000,69,20.09,0.0,0,27.47,138.9,22,0.0,1,70,5,0.16,10.78,225,0.9,3.5,0.8,95,3.45,13020,28.65,67,0.14,10,1,95,26.02,49,1001,1.48,1037.84
2026-05-27 02:00:00.000,69,19.91,0.0,1,27.21,202.99,22,0.0,1,30,4,0.2,11.41,237,0.86,3.67,1.17,92,3.45,13020,28.72,60,0.16,16,1,92,25.96,31,1001,1.77,1188.5
2026-05-27 03:00:00.000,70,19.86,0.0,3,26.87,240.29,22,0.0,1,0,12,0.22,11.75,242,1.13,3.8,1.37,89,3.45,12220,29.08,55,0.11,22,1,89,25.73,17,1002,1.99,1276.36
2026-05-27 04:00:00.000,71,19.79,0.0,5,26.42,315.5,19,0.0,1,0,12,0.26,11.94,241,-0.24,3.94,1.17,85,3.48,9820,31.38,53,0.18,24,1,85,25.41,8,1002,2.1,1295.44
2026-05-27 05:00:00.000,72,19.77,0.0,7,25.9,355.01,19,0.0,1,0,31,0.27,11.87,238,-1.06,4.09,0.8,82,3.51,12420,32.92,53,0.21,26,1,82,25.01,3,1002,2.15,1244.46
2026-05-27 06:00:00.000,74,19.69,0.0,8,25.43,343.87,19,0.0,1,0,63,0.25,11.6,236,-1.48,4.04,0.57,80,3.49,11620,28.42,54,0.18,28,1,80,24.55,0,1002,2.11,1126.91
2026-05-27 07:00:00.000,76,19.66,0.0,9,24.97,278.46,19,0.0,1,0,379,0.21,11.37,236,-3.02,3.86,0.68,79,3.4,10820,26.19,53,0.11,29,1,79,23.99,0,1002,1.94,950.81
2026-05-27 08:00:00.000,79,19.65,0.0,8,24.5,206.83,19,0.0,1,0,475,0.16,10.98,238,-3.12,3.58,0.94,80,3.27,10020,24.5,53,0.09,31,0,80,23.32,0,1003,1.69,728.16
2026-05-27 09:00:00.000,83,19.68,0.0,8,24.06,128.77,19,0.0,1,0,342,0.1,9.9,242,-2.68,3.24,1.07,81,3.14,9820,22.72,50,0.1,32,0,81,22.62,0,1003,1.5,474.16
2026-05-27 10:00:00.000,87,19.71,0.0,6,23.56,41.95,19,0.0,1,0,301,0.05,8.24,246,-2.57,2.99,0.91,84,3.02,9430,21.88,48,0.07,32,0,84,21.93,0,1004,1.43,206.11
2026-05-27 11:00:00.000,88,19.63,0.0,1,23.48,3.26,19,0.0,0,0,335,0.02,6.83,246,-2.71,2.66,0.64,87,2.91,640,21.4,47,0.03,32,0,87,21.66,1,1004,1.41,23.09
2026-05-27 12:00:00.000,88,19.54,0.0,0,23.41,0.0,22,0.0,0,0,220,0.01,6.8,248,-1.89,2.49,0.43,88,2.79,440,20.68,47,0.0,32,0,88,21.52,1,1005,1.4,0.0
2026-05-27 13:00:00.000,87,19.42,1.9,0,23.36,0.0,33,0.0,0,0,74,0.01,6.0,258,-1.09,2.5,0.39,84,2.63,270,19.07,47,0.0,31,0,84,21.53,1,1005,1.38,0.0
2026-05-27 14:00:00.000,88,19.31,2.5,0,22.97,0.0,23,0.0,0,0,97,0.01,5.93,255,-0.41,2.58,0.43,77,2.47,470,17.86,48,0.0,30,0,77,21.25,0,1005,1.38,0.0
2026-05-27 15:00:00.000,89,19.2,1.3,0,22.74,0.0,31,0.0,0,0,131,0.0,5.2,247,-0.09,2.47,0.47,72,2.33,1080,17.75,45,0.0,31,0,72,20.99,0,1005,1.4,0.0
2026-05-27 16:00:00.000,91,19.24,0.0,0,22.49,0.0,7,0.0,0,0,112,0.0,5.31,240,2.09,2.51,0.51,73,2.19,8280,17.61,39,0.02,31,0,73,20.75,0,1005,1.47,0.0
2026-05-27 17:00:00.000,92,19.24,0.0,0,22.26,0.0,19,0.0,0,0,78,0.0,5.16,240,5.09,2.55,0.57,76,2.05,8280,16.76,34,0.02,33,0,76,20.55,0,1005,1.56,0.0
2026-05-27 18:00:00.000,92,19.19,0.0,0,22.04,0.0,19,0.0,0,0,126,0.0,5.3,245,8.29,2.61,0.57,79,1.97,270,17.19,31,0.0,35,0,79,20.4,0,1005,1.61,0.0
2026-05-27 19:00:00.000,92,19.14,0.0,0,22.07,0.0,19,0.0,0,0,232,0.0,5.32,249,10.02,2.55,0.47,81,1.94,50,17.52,30,0.0,36,0,81,20.41,0,1005,1.57,0.0
2026-05-27 20:00:00.000,90,18.99,0.0,0,22.33,0.0,19,0.0,1,0,185,0.0,5.13,254,10.38,2.41,0.32,82,1.96,230,17.23,29,0.0,37,0,82,20.64,0,1006,1.5,0.0
2026-05-27 21:00:00.000,85,18.65,0.0,6,22.71,14.45,19,0.0,1,0,87,0.03,5.0,257,10.26,2.29,0.2,81,2.02,30,17.48,28,0.0,38,0,81,21.1,0,1006,1.49,84.01
2026-05-27 22:00:00.000,79,18.15,0.0,11,23.3,100.12,19,0.0,1,0,8,0.08,5.16,259,10.03,2.26,0.16,75,2.14,30,18.52,27,0.07,36,0,75,21.9,0,1006,1.58,329.78
2026-05-27 23:00:00.000,73,17.57,0.0,17,23.63,241.11,7,0.0,1,0,6,0.17,5.09,259,11.24,2.36,0.15,66,2.31,30,20.29,26,0.14,34,0,66,22.56,1,1007,1.74,593.58
2026-05-28 00:00:00.000,67,16.74,0.0,21,23.58,408.52,7,0.0,1,0,15,0.28,5.45,260,11.82,2.63,0.13,59,2.46,230,22.42,25,0.2,34,2,59,23.06,2,1007,1.91,835.21
2026-05-28 01:00:00.000,48,13.21,0.0,0,24.23,395.59,22,0.0,1,0,2,0.32,4.59,291,9.91,2.43,0.1,100,2.59,24100,27.09,20,0.05,35,4,100,24.91,0,1007,2.13,1038.22
2026-05-28 02:00:00.000,44,12.51,0.0,53,25.61,804.04,4,0.0,1,0,2,0.56,4.93,297,10.9,2.94,0.06,10,2.71,24100,27.91,16,0.07,38,6,10,25.51,0,1007,2.38,1188.78
2026-05-28 03:00:00.000,42,12.13,0.0,60,26.23,963.45,1,0.0,1,0,2,0.66,5.2,301,11.5,3.32,0.03,0,2.8,24100,28.27,12,0.08,40,8,0,25.72,0,1007,2.5,1276.65
2026-05-28 04:00:00.000,42,11.96,0.0,60,26.25,1013.69,1,0.0,1,0,1,0.69,5.37,305,11.39,3.45,0.04,0,2.85,24100,28.3,9,0.09,38,9,0,25.64,0,1006,2.41,1295.84
2026-05-28 05:00:00.000,42,11.86,0.0,60,25.9,991.92,1,0.0,1,0,1,0.67,5.47,308,10.9,3.39,0.06,0,2.87,24100,28.06,7,0.08,35,9,0,25.39,0,1006,2.19,1245.08
2026-05-28 06:00:00.000,44,11.94,0.0,60,25.17,906.74,1,0.0,1,0,2,0.61,5.5,310,10.6,3.16,0.07,0,2.86,24100,27.45,6,0.08,34,7,0,24.9,0,1006,2.0,1127.82
2026-05-28 07:00:00.000,47,12.18,0.0,60,23.83,748.85,1,0.0,1,0,2,0.5,5.45,311,10.8,2.88,0.06,0,2.82,24100,26.27,5,0.07,36,5,0,24.09,0,1006,1.88,952.08
2026-05-28 08:00:00.000,51,12.58,0.0,60,22.05,545.05,1,0.0,1,0,2,0.35,5.32,312,11.21,2.57,0.04,0,2.75,24100,24.7,6,0.06,39,3,0,23.05,0,1006,1.79,729.84
2026-05-28 09:00:00.000,56,12.95,0.0,60,21.39,320.3,1,0.0,1,0,3,0.21,5.1,311,11.5,2.27,0.03,0,2.64,24100,23.25,6,0.04,40,1,0,22.05,0,1006,1.71,476.25
2026-05-28 10:00:00.000,60,13.21,0.0,60,20.88,108.5,1,0.0,1,0,2,0.08,4.74,309,11.54,1.87,0.03,0,2.47,24100,22.06,5,0.03,33,0,0,21.17,0,1006,1.63,208.59
2026-05-28 11:00:00.000,63,13.32,0.0,22,20.42,12.8,1,0.0,0,0,1,0.01,4.3,305,11.46,1.43,0.03,0,2.25,24100,21.0,4,0.02,24,0,0,20.37,0,1007,1.56,24.42
2026-05-28 12:00:00.000,66,13.32,0.0,0,20.0,-0.03,2,0.0,0,10,1,0.01,3.9,297,11.4,1.11,0.03,3,2.06,24100,20.16,3,0.01,18,0,0,19.72,0,1007,1.5,0.0
2026-05-28 13:00:00.000,68,13.28,0.0,0,19.53,0.0,2,0.0,0,10,0,0.0,3.59,287,11.39,0.98,0.02,3,1.92,24100,19.47,2,0.01,16,0,0,19.17,0,1007,1.47,0.0
2026-05-28 14:00:00.000,70,13.22,0.0,0,19.04,0.0,2,0.0,0,10,0,0.0,3.33,276,11.39,0.93,0.01,3,1.8,24100,18.87,1,0.01,18,0,0,18.66,0,1007,1.46,0.0
2026-05-28 15:00:00.000,72,13.2,0.0,0,18.64,0.0,2,0.0,0,10,0,0.0,3.1,268,11.4,0.87,0.0,3,1.7,24100,18.4,1,0.01,21,0,0,18.23,0,1007,1.45,0.0
2026-05-28 16:00:00.000,74,13.22,0.0,0,18.32,0.0,2,0.0,0,10,0,0.0,2.9,256,11.41,0.81,0.0,3,1.63,24100,18.01,0,0.01,23,0,0,17.86,0,1007,1.44,0.0
2026-05-28 17:00:00.000,75,13.24,0.0,0,18.14,0.0,2,0.0,0,10,0,0.0,2.73,246,11.44,0.8,0.0,3,1.59,24100,17.82,0,0.01,25,0,0,17.67,0,1007,1.42,0.0
2026-05-28 18:00:00.000,73,13.19,0.0,0,18.39,0.0,4,0.0,0,0,1,0.0,2.6,240,11.5,0.81,0.0,10,1.56,24100,18.21,0,0.01,28,0,10,17.94,0,1007,1.4,0.0
2026-05-28 19:00:00.000,68,12.99,0.0,0,19.28,0.0,4,0.0,0,0,0,0.0,2.49,238,11.61,0.78,0.0,10,1.56,24100,19.41,0,0.01,29,0,10,18.87,0,1007,1.35,0.0
2026-05-28 20:00:00.000,60,12.54,0.0,0,20.63,0.0,4,0.0,1,0,0,0.0,2.42,235,11.76,0.68,0.0,10,1.58,24100,21.22,0,0.0,30,0,10,20.31,0,1008,1.29,0.0
2026-05-28 21:00:00.000,53,11.83,0.0,50,22.0,39.45,1,0.0,1,0,0,0.01,2.4,244,11.9,0.55,0.0,0,1.63,24100,23.11,0,0.0,31,0,0,21.82,0,1008,1.24,84.7
2026-05-28 22:00:00.000,46,11.06,0.0,60,23.11,210.69,1,0.0,1,0,0,0.11,2.45,264,12.04,0.49,0.0,0,1.71,24100,24.8,0,0.0,32,0,0,23.13,0,1008,1.2,330.99
2026-05-28 23:00:00.000,41,10.27,0.0,60,23.95,450.63,1,0.0,1,0,0,0.27,2.56,290,12.16,0.62,0.0,0,1.82,24100,26.37,0,0.01,33,1,0,24.3,0,1008,1.17,594.44
2026-05-29 00:00:00.000,35,8.89,0.0,60,25.04,698.31,1,0.0,1,0,0,0.46,2.7,299,12.2,1.17,0.0,0,1.91,24100,27.6,0,0.01,34,2,0,25.22,0,1009,1.21,835.79
2026-05-29 01:00:00.000,32,7.97,0.0,60,26.11,882.84,1,0.0,1,0,0,0.61,2.88,308,12.09,1.68,0.0,0,1.97,24100,28.41,0,0.01,34,4,0,25.82,0,1008,1.37,1038.6
2026-05-29 02:00:00.000,30,7.42,0.0,60,26.79,1037.11,1,0.0,1,0,0,0.72,3.09,314,11.9,2.27,0.0,0,2.02,24100,28.97,0,0.02,34,7,0,26.27,0,1008,1.6,1189.06
2026-05-29 03:00:00.000,29,7.4,0.0,60,27.11,1139.04,1,0.0,1,0,0,0.8,3.3,318,11.7,2.75,0.0,0,2.05,24100,29.24,0,0.02,35,8,0,26.47,0,1008,1.82,1276.93
2026-05-29 04:00:00.000,29,7.62,0.0,60,27.29,1166.96,1,0.0,1,0,0,0.82,3.54,322,11.53,2.99,0.0,0,2.1,24100,29.48,0,0.02,35,9,0,26.68,0,1008,2.02,1296.25
2026-05-29 05:00:00.000,30,7.88,0.0,60,27.2,1114.14,1,0.0,1,0,0,0.79,3.79,325,11.37,3.05,0.0,0,2.14,24100,29.64,0,0.03,35,8,0,26.87,0,1007,2.21,1245.69
2026-05-29 06:00:00.000,31,8.35,0.0,60,26.66,994.3,1,0.0,1,0,0,0.71,3.9,328,11.2,2.88,0.0,0,2.12,24100,29.35,0,0.03,35,7,0,26.7,0,1007,2.3,1128.74
2026-05-29 07:00:00.000,34,9.01,0.0,60,25.41,817.06,1,0.0,1,0,0,0.57,3.8,330,11.02,2.55,0.0,0,2.01,24100,28.36,0,0.03,34,4,0,25.97,0,1008,2.22,953.36
2026-05-29 08:00:00.000,38,9.83,0.0,60,23.59,592.25,1,0.0,1,0,0,0.41,3.56,332,10.84,2.15,0.0,0,1.85,24100,26.93,0,0.03,33,2,0,24.89,0,1008,2.04,731.51
2026-05-29 09:00:00.000,43,10.59,0.0,60,22.73,346.93,1,0.0,1,0,0,0.23,3.3,333,10.7,1.79,0.0,0,1.7,24100,25.47,0,0.02,33,1,0,23.8,0,1008,1.84,478.33
2026-05-29 10:00:00.000,47,11.17,0.0,60,22.09,114.7,1,0.0,1,0,0,0.08,3.03,337,10.62,1.48,0.0,0,1.58,24100,24.06,0,0.02,32,0,0,22.77,0,1008,1.63,211.07
2026-05-29 11:00:00.000,52,11.53,0.0,23,21.38,13.22,1,0.0,0,0,0,0.01,2.74,343,10.58,1.2,0.0,0,1.46,24100,22.65,0,0.02,32,0,0,21.75,0,1009,1.4,25.75
2026-05-29 12:00:00.000,55,11.71,0.0,0,20.81,-0.03,1,0.0,0,0,1,0.01,2.5,348,10.6,0.93,0.0,0,1.36,24100,21.5,0,0.01,33,0,0,20.93,0,1009,1.21,0.0
2026-05-29 13:00:00.000,58,11.85,0.0,0,20.37,0.0,2,0.0,0,21,1,0.0,2.33,345,10.7,0.66,0.0,6,1.29,24100,20.59,0,0.01,34,0,0,20.26,0,1009,1.09,0.0
2026-05-29 14:00:00.000,61,11.96,0.0,0,20.01,0.0,3,0.0,0,50,1,0.0,2.2,330,10.86,0.38,0.0,15,1.24,24100,19.82,0,0.01,35,0,0,19.67,0,1009,1.02,0.0
2026-05-29 15:00:00.000,63,12.09,0.0,0,19.71,0.0,3,0.0,0,78,2,0.0,2.1,293,11.0,0.18,0.0,23,1.22,24100,19.21,0,0.0,37,0,0,19.19,0,1009,0.97,0.0
2026-05-29 16:00:00.000,65,12.24,0.0,0,19.38,0.0,3,0.0,0,100,2,0.0,2.01,219,11.15,0.2,0.0,30,1.25,24100,18.75,0,0.0,38,0,0,18.83,0,1009,0.94,0.0
2026-05-29 17:00:00.000,66,12.36,0.0,0,19.16,0.0,3,0.0,0,100,3,0.0,1.95,197,11.29,0.36,0.0,30,1.32,24100,18.54,0,0.0,40,0,0,18.67,0,1009,0.94,0.0
2026-05-29 18:00:00.000,65,12.4,0.0,0,19.33,0.0,3,0.0,0,100,4,0.0,1.9,192,11.3,0.51,0.0,30,1.36,24100,18.84,0,0.0,41,0,0,18.94,0,1009,1.0,0.0
2026-05-29 19:00:00.000,61,12.26,0.0,0,20.07,0.0,3,0.0,0,100,3,0.0,1.85,187,11.11,0.61,0.05,30,1.34,24100,19.84,1,0.0,41,0,0,19.8,0,1009,1.14,0.0
2026-05-29 20:00:00.000,55,11.88,0.0,0,21.22,0.0,3,0.0,1,100,1,0.0,1.81,179,10.78,0.7,0.13,30,1.29,24100,21.39,2,0.0,40,0,0,21.13,0,1009,1.33,0.0
2026-05-29 21:00:00.000,49,11.28,0.0,34,22.46,33.19,3,0.0,1,100,1,0.02,1.8,170,10.4,0.65,0.2,30,1.28,24100,23.03,4,0.0,40,0,0,22.52,0,1010,1.54,85.39
2026-05-29 22:00:00.000,43,10.73,0.0,40,23.57,167.13,3,0.0,1,100,0,0.1,1.83,158,10.01,0.54,0.28,30,1.32,24100,24.49,5,0.0,39,0,0,23.73,0,1010,1.75,332.21
2026-05-29 23:00:00.000,39,10.24,0.0,40,24.64,348.07,3,0.0,1,100,0,0.21,1.89,139,9.57,0.34,0.35,30,1.39,24100,25.83,7,0.0,39,1,0,24.79,0,1010,1.98,595.31
2026-05-30 00:00:00.000,35,9.25,0.0,40,25.33,531.18,3,0.0,1,100,1,0.34,2.0,305,9.0,0.14,0.4,30,1.49,24100,26.91,9,0.01,39,2,0,25.63,0,1010,2.19,836.37
2026-05-30 01:00:00.000,33,8.78,0.0,40,26.19,670.46,3,0.0,1,100,1,0.45,2.17,327,8.2,0.65,0.4,30,1.63,24100,27.67,8,0.01,39,4,0,26.18,0,1010,2.4,1038.98
2026-05-30 02:00:00.000,32,8.69,0.0,40,26.87,793.45,3,0.0,1,100,3,0.56,2.38,329,7.27,1.26,0.37,30,1.81,24100,28.25,7,0.01,39,7,0,26.59,0,1010,2.6,1189.34
2026-05-30 03:00:00.000,32,9.07,0.0,40,27.26,880.15,3,0.0,1,100,5,0.62,2.6,332,6.4,1.76,0.33,30,2.0,24100,28.57,7,0.02,40,9,0,26.77,0,1010,2.76,1277.22
2026-05-30 04:00:00.000,33,9.62,0.0,40,27.55,909.5,3,0.0,1,100,7,0.65,2.86,336,5.59,2.03,0.31,30,2.22,24100,28.88,6,0.02,41,9,0,26.97,0,1010,2.9,1296.65
2026-05-30 05:00:00.000,34,10.16,0.0,40,27.6,874.03,3,0.0,1,100,10,0.62,3.13,340,4.85,2.11,0.29,30,2.45,24100,29.12,5,0.03,42,9,0,27.15,0,1010,3.0,1246.31
2026-05-30 06:00:00.000,36,10.8,0.0,40,27.2,785.48,3,0.0,1,100,13,0.56,3.3,345,4.4,2.01,0.27,30,2.56,24100,28.91,6,0.03,43,7,0,26.99,0,1010,3.0,1129.65
2026-05-30 07:00:00.000,39,11.5,0.0,40,26.0,638.63,3,0.0,1,100,15,0.45,3.3,350,4.38,1.81,0.25,30,2.46,24100,27.98,7,0.03,42,5,0,26.29,0,1010,2.87,954.63
2026-05-30 08:00:00.000,44,12.25,0.0,40,24.84,457.66,3,0.0,1,100,18,0.32,3.21,355,4.64,1.58,0.23,30,2.24,24100,26.6,9,0.02,42,3,0,25.25,0,1010,2.64,733.18
2026-05-30 09:00:00.000,49,12.91,0.0,40,24.14,265.82,3,0.0,1,100,21,0.18,3.1,359,5.0,1.4,0.23,30,2.02,24100,25.2,11,0.02,42,1,0,24.2,0,1010,2.39,480.42
2026-05-30 10:00:00.000,54,13.39,0.0,40,23.38,88.7,3,0.0,1,100,23,0.07,3.01,5,5.43,1.3,0.25,30,1.85,24100,23.85,12,0.01,41,0,0,23.21,0,1010,2.13,213.55
2026-05-30 11:00:00.000,58,13.64,0.0,16,22.52,11.2,3,0.0,0,100,25,0.02,2.91,11,5.94,1.26,0.28,30,1.68,24100,22.51,14,0.01,41,0,0,22.23,0,1011,1.84,27.07
2026-05-30 12:00:00.000,61,13.74,0.0,0,21.83,-0.03,3,0.0,0,100,27,0.01,2.8,15,6.4,1.15,0.33,30,1.56,24100,21.43,16,0.01,42,0,0,21.43,0,1011,1.61,0.0
2026-05-30 13:00:00.000,64,13.81,0.0,0,21.31,0.0,3,0.0,0,100,25,0.01,2.66,16,6.74,0.96,0.43,30,1.48,24100,20.61,15,0.0,42,0,0,20.75,0,1011,1.45,0.0
2026-05-30 14:00:00.000,67,13.85,0.0,0,20.89,0.0,3,0.0,0,95,23,0.0,2.51,18,7.03,0.7,0.56,28,1.43,24100,19.95,14,0.0,42,0,0,20.13,0,1011,1.35,0.0
2026-05-30 15:00:00.000,69,13.88,0.0,0,20.5,0.0,3,0.0,0,56,21,0.0,2.4,25,7.3,0.53,0.7,17,1.42,24100,19.43,14,0.0,43,0,0,19.62,0,1011,1.27,0.0
2026-05-30 16:00:00.000,71,13.9,0.0,0,20.18,0.0,2,0.0,0,18,18,0.0,2.33,43,7.58,0.43,0.85,5,1.46,24100,19.06,13,0.0,43,0,0,19.22,0,1010,1.21,0.0
2026-05-30 17:00:00.000,72,13.89,0.0,0,20.0,0.0,1,0.0,0,0,16,0.0,2.3,61,7.84,0.41,1.0,0,1.52,24100,18.94,12,0.0,43,0,0,19.03,0,1010,1.19,0.0
2026-05-30 18:00:00.000,70,13.82,0.0,0,20.2,0.0,1,0.0,0,0,15,0.0,2.3,74,8.0,0.41,1.17,0,1.58,24100,19.28,12,0.0,44,0,0,19.25,0,1010,1.21,0.0
2026-05-30 19:00:00.000,66,13.61,0.0,0,20.93,0.0,1,0.0,0,0,13,0.0,2.33,85,8.01,0.4,1.35,0,1.6,24100,20.26,11,0.0,43,0,0,20.05,0,1011,1.3,0.0
2026-05-30 20:00:00.000,59,13.2,0.0,0,22.02,0.0,1,0.0,1,0,13,0.0,2.4,93,7.93,0.45,1.54,0,1.61,24100,21.74,11,0.0,42,0,0,21.32,0,1011,1.44,0.0
2026-05-30 21:00:00.000,53,12.6,0.0,51,23.11,34.84,1,0.0,1,0,13,0.01,2.5,83,7.8,0.51,1.7,0,1.66,24100,23.32,11,0.0,41,0,0,22.66,0,1011,1.6,85.99
2026-05-30 22:00:00.000,47,12.04,0.0,60,24.02,182.63,1,0.0,1,0,13,0.11,2.64,66,7.64,0.61,1.84,0,1.78,24100,24.72,11,0.0,40,0,0,23.82,0,1011,1.76,333.22
2026-05-30 23:00:00.000,43,11.53,0.0,60,24.79,393.48,1,0.0,1,0,13,0.25,2.81,45,7.44,0.75,1.95,0,1.93,24100,26.0,11,0.0,39,1,0,24.85,0,1011,1.94,595.97
2026-05-31 00:00:00.000,38,10.51,0.0,60,25.66,619.28,1,0.0,1,0,14,0.41,3.0,11,7.2,0.9,1.97,0,2.08,24100,27.08,12,0.01,39,2,0,25.69,0,1012,2.11,836.77
2026-05-31 01:00:00.000,35,9.92,0.0,60,26.86,789.38,1,0.0,1,0,14,0.54,3.22,358,6.89,1.3,1.83,0,2.24,24100,27.93,11,0.01,38,4,0,26.3,0,1011,2.27,1039.2
2026-05-31 02:00:00.000,34,9.63,0.0,60,27.77,938.52,1,0.0,1,0,15,0.66,3.47,350,6.54,1.78,1.59,0,2.43,24100,28.68,10,0.01,38,7,0,26.79,0,1011,2.41,1189.49
2026-05-31 03:00:00.000,33,9.77,0.0,60,28.3,1044.07,1,0.0,1,0,17,0.74,3.7,349,6.2,2.2,1.33,0,2.62,24100,29.14,10,0.02,38,8,0,27.06,0,1011,2.53,1277.4
2026-05-31 04:00:00.000,33,10.05,0.0,60,28.66,1082.85,1,0.0,1,0,18,0.77,3.94,352,5.88,2.44,1.08,0,2.83,24100,29.59,9,0.02,38,8,0,27.34,0,1010,2.63,1296.96
2026-05-31 05:00:00.000,33,10.32,0.0,60,28.71,1045.97,1,0.0,1,0,19,0.75,4.17,357,5.57,2.53,0.82,0,3.05,24100,29.97,9,0.03,38,8,0,27.61,0,1010,2.7,1246.85
2026-05-31 06:00:00.000,35,10.82,0.0,60,28.25,944.61,1,0.0,1,0,20,0.68,4.3,1,5.3,2.45,0.6,0,3.14,24100,29.83,9,0.03,38,6,0,27.49,0,1010,2.71,1130.49
2026-05-31 07:00:00.000,38,11.57,0.0,60,26.94,775.94,1,0.0,1,0,19,0.55,4.27,5,5.06,2.27,0.45,0,3.02,24100,28.88,8,0.03,37,4,0,26.76,0,1010,2.63,955.82
2026-05-31 08:00:00.000,43,12.46,0.0,60,25.06,562.63,1,0.0,1,0,17,0.39,4.15,8,4.85,2.04,0.35,0,2.78,24100,27.41,7,0.03,35,2,0,25.65,0,1010,2.49,734.74
2026-05-31 09:00:00.000,49,13.2,0.0,60,24.26,330.66,1,0.0,1,0,16,0.22,4.0,9,4.7,1.82,0.27,0,2.55,24100,25.91,7,0.02,35,1,0,24.52,0,1010,2.33,482.34
2026-05-31 10:00:00.000,54,13.71,0.0,57,23.48,109.79,2,0.0,1,11,14,0.09,3.84,11,4.6,1.66,0.2,3,2.35,24100,24.46,6,0.02,34,0,0,23.45,0,1010,2.16,215.82
2026-05-31 11:00:00.000,58,13.98,0.0,22,22.61,12.98,2,0.0,0,27,13,0.02,3.66,13,4.56,1.53,0.14,8,2.17,24100,23.0,6,0.02,34,0,0,22.39,0,1011,1.97,28.27
2026-05-31 12:00:00.000,62,14.08,0.0,0,21.92,-0.03,2,0.0,0,45,13,0.02,3.5,13,4.6,1.35,0.1,13,2.06,24100,21.84,6,0.01,34,0,0,21.53,0,1011,1.8,0.0
2026-05-31 13:00:00.000,65,14.15,0.0,0,21.43,0.0,3,0.0,0,63,13,0.01,3.38,10,4.77,1.1,0.07,18,2.02,24100,20.98,5,0.01,34,0,0,20.85,0,1011,1.67,0.0
2026-05-31 14:00:00.000,68,14.2,0.0,0,21.07,0.0,3,0.0,0,82,14,0.0,3.28,6,5.02,0.81,0.05,24,2.03,24100,20.31,3,0.01,35,0,0,20.26,0,1011,1.55,0.0
2026-05-31 15:00:00.000,70,14.26,0.0,0,20.77,0.0,3,0.0,0,100,15,0.0,3.2,3,5.3,0.57,0.03,30,2.06,24100,19.79,3,0.0,36,0,0,19.78,0,1010,1.46,0.0
2026-05-31 16:00:00.000,72,14.3,0.0,0,20.59,0.0,3,0.0,0,100,16,0.0,3.15,4,5.62,0.35,0.02,30,2.13,24100,19.43,2,0.0,37,0,0,19.42,0,1010,1.38,0.0
2026-05-31 17:00:00.000,73,14.32,0.0,0,20.59,0.0,3,0.0,0,100,17,0.0,3.13,9,5.97,0.15,0.02,30,2.22,24100,19.32,2,0.0,38,0,0,19.27,0,1010,1.32,0.0
2026-05-31 18:00:00.000,71,14.31,0.0,0,20.94,0.0,3,0.0,0,100,18,0.0,3.1,303,6.2,0.01,0.03,30,2.28,24100,19.71,3,0.0,40,0,0,19.54,0,1010,1.3,0.0
2026-05-31 19:00:00.000,67,14.22,0.0,0,21.71,0.0,3,0.0,0,100,17,0.0,3.06,214,6.25,0.07,0.07,30,2.31,24100,20.77,3,0.0,39,0,0,20.38,0,1010,1.35,0.0
2026-05-31 20:00:00.000,61,13.97,0.0,0,22.92,0.0,3,0.0,1,100,15,0.0,3.01,193,6.19,0.08,0.12,30,2.31,24100,22.37,4,0.0,39,0,0,21.68,0,1010,1.44,0.0
2026-05-31 21:00:00.000,55,13.53,0.0,34,24.13,32.96,3,0.0,1,100,14,0.0,3.0,7,6.1,0.06,0.17,30,2.33,24100,24.04,5,0.0,39,0,0,23.05,0,1011,1.55,86.43
2026-05-31 22:00:00.000,49,13.04,0.0,40,24.97,166.85,3,0.0,1,100,13,0.09,3.04,3,6.02,0.31,0.21,30,2.36,24100,25.53,6,0.0,38,0,0,24.23,0,1011,1.67,333.95
2026-05-31 23:00:00.000,45,12.57,0.0,40,25.59,351.15,3,0.0,1,100,12,0.23,3.11,356,5.92,0.68,0.25,30,2.42,24100,26.89,7,0.0,39,1,0,25.26,0,1011,1.81,596.41
2026-06-01 00:00:00.000,40,11.61,0.0,40,25.75,543.06,3,0.0,1,100,12,0.37,3.2,338,5.8,1.16,0.27,30,2.47,24100,27.97,9,0.0,39,2,0,26.07,0,1011,1.96,836.99
2026-06-01 01:00:00.000,38,11.12,0.0,40,26.61,684.07,3,0.0,1,100,12,0.48,3.32,337,5.64,1.62,0.24,30,2.52,24100,28.7,9,0.01,38,4,0,26.59,0,1011,2.13,1039.29
2026-06-01 02:00:00.000,36,10.93,0.0,40,27.3,807.58,3,0.0,1,100,12,0.58,3.47,336,5.47,2.08,0.18,30,2.58,24100,29.25,10,0.01,38,6,0,26.97,0,1011,2.32,1189.54
2026-06-01 03:00:00.000,36,11.11,0.0,40,27.7,893.69,3,0.0,1,100,14,0.64,3.6,337,5.3,2.44,0.13,30,2.64,24100,29.52,11,0.02,38,7,0,27.13,0,1010,2.48,1277.52
2026-06-01 04:00:00.000,37,11.35,0.0,40,27.98,921.57,3,0.0,1,100,15,0.66,3.73,340,5.16,2.57,0.09,30,2.73,24100,29.78,11,0.02,37,8,0,27.31,0,1010,2.63,1297.23
2026-06-01 05:00:00.000,37,11.54,0.0,40,28.04,884.08,3,0.0,1,100,17,0.64,3.86,343,5.04,2.52,0.06,30,2.83,24100,29.98,11,0.02,37,8,0,27.47,0,1010,2.75,1247.36
2026-06-01 06:00:00.000,38,11.88,0.0,40,27.65,793.3,3,0.0,1,100,19,0.57,3.9,347,4.9,2.3,0.03,30,2.84,24100,29.74,12,0.03,38,6,0,27.3,0,1010,2.8,1131.3
2026-06-01 07:00:00.000,41,12.36,0.0,40,26.46,644.55,3,0.0,1,100,20,0.46,3.82,350,4.74,2.03,0.03,30,2.73,24100,28.82,11,0.03,37,4,0,26.6,0,1010,2.73,956.98
2026-06-01 08:00:00.000,45,12.96,0.0,40,25.28,461.96,3,0.0,1,100,22,0.33,3.67,354,4.57,1.75,0.05,30,2.54,24100,27.47,10,0.02,37,2,0,25.57,0,1010,2.59,736.28
2026-06-01 09:00:00.000,50,13.53,0.0,40,24.62,268.96,3,0.0,1,99,25,0.19,3.5,356,4.4,1.5,0.07,29,2.34,24100,26.1,9,0.02,38,1,0,24.54,0,1010,2.43,484.25
2026-06-01 10:00:00.000,54,13.99,0.0,40,23.95,90.95,3,0.0,1,99,27,0.07,3.34,358,4.25,1.3,0.1,29,2.17,24100,24.78,7,0.02,38,0,0,23.57,0,1010,2.25,218.07
2026-06-01 11:00:00.000,59,14.27,0.0,17,23.22,11.62,3,0.0,0,99,30,0.02,3.16,1,4.1,1.13,0.14,29,1.99,24100,23.48,6,0.01,39,0,0,22.61,0,1011,2.06,29.46
2026-06-01 12:00:00.000,62,14.37,0.0,0,22.63,-0.03,3,0.0,0,99,34,0.01,3.0,0,3.9,0.91,0.17,29,1.84,24100,22.41,6,0.01,40,0,0,21.83,0,1011,1.9,0.0
2026-06-01 13:00:00.000,65,14.37,0.0,0,22.15,0.0,3,0.0,0,99,38,0.0,2.85,354,3.6,0.65,0.18,29,1.73,24100,21.57,5,0.01,40,0,0,21.18,0,1011,1.79,0.0
2026-06-01 14:00:00.000,67,14.33,0.0,0,21.75,0.0,3,0.0,0,99,42,0.0,2.71,336,3.25,0.36,0.19,29,1.64,24100,20.86,5,0.01,40,0,0,20.58,0,1010,1.72,0.0
2026-06-01 15:00:00.000,69,14.33,0.0,0,21.38,0.0,3,0.0,0,99,47,0.0,2.6,293,2.9,0.18,0.2,29,1.58,24100,20.29,6,0.0,40,0,0,20.09,0,1010,1.66,0.0
2026-06-01 16:00:00.000,71,14.4,0.0,0,21.01,0.0,3,0.0,0,99,51,0.0,2.51,222,2.57,0.21,0.22,29,1.57,24100,19.87,6,0.0,40,0,0,19.71,0,1010,1.62,0.0
2026-06-01 17:00:00.000,72,14.48,0.0,0,20.75,0.0,3,0.0,0,100,56,0.0,2.44,197,2.24,0.36,0.23,30,1.59,24100,19.68,8,0.0,40,0,0,19.53,0,1010,1.6,0.0
2026-06-01 18:00:00.000,71,14.51,0.0,0,20.88,0.0,3,0.0,0,100,60,0.0,2.4,192,1.9,0.51,0.23,30,1.61,24100,19.95,9,0.0,41,0,0,19.75,0,1010,1.61,0.0
2026-06-01 19:00:00.000,68,14.44,0.0,0,21.57,0.0,3,0.0,0,100,62,0.0,2.38,189,1.53,0.61,0.2,30,1.6,24100,20.85,9,0.0,40,0,0,20.53,0,1010,1.66,0.0
2026-06-01 20:00:00.000,62,14.22,0.0,0,22.66,0.0,3,0.0,1,100,65,0.0,2.38,183,1.15,0.69,0.16,30,1.59,24100,22.24,9,0.0,40,0,0,21.76,0,1010,1.74,0.0
2026-06-01 21:00:00.000,56,13.81,0.0,35,23.84,30.42,3,0.0,1,100,67,0.02,2.4,179,0.8,0.64,0.13,30,1.61,24100,23.72,10,0.0,40,0,0,23.06,0,1011,1.85,86.86
2026-06-01 22:00:00.000,51,13.4,0.0,40,24.89,151.41,3,0.0,1,100,68,0.09,2.44,176,0.5,0.52,0.12,30,1.69,24100,25.02,10,0.0,39,0,0,24.16,0,1011,1.97,334.68
2026-06-01 23:00:00.000,46,13.02,0.0,40,25.87,319.17,3,0.0,1,100,69,0.2,2.5,184,0.23,0.3,0.13,30,1.81,24100,26.2,11,0.0,39,1,0,25.13,0,1011,2.11,596.86
2026-06-02 00:00:00.000,42,12.17,0.0,40,26.25,497.09,3,0.0,1,100,69,0.33,2.6,267,0.0,0.42,0.17,30,1.94,24100,27.17,12,0.0,39,2,0,25.87,0,1011,2.3,837.22
2026-06-02 01:00:00.000,40,11.68,0.0,40,26.83,626.4,3,0.0,1,100,67,0.43,2.74,296,-0.16,0.74,0.25,30,2.1,24100,27.9,12,0.01,38,4,0,26.34,0,1011,2.56,1039.38
2026-06-02 02:00:00.000,38,11.46,0.0,40,27.5,742.34,3,0.0,1,100,64,0.52,2.92,307,-0.28,1.18,0.36,30,2.27,24100,28.51,13,0.01,38,7,0,26.68,0,1010,2.86,1189.6
2026-06-02 03:00:00.000,38,11.61,0.0,40,27.89,825.41,3,0.0,1,100,62,0.59,3.1,313,-0.4,1.54,0.47,30,2.44,24100,28.85,15,0.01,39,9,0,26.8,0,1010,3.13,1277.64
2026-06-02 04:00:00.000,39,11.93,0.0,40,28.17,854.77,3,0.0,1,100,59,0.61,3.29,318,-0.52,1.7,0.58,30,2.62,24100,29.19,16,0.01,39,10,0,26.95,0,1010,3.38,1297.51
2026-06-02 05:00:00.000,39,12.24,0.0,40,28.22,822.87,3,0.0,1,100,55,0.59,3.48,321,-0.64,1.71,0.69,30,2.79,24100,29.47,17,0.02,39,10,0,27.09,0,1009,3.61,1247.87
2026-06-02 06:00:00.000,41,12.67,0.0,40,27.81,741.1,3,0.0,1,100,52,0.53,3.6,323,-0.8,1.54,0.77,30,2.86,24100,29.28,19,0.02,39,8,0,26.9,0,1009,3.71,1132.12
2026-06-02 07:00:00.000,44,13.18,0.0,40,26.6,602.68,3,0.0,1,100,47,0.42,3.61,326,-1.02,1.31,0.78,30,2.78,24100,28.34,19,0.02,38,5,0,26.18,0,1009,3.62,958.15
2026-06-02 08:00:00.000,49,13.78,0.0,40,25.61,432.36,3,0.0,1,100,42,0.29,3.56,329,-1.28,1.07,0.76,30,2.61,24100,26.92,18,0.02,37,3,0,25.14,0,1009,3.41,737.82
2026-06-02 09:00:00.000,54,14.3,0.0,40,24.88,252.35,3,0.0,1,100,38,0.17,3.5,333,-1.5,0.9,0.73,30,2.44,24100,25.49,18,0.01,37,1,0,24.1,0,1009,3.17,486.16
2026-06-02 10:00:00.000,59,14.69,0.0,40,24.12,86.24,3,0.0,1,100,33,0.06,3.44,342,-1.71,0.79,0.7,30,2.29,24100,24.11,17,0.01,36,0,0,23.13,0,1009,2.91,220.31
2026-06-02 11:00:00.000,63,14.88,0.0,17,23.27,11.34,3,0.0,0,100,29,0.01,3.37,354,-1.88,0.77,0.65,30,2.14,24100,22.75,16,0.01,36,0,0,22.18,0,1010,2.63,30.66
2026-06-02 12:00:00.000,66,14.95,0.0,0,22.58,-0.03,3,0.0,0,100,27,0.0,3.3,1,-1.9,0.71,0.6,30,2.02,24100,21.69,16,0.01,36,0,0,21.43,0,1010,2.4,0.0
2026-06-02 13:00:00.000,69,14.98,0.0,0,22.11,0.0,3,0.0,0,100,26,0.0,3.23,358,-1.67,0.57,0.54,30,1.94,24100,20.97,14,0.01,35,0,0,20.84,0,1010,2.26,0.0
2026-06-02 14:00:00.000,71,14.99,0.0,0,21.76,0.0,3,0.0,0,100,26,0.0,3.16,349,-1.28,0.36,0.47,30,1.89,24100,20.45,13,0.0,35,0,0,20.34,0,1009,2.18,0.0
2026-06-02 15:00:00.000,73,15.05,0.0,0,21.48,0.0,3,0.0,0,100,28,0.0,3.1,338,-0.9,0.19,0.4,30,1.86,24100,20.06,12,0.0,36,0,0,19.93,0,1009,2.12,0.0
2026-06-02 16:00:00.000,75,15.16,0.0,0,21.33,0.0,3,0.0,0,100,29,0.0,3.05,254,-0.56,0.04,0.33,30,1.86,24100,19.81,11,0.0,36,0,0,19.63,0,1009,2.08,0.0
2026-06-02 17:00:00.000,76,15.29,0.0,0,21.16,0.0,3,0.0,0,100,30,0.0,3.01,184,-0.22,0.18,0.26,30,1.89,24100,19.8,11,0.0,36,0,0,19.51,0,1009,2.07,0.0
2026-06-02 18:00:00.000,75,15.35,0.0,0,21.35,0.0,3,0.0,0,100,32,0.0,3.0,181,0.0,0.29,0.2,30,1.92,24100,20.17,12,0.0,37,0,0,19.75,0,1009,2.11,0.0
2026-06-02 19:00:00.000,72,15.28,0.0,0,22.03,0.0,3,0.0,0,100,32,0.0,3.01,176,0.05,0.34,0.14,30,1.94,24100,21.06,14,0.0,37,0,0,20.49,0,1009,2.2,0.0
2026-06-02 20:00:00.000,66,15.04,0.0,0,23.06,0.0,3,0.0,1,100,31,0.0,3.04,162,-0.01,0.36,0.09,30,1.95,24100,22.38,16,0.0,37,0,0,21.63,0,1009,2.33,0.0
2026-06-02 21:00:00.000,60,14.66,0.0,35,24.13,28.91,3,0.0,1,100,31,0.01,3.1,138,-0.1,0.32,0.07,30,2.0,24100,23.75,20,0.0,38,0,0,22.82,0,1009,2.49,87.3
2026-06-02 22:00:00.000,55,14.3,0.0,40,25.0,141.58,3,0.0,1,100,30,0.08,3.17,108,-0.2,0.31,0.06,30,2.09,24100,24.93,23,0.0,38,0,0,23.81,0,1009,2.66,335.41
2026-06-02 23:00:00.000,51,14.0,0.0,40,25.71,297.46,3,0.0,1,100,30,0.19,3.27,69,-0.32,0.32,0.07,30,2.22,24100,25.96,26,0.0,39,1,0,24.64,0,1009,2.85,597.3
2026-06-03 00:00:00.000,47,13.29,0.0,40,26.02,463.84,3,0.0,1,100,29,0.31,3.4,357,-0.4,0.38,0.13,30,2.36,24100,26.76,29,0.01,40,2,0,25.24,0,1009,3.08,837.44
2026-06-03 01:00:00.000,45,12.96,0.0,40,26.15,579.63,3,0.0,1,100,27,0.4,3.59,344,-0.4,0.73,0.27,30,2.51,24100,27.28,28,0.01,40,4,0,25.54,0,1009,3.37,1039.48
2026-06-03 02:00:00.000,45,12.88,0.0,40,26.65,683.27,3,0.0,1,100,24,0.48,3.8,339,-0.36,1.12,0.45,30,2.68,24100,27.66,26,0.01,40,7,0,25.69,0,1009,3.69,1189.66
2026-06-03 03:00:00.000,45,13.09,0.0,40,26.87,756.66,3,0.0,1,100,23,0.53,4.0,339,-0.3,1.45,0.63,30,2.84,24100,27.8,25,0.01,40,9,0,25.64,0,1008,3.97,1277.76
2026-06-03 04:00:00.000,46,13.4,0.0,40,26.98,780.18,3,0.0,1,100,21,0.54,4.19,342,-0.24,1.6,0.84,30,3.05,24100,27.95,23,0.02,40,9,0,25.63,0,1008,4.22,1297.79
2026-06-03 05:00:00.000,47,13.69,0.0,40,26.9,747.21,3,0.0,1,100,20,0.52,4.35,346,-0.16,1.6,1.05,30,3.25,24100,28.07,22,0.02,40,9,0,25.64,0,1007,4.43,1248.38
2026-06-03 06:00:00.000,49,14.02,0.0,40,26.41,669.73,3,0.0,1,100,20,0.47,4.4,351,-0.1,1.46,1.2,30,3.33,24100,27.81,22,0.02,40,7,0,25.4,0,1007,4.5,1132.93
2026-06-03 07:00:00.000,52,14.36,0.0,40,25.28,545.46,3,0.0,1,100,20,0.37,4.27,357,-0.07,1.29,1.27,30,3.2,24100,26.95,23,0.02,39,5,0,24.75,0,1007,4.35,959.31
2026-06-03 08:00:00.000,56,14.75,0.0,40,24.64,391.82,3,0.0,1,100,21,0.26,4.04,2,-0.05,1.13,1.28,30,2.95,24100,25.72,25,0.02,39,3,0,23.86,0,1007,4.06,739.36
2026-06-03 09:00:00.000,61,15.13,0.0,40,24.0,229.39,3,0.0,1,100,24,0.15,3.8,5,0.0,1.0,1.27,30,2.69,24100,24.49,28,0.02,39,1,0,22.98,0,1007,3.74,488.06
2026-06-03 10:00:00.000,65,15.45,0.0,40,23.37,79.35,3,0.0,1,100,26,0.06,3.59,7,0.04,0.93,1.25,30,2.46,24100,23.33,30,0.01,38,0,0,22.18,0,1007,3.4,222.56
2026-06-03 11:00:00.000,69,15.63,0.0,18,22.71,10.85,3,0.0,0,100,30,0.01,3.37,8,0.12,0.91,1.21,30,2.24,24100,22.2,33,0.01,38,0,0,21.43,0,1008,3.02,31.85
2026-06-03 12:00:00.000,72,15.72,0.0,0,22.21,-0.03,3,0.0,0,100,35,0.0,3.2,8,0.4,0.82,1.17,30,2.06,24100,21.31,35,0.01,39,0,0,20.83,0,1008,2.71,0.0
2026-06-03 13:00:00.000,75,15.76,0.0,0,21.83,0.0,3,0.0,0,100,40,0.0,3.09,4,1.0,0.67,1.11,30,1.95,24100,20.63,34,0.0,39,0,0,20.33,0,1007,2.49,0.0
2026-06-03 14:00:00.000,77,15.79,0.0,0,21.53,0.0,3,0.0,0,100,47,0.0,3.03,2,1.81,0.45,1.06,30,1.88,24100,20.08,32,0.0,39,0,0,19.87,0,1007,2.33,0.0
2026-06-03 15:00:00.000,79,15.85,0.0,0,21.31,0.0,3,0.0,0,100,54,0.0,3.0,6,2.6,0.27,1.0,30,1.86,24100,19.66,30,0.0,40,0,0,19.5,0,1007,2.2,0.0
2026-06-03 16:00:00.000,81,15.98,0.0,0,21.2,0.0,15,0.0,0,100,60,0.0,3.01,35,3.39,0.12,0.95,30,1.89,24100,19.39,28,0.0,40,0,0,19.24,0,1007,2.09,0.0
2026-06-03 17:00:00.000,82,16.13,0.0,0,21.19,0.0,15,0.0,0,100,67,0.0,3.06,118,4.16,0.12,0.9,30,1.96,24100,19.35,26,0.0,40,0,0,19.15,0,1006,2.02,0.0
2026-06-03 18:00:00.000,81,16.25,0.0,0,21.46,0.0,15,0.0,0,100,72,0.0,3.1,154,4.7,0.21,0.87,30,2.02,24100,19.78,25,0.0,41,0,0,19.45,0,1006,2.0,0.0
2026-06-03 19:00:00.000,78,16.33,0.0,0,22.24,0.0,3,0.0,0,100,72,0.0,3.13,167,4.87,0.33,0.86,30,2.05,24100,20.85,24,0.0,40,0,0,20.27,0,1006,2.06,0.0
2026-06-03 20:00:00.000,72,16.3,0.0,0,23.37,0.0,3,0.0,1,100,70,0.0,3.15,168,4.8,0.45,0.86,30,2.07,24100,22.41,24,0.0,40,0,0,21.5,0,1006,2.17,0.0
2026-06-03 21:00:00.000,66,16.11,0.0,35,24.58,28.04,3,0.0,1,100,69,0.02,3.2,166,4.7,0.45,0.87,30,2.11,24100,24.04,24,0.0,40,0,0,22.79,0,1006,2.3,87.74
2026-06-03 22:00:00.000,60,15.84,0.0,40,25.59,138.35,3,0.0,1,100,67,0.09,3.28,165,4.6,0.4,0.88,30,2.18,24100,25.47,24,0.0,40,0,0,23.87,0,1007,2.45,336.15
2026-06-03 23:00:00.000,56,15.53,0.0,40,26.5,295.39,3,0.0,1,100,65,0.19,3.39,178,4.47,0.25,0.89,30,2.27,24100,26.75,24,0.0,40,1,0,24.8,0,1007,2.62,597.75
2026-06-04 00:00:00.000,51,14.78,0.0,40,26.79,468.62,3,0.0,1,100,66,0.31,3.5,267,4.4,0.42,0.87,30,2.39,24100,27.73,25,0.0,40,2,0,25.5,0,1007,2.8,837.67
