time,relativehumidity,dewpointtemperature,precipitation,sunshinetime,felttemperature,ghi_backwards,pictocode,snowfraction,isdaylight,highclouds,cape,referenceevapotranspiration_fao,gust,winddirection,liftedindex,windspeed,precipitation_spread,totalcloudcover,windspeed_spread,visibility,skintemperature,precipitation_probability,evapotranspiration,totalcloudcover_spread,uvindex,lowclouds,temperature,midclouds,sealevelpressure,temperature_spread,extraterrestrialradiation_backwards
2026-03-12 00:00:00.000,56,0.21,0.0,38,5.16,388.0,4,0.0,1,0,28,0.16,4.2,76,7.39,1.71,0.0,33,0.36,18220,12.76,0,0.07,22,1,33,8.45,9,1023,0.14,532.59
2026-03-12 01:00:00.000,50,-0.08,0.0,49,6.32,586.0,4,0.0,1,0,30,0.26,5.32,63,7.13,2.18,0.0,16,0.43,21230,15.86,0,0.11,20,1,16,9.78,3,1023,0.2,769.71
2026-03-12 02:00:00.000,47,-0.35,0.0,48,7.43,754.66,4,0.0,1,0,33,0.34,6.47,43,6.64,2.72,0.0,17,0.54,22020,17.95,0,0.14,17,3,17,10.4,0,1022,0.28,951.27
2026-03-12 03:00:00.000,45,-0.47,0.0,35,7.76,841.05,4,0.0,1,0,36,0.38,7.45,24,6.0,3.3,0.0,38,0.64,22820,19.03,0,0.17,15,4,38,10.74,4,1022,0.36,1064.92
2026-03-12 04:00:00.000,44,-0.54,0.0,38,7.6,843.21,4,0.0,1,0,32,0.38,8.29,17,5.68,3.78,0.04,33,0.71,21220,18.86,0,0.17,11,5,33,10.97,16,1021,0.43,1102.92
2026-03-12 05:00:00.000,44,-0.49,0.0,38,7.11,776.96,4,0.0,1,0,49,0.35,8.97,16,5.64,4.2,0.09,33,0.77,21420,17.89,8,0.17,8,4,33,11.14,6,1021,0.51,1062.71
2026-03-12 06:00:00.000,45,-0.31,0.0,47,6.15,642.46,4,0.0,1,0,58,0.3,9.45,16,6.13,4.55,0.12,20,0.78,24820,16.41,9,0.16,7,3,20,11.07,0,1020,0.56,947.03
2026-03-12 07:00:00.000,47,-0.09,0.0,46,5.16,490.34,4,0.0,1,0,77,0.24,10.36,19,6.14,4.83,0.12,20,0.73,24620,13.96,9,0.14,8,2,20,10.68,0,1021,0.59,763.78
2026-03-12 08:00:00.000,50,0.26,0.0,52,4.51,310.08,4,0.0,1,0,102,0.17,10.61,23,5.74,4.97,0.11,12,0.64,20420,11.2,9,0.1,11,1,12,10.08,0,1021,0.61,525.49
2026-03-12 09:00:00.000,54,0.71,0.0,45,3.91,114.33,4,0.0,1,0,127,0.1,10.55,28,5.34,4.96,0.1,23,0.57,18220,7.84,9,0.06,14,0,23,9.4,4,1021,0.61,248.4
2026-03-12 10:00:00.000,58,1.09,0.0,15,3.49,4.55,4,0.0,0,0,141,0.07,10.2,34,5.29,4.8,0.09,38,0.53,18230,6.18,19,0.03,13,0,38,8.8,4,1022,0.59,37.62
2026-03-12 11:00:00.000,61,1.32,0.0,0,3.3,0.0,4,0.0,0,0,156,0.05,10.03,39,5.4,4.46,0.07,38,0.51,18080,5.68,28,0.02,10,0,38,8.34,4,1022,0.56,0.0
2026-03-12 12:00:00.000,63,1.54,0.0,0,3.16,0.0,4,0.0,0,0,170,0.04,9.45,38,5.61,4.15,0.06,37,0.5,17890,5.26,28,0.02,10,0,37,7.94,1,1023,0.53,0.0
2026-03-12 13:00:00.000,65,1.59,0.0,0,3.06,0.0,4,0.0,0,0,159,0.03,8.76,43,5.98,3.79,0.04,34,0.5,18300,4.69,19,0.02,12,0,34,7.58,2,1023,0.52,0.0
2026-03-12 14:00:00.000,67,1.48,0.0,0,2.79,0.0,4,0.0,0,0,149,0.03,7.87,41,6.17,3.51,0.03,34,0.52,17900,4.23,18,0.02,16,0,34,7.14,3,1023,0.52,0.0
2026-03-12 15:00:00.000,68,1.24,0.0,0,2.37,0.0,4,0.0,0,0,140,0.03,6.95,42,5.77,3.29,0.02,39,0.58,16280,4.4,18,0.01,18,0,39,6.6,2,1023,0.52,0.0
2026-03-12 16:00:00.000,68,0.91,0.0,0,1.98,0.0,4,0.0,0,0,140,0.02,6.3,43,5.43,3.21,0.03,30,0.69,15680,3.93,9,0.02,15,0,30,6.21,5,1023,0.52,0.0
2026-03-12 17:00:00.000,68,0.55,0.0,0,1.57,0.0,4,0.0,0,0,140,0.02,6.27,48,6.59,3.13,0.05,22,0.83,13890,2.16,18,0.01,10,0,22,5.8,5,1023,0.52,0.0
2026-03-12 18:00:00.000,69,0.27,0.0,0,1.15,0.0,4,0.0,0,0,142,0.02,6.5,45,7.79,3.11,0.06,10,0.98,14280,0.86,9,0.0,8,0,10,5.41,2,1023,0.52,0.0
2026-03-12 19:00:00.000,70,0.11,0.0,0,0.62,0.0,4,0.0,0,0,144,0.02,6.47,41,8.53,3.15,0.06,12,1.18,16080,0.24,10,0.0,10,0,7,4.93,12,1023,0.53,0.0
2026-03-12 20:00:00.000,73,0.19,0.0,0,0.18,0.0,4,0.0,0,0,147,0.02,6.75,47,8.69,3.29,0.04,22,1.4,16080,-0.02,28,0.0,15,0,22,4.57,7,1023,0.53,0.0
2026-03-12 21:00:00.000,73,0.38,0.0,0,0.06,0.0,7,0.0,0,0,154,0.02,7.85,43,8.64,3.56,0.04,43,1.53,13840,1.13,28,0.0,19,0,43,4.62,26,1023,0.56,0.0
2026-03-12 22:00:00.000,69,0.39,0.0,12,0.69,5.88,7,0.0,1,0,159,0.04,9.03,39,8.13,3.95,0.05,52,1.5,12640,3.19,28,0.01,18,0,52,5.53,39,1024,0.61,44.71
2026-03-12 23:00:00.000,62,0.23,0.0,27,1.76,101.68,7,0.0,1,0,171,0.07,10.04,35,9.1,4.38,0.07,50,1.39,14230,8.16,29,0.03,15,0,50,6.92,17,1025,0.67,262.63
2026-03-13 00:00:00.000,56,-0.03,0.0,26,2.54,265.51,7,0.0,1,0,184,0.14,10.95,37,11.01,4.85,0.09,52,1.3,15440,9.63,39,0.06,15,0,52,8.07,28,1026,0.74,538.97
2026-03-13 01:00:00.000,52,-0.46,0.0,29,2.72,436.3,7,0.0,1,0,150,0.2,11.51,31,12.79,5.21,0.11,47,1.3,17230,12.65,30,0.09,18,1,47,8.57,34,1026,0.83,775.82
2026-03-13 02:00:00.000,50,-0.91,0.0,41,2.61,541.52,4,0.0,1,0,176,0.24,11.47,27,13.16,5.52,0.12,28,1.33,17030,13.83,40,0.12,24,3,28,8.74,22,1025,0.93,957.07
2026-03-13 03:00:00.000,49,-1.23,0.0,37,2.84,659.5,4,0.0,1,0,179,0.28,11.8,32,13.77,5.85,0.13,35,1.3,17230,15.25,40,0.12,28,4,35,8.76,16,1025,1.02,1070.37
2026-03-13 04:00:00.000,48,-1.51,0.0,29,3.13,762.6,7,0.0,1,0,162,0.31,12.46,26,14.63,6.12,0.15,48,1.18,17030,15.12,31,0.14,28,4,48,8.84,21,1025,1.08,1108.01
2026-03-13 05:00:00.000,47,-1.78,0.0,36,2.62,693.18,4,0.0,1,0,145,0.29,13.37,25,15.83,6.36,0.16,37,1.04,16430,13.82,23,0.13,26,4,37,8.85,18,1025,1.12,1067.44
2026-03-13 06:00:00.000,46,-2.04,0.0,33,2.18,650.89,7,0.0,1,0,129,0.27,14.0,25,17.39,6.57,0.15,41,0.94,15830,12.47,23,0.12,26,3,41,8.77,6,1025,1.15,951.45
2026-03-13 07:00:00.000,46,-2.22,0.0,37,1.44,492.81,4,0.0,1,0,107,0.22,13.75,28,18.93,6.55,0.12,36,0.87,15830,8.15,23,0.09,27,2,36,8.47,7,1025,1.18,767.95
2026-03-13 08:00:00.000,48,-2.33,0.0,34,1.04,304.32,4,0.0,1,0,89,0.16,13.22,30,20.17,6.38,0.08,39,0.81,14430,7.98,23,0.06,29,1,39,7.97,5,1025,1.2,529.48
2026-03-13 09:00:00.000,50,-2.36,0.0,35,0.6,107.13,4,0.0,1,0,71,0.1,12.4,34,20.89,6.13,0.04,38,0.78,15040,5.17,13,0.04,30,0,38,7.35,0,1026,1.21,252.3
2026-03-13 10:00:00.000,52,-2.25,0.0,13,0.19,4.57,7,0.0,0,0,52,0.08,11.84,35,20.41,5.9,0.02,47,0.78,15050,4.07,3,0.02,25,0,47,6.77,0,1026,1.19,39.57
2026-03-13 11:00:00.000,54,-2.06,0.0,0,0.07,0.0,7,0.0,0,0,52,0.06,11.44,34,19.9,5.68,0.02,48,0.82,14700,4.03,1,0.02,19,0,48,6.47,0,1027,1.15,0.0
2026-03-13 12:00:00.000,56,-1.79,0.0,0,0.1,0.0,7,0.0,0,0,53,0.06,10.9,35,20.01,5.41,0.01,51,0.85,15700,4.25,0,0.02,16,0,51,6.27,0,1027,1.11,0.0
2026-03-13 13:00:00.000,58,-1.49,0.0,0,0.18,0.0,7,0.0,0,0,49,0.05,10.35,33,19.94,5.12,0.01,54,0.88,15090,4.04,0,0.01,17,0,54,6.11,0,1027,1.08,0.0
2026-03-13 14:00:00.000,60,-1.17,0.0,0,0.12,0.0,7,0.0,0,0,43,0.05,10.96,36,20.68,4.83,0.0,59,0.9,13880,3.21,0,0.01,20,0,59,5.81,0,1027,1.05,0.0
2026-03-13 15:00:00.000,62,-0.93,0.0,0,0.26,0.0,19,0.0,0,0,39,0.04,10.7,37,21.37,4.61,0.0,81,0.95,13880,4.83,0,0.02,23,0,81,5.76,0,1027,1.02,0.0
2026-03-13 16:00:00.000,62,-0.67,0.0,0,0.57,0.0,19,0.0,0,0,42,0.04,10.33,38,21.58,4.35,0.0,83,1.08,14700,4.81,7,0.02,22,0,83,5.84,0,1027,0.99,0.0
2026-03-13 17:00:00.000,63,-0.4,0.0,0,0.87,0.0,22,0.0,0,0,37,0.04,9.49,39,21.36,4.15,0.0,88,1.24,14300,4.66,7,0.02,20,0,88,5.96,0,1027,0.96,0.0
2026-03-13 18:00:00.000,64,-0.14,0.0,0,1.17,0.0,22,0.0,0,0,36,0.04,8.4,37,21.49,3.94,0.0,94,1.34,12090,2.3,7,0.01,19,0,94,6.08,0,1027,0.93,0.0
2026-03-13 19:00:00.000,65,0.11,0.0,0,1.31,0.0,22,0.0,0,0,38,0.03,8.08,33,21.26,3.81,0.0,98,1.32,12100,4.02,7,0.01,19,0,98,6.08,0,1027,0.9,0.0
2026-03-13 20:00:00.000,66,0.43,0.0,0,1.48,0.0,22,0.0,0,0,30,0.03,7.47,33,20.84,3.72,0.0,100,1.22,11910,2.39,0,0.01,19,0,100,6.14,0,1027,0.87,0.0
2026-03-13 21:00:00.000,66,0.72,0.0,0,1.86,0.0,22,0.0,0,0,29,0.03,7.4,36,20.04,3.61,0.0,100,1.12,11240,4.47,0,0.01,20,0,100,6.4,0,1027,0.86,0.0
2026-03-13 22:00:00.000,63,0.81,0.0,0,2.77,2.6,22,0.0,1,0,38,0.06,7.47,37,20.02,3.66,0.0,99,1.03,10430,5.95,25,0.01,18,0,99,7.33,0,1027,0.86,48.03
2026-03-13 23:00:00.000,58,0.86,0.0,0,3.95,42.2,22,0.0,1,0,35,0.07,7.68,39,20.72,3.78,0.0,100,0.93,9820,8.16,0,0.02,16,0,100,8.59,0,1028,0.88,269.17
2026-03-14 00:00:00.000,54,0.93,0.0,0,5.05,128.59,22,0.0,1,0,40,0.11,7.4,41,20.82,3.84,0.0,95,0.86,10030,10.49,0,0.04,16,0,95,9.72,0,1028,0.9,545.31
2026-03-14 01:00:00.000,51,0.89,0.0,0,5.6,236.85,22,0.0,1,0,45,0.16,8.26,40,20.78,3.93,0.01,95,0.81,10430,13.0,0,0.06,18,1,95,10.34,4,1028,0.93,781.89
2026-03-14 02:00:00.000,50,0.83,0.0,0,5.77,272.66,22,0.0,1,0,36,0.18,8.81,37,20.52,4.03,0.03,96,0.78,11430,15.2,0,0.09,21,3,96,10.59,0,1028,0.97,962.81
2026-03-14 03:00:00.000,50,0.84,0.0,10,5.79,408.46,19,0.0,1,0,27,0.22,8.8,31,21.3,4.12,0.04,76,0.76,13830,17.19,0,0.11,23,4,76,10.67,0,1028,0.99,1075.75
2026-03-14 04:00:00.000,50,0.81,0.0,9,5.88,457.56,19,0.0,1,0,17,0.24,8.54,29,21.31,4.09,0.03,78,0.75,14830,14.66,0,0.1,18,5,78,10.75,6,1027,0.98,1113.03
2026-03-14 05:00:00.000,49,0.76,0.0,15,6.03,496.2,7,0.0,1,0,13,0.25,8.21,27,21.04,4.0,0.01,69,0.76,15230,16.84,0,0.11,10,5,69,10.84,39,1026,0.96,1072.11
2026-03-14 06:00:00.000,49,0.7,0.0,20,6.07,515.18,7,0.0,1,0,12,0.26,8.05,24,20.6,3.87,0.0,61,0.78,15030,15.98,0,0.12,7,4,61,10.8,22,1026,0.93,955.81
2026-03-14 07:00:00.000,51,0.76,0.0,18,5.83,409.67,7,0.0,1,0,13,0.21,7.99,20,19.71,3.69,0.0,64,0.75,14630,14.37,0,0.1,10,3,64,10.42,41,1026,0.9,772.07
2026-03-14 08:00:00.000,53,0.92,0.0,15,5.42,259.09,7,0.0,1,0,13,0.14,7.45,21,19.58,3.42,0.0,69,0.69,14030,12.08,0,0.08,17,1,69,9.79,2,1026,0.87,533.43
2026-03-14 09:00:00.000,57,1.12,0.0,10,4.98,95.29,19,0.0,1,0,12,0.08,6.85,27,19.38,3.08,0.0,77,0.64,14220,9.04,0,0.04,21,0,77,9.08,10,1026,0.84,256.18
2026-03-14 10:00:00.000,61,1.38,0.0,4,4.62,4.5,19,0.0,0,0,7,0.05,6.13,35,19.9,2.73,0.0,77,0.62,14250,8.03,0,0.02,18,0,77,8.44,0,1027,0.8,41.52
2026-03-14 11:00:00.000,64,1.7,0.0,0,4.33,0.0,7,0.0,0,0,5,0.02,5.14,41,20.34,2.4,0.0,71,0.6,14480,5.57,0,0.02,13,0,71,7.86,0,1027,0.75,0.0
2026-03-14 12:00:00.000,69,1.99,0.0,0,4.01,0.0,7,0.0,0,0,4,0.01,4.45,51,20.24,2.04,0.0,59,0.58,12080,4.47,0,0.0,9,0,59,7.23,0,1027,0.71,0.0
2026-03-14 13:00:00.000,73,2.24,0.0,0,3.64,0.0,7,0.0,0,0,2,0.01,4.07,68,20.22,1.73,0.0,46,0.56,11670,3.78,0,0.0,7,0,46,6.6,0,1027,0.67,0.0
2026-03-14 14:00:00.000,78,2.44,0.0,0,3.16,0.0,4,0.0,0,0,2,0.0,4.08,81,20.32,1.45,0.0,24,0.55,11670,3.02,0,0.0,6,0,23,5.89,24,1026,0.64,0.0
2026-03-14 15:00:00.000,81,2.49,0.0,0,2.83,0.0,4,0.0,0,0,2,0.0,2.95,101,20.38,1.23,0.0,19,0.54,11270,2.4,0,0.0,6,0,13,5.41,19,1026,0.61,0.0
2026-03-14 16:00:00.000,83,2.47,0.0,0,2.6,0.0,4,0.0,0,0,1,0.0,2.9,116,20.64,1.11,0.0,32,0.55,10670,1.76,0,0.0,3,0,13,5.09,32,1026,0.6,0.0
2026-03-14 17:00:00.000,83,2.44,0.0,0,2.46,0.0,4,0.0,0,0,1,0.0,2.91,134,21.07,1.06,0.0,35,0.57,10470,1.26,0,0.0,1,0,12,4.92,35,1025,0.59,0.0
2026-03-14 18:00:00.000,85,2.43,0.0,0,2.29,0.0,7,0.0,0,0,1,0.0,3.65,142,21.03,1.02,0.0,43,0.61,10280,0.53,0,0.0,0,0,8,4.72,43,1025,0.59,0.0
2026-03-14 19:00:00.000,86,2.42,0.0,0,2.01,0.0,7,0.0,0,0,1,0.0,3.93,141,21.02,0.96,0.0,43,0.67,10090,0.93,0,0.0,0,0,15,4.4,43,1025,0.59,0.0
2026-03-14 20:00:00.000,88,2.51,0.0,0,1.85,0.0,7,0.0,0,0,1,0.0,4.04,142,20.94,0.96,0.0,46,0.74,9490,0.87,0,0.0,0,0,28,4.23,46,1025,0.58,0.0
2026-03-14 21:00:00.000,87,2.65,0.0,0,2.25,0.0,7,0.0,0,0,1,0.0,4.05,138,20.54,0.94,0.0,54,0.82,9440,0.52,0,0.0,0,0,30,4.59,54,1025,0.58,0.0
2026-03-14 22:00:00.000,78,2.59,0.0,15,3.75,9.12,7,0.0,1,0,1,0.01,3.84,135,20.21,0.91,0.0,45,0.94,9240,3.06,0,0.0,0,0,29,6.08,45,1026,0.57,51.35
2026-03-14 23:00:00.000,66,2.33,0.0,38,5.86,121.77,4,0.0,1,0,2,0.05,4.13,124,20.5,0.93,0.0,33,1.06,9830,9.17,0,0.02,0,0,22,8.25,33,1026,0.55,275.69
2026-03-15 00:00:00.000,56,2.02,0.0,17,7.85,289.23,7,0.0,1,0,3,0.14,4.25,102,20.48,1.04,0.0,66,1.14,13830,13.04,0,0.07,0,1,12,10.37,66,1026,0.56,551.61
2026-03-15 01:00:00.000,49,1.57,0.0,33,9.06,509.89,7,0.0,1,2,4,0.25,4.46,73,20.17,1.18,0.0,41,1.14,19830,16.57,0,0.1,2,2,6,11.75,41,1026,0.6,787.92
2026-03-15 02:00:00.000,45,1.13,0.0,28,10.37,669.15,7,0.0,1,6,5,0.34,4.79,38,19.82,1.36,0.0,49,1.13,25430,18.9,0,0.13,6,4,10,12.53,49,1025,0.66,968.5
2026-03-15 03:00:00.000,43,0.84,0.0,23,11.24,780.7,7,0.0,1,8,6,0.4,5.1,20,19.06,1.59,0.0,57,1.14,28030,20.29,0,0.16,10,5,12,12.95,57,1025,0.71,1081.08
2026-03-15 04:00:00.000,42,0.7,0.0,17,11.33,792.89,7,0.0,1,6,6,0.41,5.4,8,18.54,1.87,0.0,66,1.18,27230,20.5,0,0.17,11,6,11,13.22,66,1024,0.76,1117.98
2026-03-15 05:00:00.000,41,0.7,0.0,11,10.93,740.7,19,0.0,1,1,11,0.38,5.64,358,18.23,2.17,0.0,76,1.23,27630,19.73,0,0.17,11,6,8,13.37,76,1024,0.82,1076.72
2026-03-15 06:00:00.000,42,0.79,0.0,7,10.13,632.03,19,0.0,1,0,17,0.33,5.75,354,18.13,2.37,0.0,81,1.22,25830,18.25,0,0.16,14,5,7,13.32,81,1023,0.83,960.12
2026-03-15 07:00:00.000,44,1.02,0.0,8,9.36,464.35,19,0.0,1,4,11,0.25,5.6,356,17.47,2.27,0.0,80,1.12,24230,16.15,0,0.13,19,3,11,12.91,80,1023,0.77,776.14
2026-03-15 08:00:00.000,47,1.35,0.0,11,8.8,275.7,20,0.0,1,11,7,0.16,5.57,4,17.62,2.11,0.0,75,0.97,23230,13.63,0,0.1,26,1,16,12.18,75,1023,0.68,537.36
2026-03-15 09:00:00.000,51,1.73,0.0,16,8.1,100.85,8,0.0,1,14,4,0.07,5.43,14,18.11,1.88,0.0,67,0.85,20630,9.34,0,0.05,30,0,18,11.26,67,1023,0.61,260.05
2026-03-15 10:00:00.000,56,2.11,0.0,11,7.41,8.8,8,0.0,0,11,2,0.04,5.07,32,17.84,1.67,0.0,54,0.78,18440,6.29,0,0.01,28,0,15,10.36,54,1024,0.59,43.46
2026-03-15 11:00:00.000,60,2.48,0.0,0,6.84,0.0,4,0.0,0,4,2,0.02,4.81,66,17.91,1.57,0.0,39,0.74,16710,5.57,0,0.0,23,0,9,9.65,39,1024,0.6,0.0
2026-03-15 12:00:00.000,65,2.74,0.0,0,6.18,0.0,4,0.0,0,0,2,0.01,4.36,105,17.89,1.48,0.0,29,0.71,16490,8.24,0,0.01,20,0,4,8.88,29,1024,0.61,0.0
2026-03-15 13:00:00.000,69,2.91,0.0,0,5.66,0.0,4,0.0,0,0,1,0.01,3.82,132,17.56,1.28,0.0,28,0.7,16870,4.72,0,0.01,18,0,2,8.19,28,1024,0.61,0.0
2026-03-15 14:00:00.000,73,3.05,0.0,0,5.07,0.0,4,0.0,0,0,1,0.0,2.9,150,18.8,1.1,0.0,33,0.71,17080,5.73,0,0.0,18,0,2,7.45,33,1023,0.61,0.0
2026-03-15 15:00:00.000,75,3.09,0.0,0,4.77,0.0,4,0.0,0,0,1,0.0,2.4,159,20.16,0.99,0.0,35,0.72,16890,2.77,0,0.0,18,0,3,7.06,35,1023,0.61,0.0
2026-03-15 16:00:00.000,77,3.1,0.0,0,4.52,0.0,4,0.0,0,0,1,0.0,2.27,171,20.12,0.93,0.0,33,0.72,17290,6.09,0,0.0,15,0,4,6.77,33,1023,0.61,0.0
2026-03-15 17:00:00.000,78,3.11,0.0,0,4.25,0.0,4,0.0,0,0,1,0.0,2.35,181,20.02,0.99,0.0,29,0.72,17300,1.4,0,0.0,13,0,5,6.53,29,1023,0.61,0.0
2026-03-15 18:00:00.000,80,3.13,0.0,0,3.93,0.0,4,0.0,0,0,1,0.0,2.6,185,20.0,1.02,0.0,26,0.71,17500,4.12,0,0.0,12,0,7,6.24,26,1023,0.61,0.0
2026-03-15 19:00:00.000,82,3.09,0.0,0,3.46,0.0,4,0.0,0,1,1,0.0,1.44,186,19.94,1.07,0.0,23,0.66,17490,0.16,0,0.0,12,0,11,5.81,23,1022,0.61,0.0
2026-03-15 20:00:00.000,84,3.09,0.0,0,3.02,0.0,4,0.0,0,3,1,0.0,1.61,179,20.22,1.16,0.0,22,0.59,17500,-0.21,0,0.0,14,0,16,5.43,22,1022,0.6,0.0
2026-03-15 21:00:00.000,83,3.08,0.0,0,3.23,0.0,4,0.0,0,4,1,0.0,1.68,174,20.39,1.17,0.0,25,0.58,18240,-0.62,0,0.0,16,0,18,5.65,25,1022,0.61,0.0
2026-03-15 22:00:00.000,74,2.89,0.0,19,4.67,12.99,4,0.0,1,4,1,0.01,1.58,173,20.63,1.12,0.0,36,0.67,19840,2.91,0,0.0,17,0,14,7.1,36,1023,0.64,54.65
2026-03-15 23:00:00.000,62,2.61,0.0,27,6.9,124.64,7,0.0,1,3,1,0.06,1.8,173,20.68,1.08,0.0,51,0.8,22030,11.11,0,0.02,18,0,6,9.35,51,1023,0.68,282.18
2026-03-16 00:00:00.000,53,2.32,0.0,19,8.95,314.74,7,0.0,1,3,2,0.15,2.28,174,20.66,1.15,0.0,63,0.89,27630,16.17,0,0.07,20,1,1,11.5,63,1023,0.72,557.88
2026-03-16 01:00:00.000,47,1.94,0.0,14,10.06,488.9,7,0.0,1,1,2,0.25,3.84,193,20.57,1.3,0.01,71,0.91,29040,19.8,0,0.12,21,2,0,12.78,71,1023,0.75,793.89
2026-03-16 02:00:00.000,44,1.63,0.0,11,10.9,628.25,19,0.0,1,0,3,0.33,3.72,351,19.76,1.57,0.01,76,0.9,29830,21.73,0,0.16,22,3,2,13.39,76,1022,0.78,974.13
2026-03-16 03:00:00.000,43,1.48,0.0,9,11.41,719.3,19,0.0,1,0,5,0.38,3.78,349,18.5,1.88,0.02,79,0.92,29230,22.82,0,0.18,22,5,3,13.62,79,1022,0.8,1086.34
2026-03-16 04:00:00.000,43,1.45,0.0,8,11.36,728.28,19,0.0,1,0,4,0.38,3.95,344,17.67,2.1,0.01,80,0.99,28030,22.97,0,0.19,19,5,2,13.69,80,1022,0.81,1122.88
2026-03-16 05:00:00.000,43,1.6,0.0,9,10.9,678.41,19,0.0,1,2,4,0.36,4.21,340,16.9,2.29,0.01,79,1.06,27830,22.27,0,0.18,16,3,0,13.64,79,1021,0.8,1081.27
2026-03-16 06:00:00.000,45,1.87,0.0,9,10.03,577.37,19,0.0,1,3,5,0.31,4.2,340,16.79,2.43,0.02,78,1.08,26630,20.88,0,0.17,16,2,0,13.4,78,1020,0.8,964.37
2026-03-16 07:00:00.000,48,2.27,0.0,10,9.37,450.32,19,0.0,1,2,4,0.24,4.07,348,16.26,2.46,0.08,78,0.99,25430,18.56,0,0.14,19,2,0,12.84,78,1021,0.8,780.17
2026-03-16 08:00:00.000,52,2.71,0.0,10,8.75,288.27,19,0.0,1,1,4,0.16,3.73,2,15.82,2.36,0.16,77,0.85,22430,15.53,0,0.1,25,1,2,12.07,77,1021,0.8,541.25
2026-03-16 09:00:00.000,57,3.09,0.0,11,8.12,111.98,19,0.0,1,0,4,0.07,3.05,17,15.4,2.11,0.2,76,0.72,18430,10.95,0,0.04,29,0,5,11.2,76,1021,0.8,263.89
2026-03-16 10:00:00.000,61,3.37,0.0,5,7.54,9.47,19,0.0,0,0,3,0.04,2.4,32,15.26,1.91,0.18,77,0.64,16240,5.71,0,0.0,28,0,7,10.43,77,1021,0.8,45.4
2026-03-16 11:00:00.000,65,3.62,0.0,0,7.08,0.0,19,0.0,0,0,4,0.01,2.02,49,15.14,1.72,0.13,78,0.59,15300,4.84,0,0.0,27,0,9,9.78,78,1022,0.81,0.0
2026-03-16 12:00:00.000,68,3.76,0.0,0,6.6,0.0,19,0.0,0,0,5,0.01,1.72,66,15.01,1.55,0.08,76,0.57,14890,4.18,0,0.0,27,0,14,9.16,76,1022,0.8,0.0
2026-03-16 13:00:00.000,72,3.87,0.0,0,6.19,0.0,7,0.0,0,0,7,0.0,1.75,84,15.07,1.35,0.05,66,0.58,14490,4.56,0,0.0,30,0,23,8.58,66,1022,0.77,0.0
2026-03-16 14:00:00.000,75,3.97,0.0,0,5.8,0.0,7,0.0,0,0,9,0.0,1.69,111,14.9,1.11,0.02,52,0.61,14500,4.59,0,0.0,35,0,34,8.0,52,1022,0.74,0.0
2026-03-16 15:00:00.000,77,3.99,0.0,0,5.56,0.0,7,0.0,0,0,12,0.0,1.65,137,14.73,0.91,0.0,41,0.64,14300,3.95,0,0.0,38,0,41,7.63,41,1022,0.71,0.0
2026-03-16 16:00:00.000,78,3.94,0.0,0,5.37,0.0,7,0.0,0,0,13,0.0,1.64,149,14.91,0.77,0.0,41,0.65,14700,3.23,0,0.0,36,0,41,7.34,37,1022,0.7,0.0
2026-03-16 17:00:00.000,79,3.87,0.0,0,5.2,0.0,4,0.0,0,0,14,0.0,1.73,155,15.9,0.66,0.0,38,0.64,15070,1.74,0,0.0,32,0,38,7.11,37,1022,0.71,0.0
2026-03-16 18:00:00.000,80,3.79,0.0,0,5.03,0.0,4,0.0,0,0,15,0.0,1.9,158,16.43,0.56,0.0,35,0.64,15690,1.36,0,0.0,30,0,35,6.88,33,1022,0.71,0.0
2026-03-16 19:00:00.000,81,3.71,0.0,0,4.77,0.0,4,0.0,0,0,23,0.0,1.94,161,16.5,0.49,0.0,36,0.62,16300,1.0,0,0.0,31,0,36,6.59,23,1022,0.71,0.0
2026-03-16 20:00:00.000,83,3.73,0.0,0,4.55,0.0,4,0.0,0,0,31,0.0,2.0,162,16.57,0.47,0.0,37,0.61,17290,2.63,0,0.0,35,0,37,6.35,10,1022,0.71,0.0
2026-03-16 21:00:00.000,81,3.76,0.0,0,4.84,0.0,4,0.0,0,0,42,0.0,1.95,161,17.33,0.44,0.0,35,0.64,18050,0.87,0,0.0,37,0,35,6.61,0,1022,0.71,0.0
2026-03-16 22:00:00.000,74,3.72,0.0,25,6.1,13.69,5,0.0,1,29,44,0.01,1.95,153,18.27,0.43,0.0,24,0.75,18040,3.97,0,0.0,34,0,24,7.88,0,1022,0.7,57.98
2026-03-16 23:00:00.000,64,3.6,0.0,46,8.09,128.14,3,0.0,1,70,51,0.05,1.89,139,18.29,0.43,0.0,21,0.91,19030,12.6,0,0.02,30,0,9,9.89,0,1023,0.69,288.71
2026-03-17 00:00:00.000,56,3.44,0.0,40,9.98,321.96,3,0.0,1,100,52,0.15,2.15,119,17.91,0.43,0.0,30,1.06,24030,17.4,0,0.07,29,1,0,11.82,0,1023,0.71,564.17
2026-03-17 01:00:00.000,51,3.18,0.0,40,11.09,493.06,6,0.0,1,100,51,0.25,3.09,34,17.8,0.5,0.0,30,1.19,27030,20.96,0,0.12,32,2,4,13.02,14,1023,0.79,799.87
2026-03-17 02:00:00.000,48,3.01,0.0,38,11.97,627.2,6,0.0,1,99,40,0.33,3.63,351,17.1,0.78,0.0,33,1.3,30430,23.21,0,0.16,38,3,15,13.63,33,1023,0.9,979.75
2026-03-17 03:00:00.000,47,2.94,0.0,30,12.59,711.37,9,0.0,1,94,27,0.38,4.35,345,15.83,1.08,0.0,45,1.42,32230,24.25,1,0.19,41,4,21,13.95,45,1023,1.0,1091.57
2026-03-17 04:00:00.000,46,2.93,0.0,34,12.86,749.28,6,0.0,1,96,18,0.4,5.1,346,15.02,1.28,0.0,39,1.57,32230,24.01,1,0.2,37,5,18,14.14,39,1022,1.08,1127.72
2026-03-17 05:00:00.000,47,3.07,0.0,40,12.62,726.0,6,0.0,1,99,9,0.39,5.99,349,14.59,1.48,0.0,29,1.74,32430,22.97,2,0.19,30,5,10,14.19,25,1022,1.15,1085.76
2026-03-17 06:00:00.000,48,3.24,0.0,40,11.87,636.22,6,0.0,1,100,6,0.34,6.45,352,14.88,1.57,0.0,30,1.84,29430,20.89,2,0.16,27,4,5,14.02,18,1021,1.21,968.56
2026-03-17 07:00:00.000,50,3.49,0.0,41,11.01,489.84,6,0.0,1,96,5,0.26,6.11,354,14.57,1.47,0.0,28,1.83,27830,18.76,2,0.13,30,3,6,13.56,27,1021,1.26,784.13
2026-03-17 08:00:00.000,53,3.78,0.0,32,10.57,309.41,9,0.0,1,89,5,0.16,5.2,2,14.42,1.26,0.0,43,1.75,26830,17.01,1,0.1,37,1,9,12.92,43,1021,1.29,545.06
2026-03-17 09:00:00.000,57,4.05,0.0,25,9.97,121.18,9,0.0,1,76,6,0.06,3.7,19,14.37,1.06,0.0,53,1.64,22430,12.1,1,0.05,42,0,10,12.13,53,1021,1.3,267.67
2026-03-17 10:00:00.000,62,4.31,0.0,14,9.32,10.74,9,0.0,0,53,5,0.02,2.64,34,14.41,0.89,0.0,48,1.47,18840,6.91,0,0.0,42,0,7,11.31,48,1021,1.28,47.3
2026-03-17 11:00:00.000,66,4.59,0.0,0,8.67,0.0,5,0.0,0,24,4,0.0,2.45,53,14.74,0.75,0.01,37,1.27,17480,6.62,0,0.0,41,0,2,10.5,37,1022,1.24,0.0
2026-03-17 12:00:00.000,70,4.76,0.0,0,8.01,0.0,4,0.0,0,3,4,0.0,2.15,68,15.04,0.69,0.01,32,1.14,16890,8.34,0,0.0,40,0,0,9.76,32,1022,1.21,0.0
2026-03-17 13:00:00.000,74,4.85,0.0,0,7.54,0.0,4,0.0,0,0,3,0.0,2.12,80,14.51,0.5,0.02,39,1.1,17500,9.15,0,0.0,40,0,1,9.14,39,1022,1.2,0.0
2026-03-17 14:00:00.000,77,4.87,0.0,0,6.98,0.0,7,0.0,0,0,7,0.0,2.39,88,13.42,0.53,0.03,52,1.11,18900,9.56,0,0.01,40,0,3,8.59,52,1021,1.2,0.0
2026-03-17 15:00:00.000,78,4.8,0.0,0,6.72,0.0,7,0.0,0,0,7,0.0,2.3,95,12.99,0.58,0.04,64,1.13,19690,9.66,0,0.01,40,0,5,8.39,64,1021,1.21,0.0
2026-03-17 16:00:00.000,77,4.66,0.0,0,6.72,0.0,8,0.0,0,29,6,0.0,2.03,105,13.32,0.61,0.06,69,1.15,19690,9.49,0,0.01,37,0,4,8.44,69,1021,1.23,0.0
2026-03-17 17:00:00.000,75,4.56,0.0,0,6.9,0.0,9,0.0,0,70,12,0.0,1.71,115,13.4,0.66,0.08,72,1.17,19690,10.12,0,0.01,33,0,2,8.67,72,1020,1.27,0.0
2026-03-17 18:00:00.000,74,4.53,0.0,0,7.06,0.0,21,0.0,0,100,24,0.0,1.65,122,12.8,0.75,0.09,77,1.2,19890,9.32,0,0.0,32,0,1,8.9,77,1020,1.3,0.0
2026-03-17 19:00:00.000,73,4.56,0.0,0,7.12,0.0,21,0.0,0,100,30,0.0,2.0,120,12.02,0.91,0.11,83,1.24,20500,9.61,1,0.0,33,0,1,9.06,83,1020,1.35,0.0
2026-03-17 20:00:00.000,73,4.66,0.0,0,7.18,0.0,22,0.0,0,100,34,0.0,1.91,115,11.43,1.06,0.11,91,1.29,20490,10.57,2,0.01,37,0,1,9.21,91,1020,1.4,0.0
2026-03-17 21:00:00.000,72,4.75,0.0,0,7.43,0.0,22,0.0,0,100,41,0.0,1.99,116,10.29,1.13,0.13,96,1.35,19040,9.25,3,0.0,40,0,6,9.49,96,1020,1.4,0.0
2026-03-17 22:00:00.000,69,4.75,0.0,0,8.07,4.43,22,0.0,1,83,35,0.03,2.0,125,10.04,1.19,0.14,96,1.4,17630,10.31,5,0.0,41,0,19,10.17,96,1020,1.26,61.33
2026-03-17 23:00:00.000,64,4.69,0.0,0,9.03,32.63,22,0.0,1,59,17,0.05,2.23,104,10.4,1.26,0.16,93,1.46,16430,12.42,15,0.02,41,0,36,11.19,93,1020,1.08,295.27
2026-03-18 00:00:00.000,59,4.67,0.0,1,10.07,65.96,22,0.0,1,38,13,0.07,2.26,84,10.9,1.22,0.18,91,1.56,18230,14.76,16,0.04,42,0,49,12.21,91,1020,1.05,570.47
2026-03-18 01:00:00.000,57,4.7,0.0,0,10.74,110.17,22,0.0,1,22,13,0.09,2.82,82,11.0,1.24,0.18,92,1.74,19830,16.69,19,0.06,42,2,52,12.89,92,1020,1.33,805.84
2026-03-18 02:00:00.000,56,4.88,0.0,0,11.12,160.45,22,0.0,1,8,15,0.12,2.86,80,11.11,1.25,0.18,94,1.97,19830,19.47,20,0.09,42,3,50,13.23,94,1019,1.76,985.34
2026-03-18 03:00:00.000,57,5.16,0.0,0,11.28,215.03,22,0.0,1,0,41,0.14,3.14,78,11.46,1.3,0.19,96,2.16,20630,25.22,21,0.14,43,4,52,13.38,96,1019,2.11,1096.76
2026-03-18 04:00:00.000,58,5.48,0.0,0,11.35,237.89,22,0.0,1,0,61,0.16,3.54,76,11.27,1.31,0.2,97,2.34,20630,25.92,21,0.19,42,5,66,13.38,97,1018,2.3,1132.51
2026-03-18 05:00:00.000,60,5.77,0.0,0,11.31,216.22,22,0.0,1,0,55,0.14,4.13,78,10.86,1.37,0.22,99,2.49,20830,25.16,31,0.19,41,5,84,13.32,99,1017,2.4,1090.19
2026-03-18 06:00:00.000,61,5.96,0.0,0,11.19,179.9,22,0.0,1,9,43,0.12,5.33,91,10.31,1.32,0.25,100,2.55,20630,23.42,32,0.17,41,4,94,13.12,100,1016,2.4,972.68
2026-03-18 07:00:00.000,63,6.15,0.12,0,10.95,131.44,33,0.0,1,36,30,0.1,4.43,117,9.96,1.3,0.29,99,2.45,20430,21.21,32,0.14,42,3,87,12.82,99,1016,2.26,788.03
2026-03-18 08:00:00.000,66,6.37,0.18,0,10.66,78.93,33,0.0,1,73,25,0.07,4.94,150,9.94,1.22,0.33,98,2.25,20030,18.58,25,0.1,44,1,71,12.43,98,1016,2.02,548.83
2026-03-18 09:00:00.000,69,6.6,0.21,0,10.36,32.49,33,0.0,1,100,21,0.04,2.8,165,9.78,1.1,0.37,98,2.06,18030,13.85,25,0.05,45,0,61,11.99,98,1015,1.8,271.42
2026-03-18 10:00:00.000,72,6.79,0.18,0,10.03,3.66,33,0.0,0,100,19,0.03,3.55,171,9.14,1.06,0.41,97,1.91,14630,9.51,25,0.01,42,0,64,11.6,97,1015,1.64,49.19
2026-03-18 11:00:00.000,75,7.05,0.13,0,9.72,0.0,33,0.0,0,100,17,0.0,4.25,172,9.13,1.11,0.45,98,1.77,13870,8.71,25,0.0,39,0,73,11.26,98,1015,1.5,0.0
2026-03-18 12:00:00.000,78,7.31,0.12,0,9.43,0.0,33,0.0,0,96,17,0.0,4.95,175,9.42,1.18,0.47,98,1.64,13880,8.15,25,0.0,37,0,81,10.95,98,1015,1.4,0.0
2026-03-18 13:00:00.000,80,7.53,0.2,0,9.23,0.0,33,0.0,0,86,17,0.0,5.18,184,9.73,1.26,0.45,98,1.51,13880,7.53,25,0.0,37,0,84,10.75,98,1015,1.37,0.0
2026-03-18 14:00:00.000,82,7.75,0.34,0,9.12,0.0,33,0.0,0,72,31,0.0,5.36,197,10.1,1.26,0.42,98,1.39,13880,7.18,25,0.0,38,0,85,10.59,98,1014,1.39,0.0
2026-03-18 15:00:00.000,83,7.99,0.45,0,9.21,0.0,33,0.0,0,66,35,0.0,5.15,212,10.0,1.23,0.4,98,1.35,14080,6.82,35,0.0,38,0,87,10.59,98,1014,1.4,0.0
2026-03-18 16:00:00.000,84,8.16,0.52,0,9.26,0.0,33,0.0,0,73,34,0.0,5.25,229,9.73,1.26,0.41,98,1.4,13890,6.62,35,0.0,35,0,89,10.62,98,1013,1.4,0.0
2026-03-18 17:00:00.000,85,8.29,0.56,0,9.32,0.0,33,0.0,0,88,33,0.0,5.4,246,9.32,1.34,0.43,99,1.54,13280,7.0,34,0.0,31,0,92,10.7,99,1013,1.4,0.0
2026-03-18 18:00:00.000,85,8.38,0.61,0,9.41,0.0,33,0.0,0,100,31,0.0,4.85,257,9.66,1.36,0.49,100,1.66,13280,9.51,34,0.0,28,0,94,10.79,100,1012,1.4,0.0
2026-03-18 19:00:00.000,84,8.34,0.67,0,9.45,0.0,33,0.0,0,100,31,0.0,4.31,261,9.31,1.32,0.6,100,1.71,13480,9.26,34,0.0,26,0,92,10.81,100,1012,1.4,0.0
2026-03-18 20:00:00.000,84,8.29,0.72,0,9.44,0.0,33,0.0,0,100,33,0.0,4.22,259,9.86,1.24,0.75,100,1.73,13880,9.04,34,0.0,26,0,89,10.76,100,1012,1.4,0.0
2026-03-18 21:00:00.000,83,8.17,0.73,0,9.48,0.0,33,0.0,0,100,35,0.0,4.25,257,10.03,1.24,0.87,100,1.79,14630,8.47,35,0.0,26,0,86,10.83,100,1012,1.4,0.0
2026-03-18 22:00:00.000,78,7.95,0.62,0,10.04,4.86,33,0.0,1,100,32,0.03,3.88,263,10.14,1.29,0.94,100,1.93,15030,11.27,36,0.0,25,0,84,11.48,100,1012,1.36,64.67
2026-03-18 23:00:00.000,72,7.71,0.46,0,10.89,35.57,33,0.0,1,100,29,0.05,4.84,268,9.22,1.45,1.0,100,2.11,16030,17.52,38,0.03,26,0,81,12.5,100,1013,1.31,301.82
2026-03-19 00:00:00.000,65,7.32,0.5,0,11.89,75.48,33,0.0,1,100,27,0.07,5.92,265,7.78,1.6,1.03,100,2.28,20430,22.68,39,0.09,26,0,79,13.7,100,1013,1.4,576.74
2026-03-19 01:00:00.000,62,5.83,0.65,0,11.33,97.41,33,0.0,1,100,1,0.08,3.61,115,13.56,0.58,1.02,100,2.45,17796,13.58,30,0.01,25,0,100,12.78,100,1018,1.74,811.76
2026-03-19 02:00:00.000,60,5.44,0.65,0,11.29,112.14,33,0.0,1,100,1,0.08,3.68,86,12.9,0.56,0.99,100,2.61,21437,13.59,30,0.01,24,0,100,12.8,100,1018,2.21,990.87
2026-03-19 03:00:00.000,60,5.22,0.66,0,11.01,120.93,33,0.0,1,100,2,0.09,3.8,54,12.4,0.6,0.96,100,2.73,24100,13.34,31,0.01,24,0,100,12.6,100,1018,2.61,1101.88
2026-03-19 04:00:00.000,61,5.23,0.66,0,10.67,125.99,33,0.0,1,100,2,0.09,4.02,35,12.25,0.74,0.94,100,2.8,25425,12.95,33,0.01,23,0,100,12.35,100,1017,2.9,1137.24
2026-03-19 05:00:00.000,63,5.37,0.67,0,10.41,130.24,33,0.0,1,100,2,0.1,4.29,23,12.26,0.92,0.92,100,2.82,25774,12.6,35,0.01,23,0,100,12.19,100,1017,3.12,1094.55
2026-03-19 06:00:00.000,64,5.46,0.68,0,10.22,116.62,33,0.0,1,100,3,0.09,4.5,22,12.1,1.02,0.91,100,2.8,24100,12.3,37,0.01,24,0,100,12.05,100,1016,3.21,976.75
2026-03-19 07:00:00.000,64,5.41,0.68,0,9.97,83.65,33,0.0,1,100,3,0.07,4.6,34,11.75,0.98,0.93,100,2.69,18796,11.99,39,0.01,25,0,100,11.78,100,1016,3.09,791.88
2026-03-19 08:00:00.000,66,5.33,0.68,0,9.51,45.92,33,0.0,1,100,3,0.05,4.65,54,11.23,0.99,0.95,100,2.54,11470,11.56,41,0.01,28,0,100,11.35,100,1016,2.83,552.57
2026-03-19 09:00:00.000,68,5.3,0.68,0,9.01,10.52,33,0.0,1,100,4,0.04,4.7,69,10.3,1.07,0.95,100,2.42,5900,11.06,42,0.01,29,0,100,10.91,100,1016,2.61,275.14
2026-03-19 10:00:00.000,70,5.36,0.72,0,8.58,-2.99,33,0.0,0,100,3,0.03,4.78,77,8.58,1.11,0.9,100,2.39,3464,10.46,43,0.0,25,0,100,10.5,100,1017,2.47,51.08
2026-03-19 11:00:00.000,72,5.44,0.77,0,8.22,-1.05,33,0.0,0,100,2,0.0,4.86,83,6.45,1.06,0.82,100,2.4,2784,9.79,44,0.0,20,0,100,10.08,100,1017,2.36,0.0
2026-03-19 12:00:00.000,75,5.53,0.79,0,7.93,0.0,33,0.0,0,100,2,0.0,4.9,89,4.8,0.93,0.76,100,2.42,3500,9.21,45,0.0,17,0,100,9.69,100,1018,2.3,0.0
2026-03-19 13:00:00.000,77,5.58,0.69,0,7.67,0.0,33,0.0,0,100,2,0.0,4.88,94,4.03,0.78,0.73,100,2.45,5945,8.75,43,0.0,17,0,100,9.31,100,1018,2.3,0.0
2026-03-19 14:00:00.000,79,5.61,0.63,0,7.47,0.0,33,0.0,0,100,3,0.0,4.83,97,3.73,0.62,0.71,100,2.5,9787,8.41,41,0.0,19,0,100,8.99,100,1018,2.35,0.0
2026-03-19 15:00:00.000,80,5.59,0.62,0,7.32,0.0,33,0.0,0,100,4,0.0,4.8,94,3.6,0.5,0.7,100,2.56,13660,8.2,38,0.0,22,0,100,8.77,100,1017,2.4,0.0
2026-03-19 16:00:00.000,80,5.56,0.62,0,7.27,0.0,33,0.0,0,100,4,0.0,4.82,86,3.51,0.45,0.71,100,2.64,17462,8.11,36,0.0,24,0,100,8.68,100,1017,2.44,0.0
2026-03-19 17:00:00.000,80,5.53,0.62,0,7.26,0.0,33,0.0,0,100,5,0.0,4.86,72,3.59,0.44,0.73,100,2.72,21296,8.13,34,0.0,27,0,100,8.67,100,1017,2.48,0.0
2026-03-19 18:00:00.000,79,5.46,0.61,0,7.29,0.0,33,0.0,0,100,6,0.0,4.9,60,3.9,0.46,0.75,100,2.77,24100,8.24,32,0.0,30,0,100,8.73,100,1017,2.5,0.0
2026-03-19 19:00:00.000,78,5.35,0.58,0,7.38,0.0,33,0.0,0,100,5,0.0,4.93,55,4.53,0.48,0.75,100,2.75,25270,8.47,31,0.0,30,0,100,8.86,100,1017,2.47,0.0
2026-03-19 20:00:00.000,76,5.2,0.54,0,7.54,0.0,33,0.0,0,100,5,0.0,4.96,55,5.4,0.49,0.76,100,2.69,25411,8.8,30,0.0,30,0,100,9.06,94,1018,2.42,0.0
2026-03-19 21:00:00.000,74,5.05,0.51,0,7.88,-1.22,33,0.0,1,100,5,0.0,5.0,55,6.3,0.49,0.75,100,2.64,25270,9.32,29,0.0,31,0,100,9.44,56,1018,2.37,0.0
2026-03-19 22:00:00.000,70,4.87,0.47,0,8.4,-0.03,33,0.0,1,100,4,0.02,5.07,50,7.25,0.53,0.75,100,2.63,24947,10.05,28,0.0,31,0,100,10.02,18,1018,2.31,68.0
2026-03-19 23:00:00.000,65,4.63,0.44,0,9.11,35.44,33,0.0,1,100,4,0.04,5.14,42,8.23,0.59,0.73,100,2.63,24343,11.01,28,0.0,31,0,100,10.82,0,1018,2.25,308.34
2026-03-20 00:00:00.000,61,4.36,0.0,0,9.46,102.77,22,0.0,1,100,4,0.07,5.2,44,9.0,0.79,0.71,100,2.64,23900,11.73,27,0.01,32,0,100,11.37,0,1019,2.21,582.97
2026-03-20 01:00:00.000,61,4.04,0.0,0,8.95,148.65,22,0.0,1,100,3,0.1,5.21,34,9.41,1.17,0.66,100,2.67,23817,11.72,27,0.01,33,2,100,11.18,0,1018,2.19,817.63
2026-03-20 02:00:00.000,61,3.8,0.0,0,8.42,189.83,22,0.0,1,94,3,0.12,5.21,23,9.61,1.53,0.61,94,2.72,23896,11.67,27,0.01,35,3,94,10.95,0,1018,2.2,996.34
2026-03-20 03:00:00.000,61,3.62,0.0,24,7.89,320.72,9,0.0,1,56,3,0.18,5.2,15,9.8,1.82,0.56,56,2.77,23980,11.54,27,0.02,37,4,56,10.66,0,1018,2.2,1106.94
2026-03-20 04:00:00.000,61,3.5,0.0,48,7.77,455.66,5,0.0,1,18,2,0.23,5.21,11,10.01,1.9,0.51,18,2.86,24021,11.65,28,0.02,39,5,18,10.62,0,1018,2.2,1141.9
2026-03-20 05:00:00.000,60,3.4,0.0,60,7.98,507.29,1,0.0,1,0,2,0.25,5.23,8,10.2,1.89,0.47,0,2.95,24066,12.01,28,0.03,41,5,0,10.84,0,1018,2.21,1098.86
2026-03-20 06:00:00.000,59,3.36,0.0,60,8.27,454.37,1,0.0,1,0,3,0.23,5.2,9,10.5,1.76,0.42,0,2.95,24100,12.28,27,0.03,43,4,0,11.05,0,1018,2.21,980.77
2026-03-20 07:00:00.000,59,3.4,0.0,60,8.46,351.58,1,0.0,1,0,2,0.18,5.1,15,10.97,1.51,0.36,0,2.82,24112,12.26,26,0.03,43,3,0,11.06,0,1018,2.2,795.7
2026-03-20 08:00:00.000,60,3.51,0.0,60,8.49,220.59,1,0.0,1,0,2,0.12,4.96,29,11.53,1.24,0.31,0,2.6,24112,11.98,23,0.03,43,1,0,10.88,0,1018,2.18,556.28
2026-03-20 09:00:00.000,62,3.66,0.0,60,8.29,80.36,1,0.0,1,0,3,0.05,4.8,46,12.1,1.11,0.27,0,2.39,24110,11.55,21,0.02,43,0,0,10.56,0,1019,2.16,278.86
2026-03-20 10:00:00.000,64,3.8,0.0,31,7.83,4.86,1,0.0,0,0,3,0.03,4.65,59,12.67,1.12,0.24,0,2.19,24106,10.95,19,0.02,42,0,0,10.08,0,1019,2.14,52.96
2026-03-20 11:00:00.000,68,3.9,0.0,0,7.22,-1.05,1,0.0,0,0,3,0.0,4.49,69,13.24,1.14,0.23,0,2.0,24100,10.2,17,0.02,42,0,0,9.47,0,1019,2.12,0.0
2026-03-20 12:00:00.000,71,3.97,0.0,0,6.72,0.0,1,0.0,0,0,4,0.0,4.3,78,13.7,1.06,0.26,0,1.84,24100,9.51,15,0.02,42,0,0,8.89,0,1020,2.11,0.0
2026-03-20 13:00:00.000,74,4.0,0.0,0,6.32,0.0,1,0.0,0,0,4,0.0,4.07,90,13.99,0.87,0.36,0,1.72,24112,8.9,13,0.02,41,0,0,8.36,0,1020,2.14,0.0
2026-03-20 14:00:00.000,76,3.97,0.0,0,5.97,0.0,4,0.0,0,0,4,0.0,3.83,108,14.17,0.71,0.5,10,1.62,24130,8.38,12,0.01,41,0,0,7.9,10,1019,2.18,0.0
2026-03-20 15:00:00.000,77,3.89,0.0,0,5.71,0.0,4,0.0,0,0,4,0.0,3.6,124,14.3,0.6,0.64,11,1.56,24140,8.03,11,0.01,42,0,0,7.58,11,1019,2.21,0.0
2026-03-20 16:00:00.000,77,3.78,0.0,0,5.58,0.0,4,0.0,0,0,4,0.0,3.4,136,14.4,0.55,0.79,11,1.56,24145,7.87,10,0.01,42,0,0,7.44,11,1019,2.23,0.0
2026-03-20 17:00:00.000,77,3.66,0.0,0,5.59,0.0,4,0.0,0,0,4,0.0,3.21,145,14.44,0.5,0.95,10,1.6,24142,7.86,9,0.01,42,0,0,7.42,10,1019,2.25,0.0
2026-03-20 18:00:00.000,75,3.56,0.0,0,5.72,0.0,4,0.0,0,0,4,0.0,3.1,151,14.4,0.43,1.05,10,1.64,24100,8.0,9,0.0,43,0,0,7.53,10,1019,2.21,0.0
2026-03-20 19:00:00.000,74,3.5,0.0,0,6.0,0.0,4,0.0,0,0,3,0.0,3.07,154,14.21,0.36,1.06,10,1.65,23989,8.31,9,0.0,42,0,0,7.77,10,1019,2.09,0.0
2026-03-20 20:00:00.000,72,3.45,0.0,0,6.4,0.0,5,0.0,0,10,3,0.0,3.11,153,13.94,0.3,1.02,10,1.66,23839,8.78,9,0.0,41,0,10,8.14,10,1020,1.93,0.0
2026-03-20 21:00:00.000,69,3.35,0.0,0,6.98,-1.22,5,0.0,1,11,3,0.0,3.2,154,13.7,0.25,0.96,11,1.7,23700,9.48,9,0.0,41,0,11,8.71,0,1020,1.77,0.0
2026-03-20 22:00:00.000,64,3.15,0.0,34,7.81,10.52,5,0.0,1,11,3,0.01,3.34,147,13.49,0.15,0.89,11,1.79,23570,10.42,9,0.0,40,0,11,9.5,0,1020,1.61,71.33
2026-03-20 23:00:00.000,58,2.79,0.0,53,8.86,115.67,5,0.0,1,10,3,0.05,3.52,76,13.3,0.05,0.81,10,1.91,23451,11.64,9,0.0,40,0,10,10.55,0,1020,1.46,314.84
2026-03-21 00:00:00.000,53,2.4,0.0,53,9.49,295.74,5,0.0,1,10,3,0.14,3.7,41,13.3,0.22,0.73,10,2.05,23400,12.69,10,0.0,40,0,10,11.37,0,1021,1.4,589.16
2026-03-21 01:00:00.000,52,2.07,0.0,53,9.28,440.16,5,0.0,1,10,2,0.22,3.87,16,13.57,0.61,0.67,10,2.21,23451,13.15,9,0.01,39,1,10,11.49,0,1020,1.48,823.45
2026-03-21 02:00:00.000,51,1.84,0.0,53,9.05,544.74,5,0.0,1,10,1,0.28,4.04,1,14.01,1.01,0.62,10,2.38,23570,13.64,9,0.02,38,2,10,11.58,0,1020,1.65,1001.76
2026-03-21 03:00:00.000,50,1.73,0.0,60,9.38,645.54,1,0.0,1,0,1,0.32,4.2,350,14.5,1.37,0.56,0,2.55,23700,14.01,8,0.02,38,2,0,11.59,0,1020,1.81,1111.94
2026-03-21 04:00:00.000,49,1.69,0.0,60,9.69,671.78,1,0.0,1,0,0,0.34,4.37,344,15.04,1.47,0.5,0,2.74,23839,14.58,8,0.03,37,3,0,11.83,0,1019,1.97,1146.5
2026-03-21 05:00:00.000,48,1.67,0.0,60,10.04,653.91,1,0.0,1,0,0,0.33,4.53,337,15.63,1.5,0.45,0,2.92,23989,15.35,8,0.04,37,3,0,12.31,0,1019,2.13,1103.1
2026-03-21 06:00:00.000,47,1.66,0.0,60,9.99,576.38,1,0.0,1,0,1,0.3,4.6,333,16.1,1.38,0.39,0,2.97,24100,15.78,7,0.04,38,2,0,12.65,0,1019,2.21,984.73
2026-03-21 07:00:00.000,47,1.7,0.0,60,9.99,447.41,1,0.0,1,0,0,0.23,4.53,333,16.38,1.11,0.32,0,2.82,24142,15.54,7,0.04,38,2,0,12.62,0,1019,2.15,799.46
2026-03-21 08:00:00.000,48,1.85,0.0,60,9.93,282.99,1,0.0,1,0,0,0.14,4.38,340,16.55,0.75,0.25,0,2.54,24145,14.8,6,0.04,39,1,0,12.28,0,1020,2.0,559.95
2026-03-21 09:00:00.000,51,2.06,0.0,60,9.66,106.19,1,0.0,1,0,0,0.05,4.2,0,16.7,0.47,0.19,0,2.26,24140,13.87,5,0.04,40,0,0,11.78,0,1020,1.85,282.55
2026-03-21 10:00:00.000,54,2.3,0.0,32,9.07,8.07,1,0.0,0,0,0,0.02,4.02,38,16.86,0.4,0.14,0,2.01,24131,12.74,4,0.03,40,0,0,11.1,0,1020,1.69,54.84
2026-03-21 11:00:00.000,58,2.49,0.0,0,8.19,-1.05,1,0.0,0,0,0,0.0,3.82,67,17.0,0.49,0.1,0,1.76,24113,11.42,3,0.03,41,0,0,10.25,0,1021,1.52,0.0
2026-03-21 12:00:00.000,62,2.63,0.0,0,7.42,0.0,1,0.0,0,0,1,0.0,3.6,88,17.1,0.53,0.07,0,1.56,24100,10.29,3,0.03,42,0,0,9.48,0,1021,1.4,0.0
2026-03-21 13:00:00.000,65,2.72,0.0,0,6.81,0.0,1,0.0,0,0,1,0.0,3.34,111,17.13,0.51,0.04,0,1.43,24097,9.45,1,0.03,41,0,0,8.83,0,1021,1.37,0.0
2026-03-21 14:00:00.000,67,2.74,0.0,0,6.26,0.0,1,0.0,0,0,0,0.0,3.05,137,17.11,0.55,0.02,0,1.37,24098,8.83,0,0.02,40,0,0,8.31,0,1021,1.38,0.0
2026-03-21 15:00:00.000,69,2.7,0.0,0,5.83,0.0,1,0.0,0,0,1,0.0,2.8,151,17.1,0.62,0.0,0,1.36,24100,8.42,0,0.02,40,0,0,7.94,0,1021,1.41,0.0
2026-03-21 16:00:00.000,69,2.62,0.0,0,5.57,0.0,1,0.0,0,0,1,0.0,2.59,155,17.1,0.71,0.0,0,1.43,24100,8.23,0,0.02,39,0,0,7.76,0,1021,1.44,0.0
2026-03-21 17:00:00.000,69,2.54,0.0,0,5.47,0.0,1,0.0,0,0,1,0.0,2.4,156,17.09,0.78,0.0,0,1.55,24100,8.25,0,0.01,38,0,0,7.72,0,1021,1.48,0.0
2026-03-21 18:00:00.000,68,2.49,0.0,0,5.54,0.0,1,0.0,0,0,2,0.0,2.3,158,17.1,0.83,0.0,0,1.66,24100,8.45,0,0.01,38,0,0,7.83,0,1021,1.5,0.0
2026-03-21 19:00:00.000,67,2.49,0.0,0,5.78,0.0,1,0.0,0,0,2,0.0,2.3,163,17.12,0.88,0.0,0,1.7,24100,8.87,0,0.01,37,0,0,8.11,0,1021,1.46,0.0
2026-03-21 20:00:00.000,65,2.53,0.0,0,6.17,0.0,1,0.0,0,0,1,0.0,2.37,169,17.16,0.96,0.0,0,1.73,24100,9.5,1,0.01,37,0,0,8.54,0,1021,1.4,0.0
2026-03-21 21:00:00.000,63,2.53,0.0,0,6.76,-1.22,1,0.0,1,0,2,0.0,2.5,174,17.2,1.03,0.0,0,1.8,24100,10.35,2,0.01,37,0,0,9.19,0,1021,1.36,0.0
2026-03-21 22:00:00.000,59,2.46,0.0,40,7.62,15.56,1,0.0,1,0,2,0.03,2.69,177,17.28,1.04,0.01,0,1.93,24100,11.44,3,0.01,37,0,0,10.06,0,1021,1.33,74.65
2026-03-21 23:00:00.000,53,2.24,0.0,60,8.74,145.98,1,0.0,1,0,2,0.07,2.93,181,17.37,1.01,0.04,0,2.08,24100,12.83,4,0.01,37,0,0,11.2,0,1022,1.32,321.32
2026-03-22 00:00:00.000,49,2.01,0.0,60,9.66,355.41,1,0.0,1,0,3,0.17,3.2,177,17.4,0.93,0.06,0,2.27,24100,13.99,6,0.02,38,1,0,12.11,0,1022,1.4,595.32
2026-03-22 01:00:00.000,48,1.86,0.0,60,10.09,521.2,1,0.0,1,0,2,0.26,3.49,170,17.33,0.58,0.08,0,2.48,24100,14.5,8,0.02,37,2,0,12.32,0,1021,1.63,829.23
2026-03-22 02:00:00.000,47,1.78,0.0,60,11.14,637.38,1,0.0,1,0,2,0.33,3.8,187,17.2,0.18,0.11,0,2.71,24100,15.0,10,0.02,37,3,0,12.5,0,1021,1.96,1007.12
2026-03-22 03:00:00.000,47,1.8,0.0,60,11.62,703.58,1,0.0,1,0,2,0.37,4.1,304,17.1,0.26,0.15,0,2.92,24100,15.36,12,0.03,37,4,0,12.59,0,1021,2.27,1116.86
2026-03-22 04:00:00.000,46,1.82,0.0,60,11.94,722.32,1,0.0,1,0,1,0.38,4.42,299,17.04,0.42,0.21,0,3.14,24100,15.91,14,0.03,37,5,0,12.91,0,1020,2.57,1151.01
2026-03-22 05:00:00.000,45,1.81,0.0,60,12.2,693.32,1,0.0,1,0,1,0.37,4.73,288,17.0,0.54,0.27,0,3.35,24100,16.64,16,0.03,37,5,0,13.46,0,1020,2.85,1107.26
2026-03-22 06:00:00.000,44,1.83,0.0,60,12.02,603.36,1,0.0,1,0,2,0.32,4.9,274,17.0,0.51,0.36,0,3.44,24100,17.05,18,0.03,38,4,0,13.85,0,1020,3.0,988.59
2026-03-22 07:00:00.000,44,1.98,0.0,60,11.79,464.53,1,0.0,1,0,1,0.24,4.86,241,17.03,0.37,0.48,0,3.36,24100,16.81,19,0.03,38,3,0,13.85,0,1020,2.95,803.13
2026-03-22 08:00:00.000,46,2.27,0.0,60,11.47,292.03,1,0.0,1,0,1,0.15,4.69,180,17.09,0.43,0.63,0,3.16,24100,16.06,20,0.03,38,1,0,13.52,0,1020,2.77,563.53
2026-03-22 09:00:00.000,49,2.65,0.0,60,10.85,109.98,1,0.0,1,0,2,0.06,4.5,154,17.2,0.7,0.77,0,2.97,24100,15.13,21,0.03,39,0,0,13.02,0,1020,2.56,286.16
2026-03-22 10:00:00.000,53,3.08,0.0,33,10.06,8.69,1,0.0,0,0,2,0.03,4.32,143,17.37,0.95,0.9,0,2.8,24100,13.99,21,0.02,39,0,0,12.33,0,1020,2.34,56.67
2026-03-22 11:00:00.000,57,3.47,0.0,0,9.13,-1.05,1,0.0,0,0,2,0.01,4.13,138,17.59,1.15,1.03,0,2.64,24100,12.67,22,0.02,40,0,0,11.47,0,1020,2.09,0.0
2026-03-22 12:00:00.000,62,3.77,0.0,0,8.32,0.0,1,0.0,0,0,3,0.01,4.0,139,17.9,1.29,1.11,0,2.51,24100,11.54,23,0.02,41,0,0,10.69,0,1021,1.9,0.0
2026-03-22 13:00:00.000,66,4.0,0.0,0,7.67,0.0,1,0.0,0,0,3,0.01,3.95,144,18.36,1.35,1.14,0,2.41,24100,10.72,24,0.02,40,0,0,10.04,0,1020,1.81,0.0
2026-03-22 14:00:00.000,69,4.14,0.0,0,7.14,0.0,1,0.0,0,0,3,0.01,3.96,150,18.91,1.39,1.12,0,2.35,24100,10.14,26,0.01,39,0,0,9.51,0,1020,1.79,0.0
2026-03-22 15:00:00.000,71,4.24,0.0,0,6.79,0.0,1,0.0,0,0,4,0.01,4.0,154,19.4,1.38,1.09,0,2.33,24100,9.75,27,0.01,39,0,0,9.13,0,1020,1.78,0.0
2026-03-22 16:00:00.000,72,4.34,0.0,0,6.62,0.0,1,0.0,0,0,4,0.0,4.07,155,19.86,1.36,1.06,0,2.35,24100,9.57,29,0.01,38,0,0,8.93,0,1019,1.78,0.0
2026-03-22 17:00:00.000,73,4.45,0.0,0,6.61,0.0,1,0.0,0,0,4,0.0,4.17,156,20.26,1.33,1.02,0,2.41,24100,9.58,32,0.01,38,0,0,8.87,0,1019,1.79,0.0
2026-03-22 18:00:00.000,73,4.53,0.0,0,6.72,0.0,1,0.0,0,0,5,0.0,4.3,156,20.4,1.28,0.98,0,2.51,24100,9.73,34,0.01,38,0,0,8.93,0,1019,1.8,0.0
2026-03-22 19:00:00.000,73,4.57,0.0,0,6.95,0.0,1,0.0,0,0,4,0.0,4.44,156,20.14,1.24,0.94,0,2.63,24100,10.05,35,0.01,38,0,0,9.13,0,1019,1.78,0.0
2026-03-22 20:00:00.000,71,4.59,0.0,0,7.3,0.0,1,0.0,0,0,4,0.0,4.61,155,19.61,1.22,0.9,0,2.79,24100,10.52,36,0.01,38,0,0,9.46,0,1019,1.74,0.0
2026-03-22 21:00:00.000,69,4.58,0.0,0,7.83,-1.22,1,0.0,1,0,4,0.01,4.8,155,19.0,1.23,0.86,0,2.97,24100,11.22,38,0.01,39,0,0,10.0,0,1019,1.73,0.0
2026-03-22 22:00:00.000,65,4.56,0.0,37,8.6,13.04,5,0.0,1,10,3,0.03,5.03,156,18.37,1.23,0.82,10,3.19,24100,12.16,39,0.01,39,0,10,10.77,0,1019,1.73,77.98
2026-03-22 23:00:00.000,60,4.45,0.0,53,9.62,119.5,5,0.0,1,10,3,0.07,5.29,158,17.66,1.21,0.78,10,3.44,24100,13.38,40,0.01,40,0,10,11.81,0,1020,1.75,327.79
2026-03-23 00:00:00.000,56,4.33,0.55,53,10.38,280.47,31,0.0,1,10,4,0.15,5.5,154,16.9,1.26,0.75,10,3.66,24100,14.39,42,0.01,41,0,10,12.62,0,1020,1.84,601.46
2026-03-23 01:00:00.000,56,4.22,0.56,53,10.6,405.61,31,0.0,1,10,4,0.21,5.63,145,16.07,1.1,0.73,10,3.84,24100,14.74,43,0.01,41,1,10,12.75,0,1019,2.04,834.97
2026-03-23 02:00:00.000,55,4.2,0.58,52,10.87,490.0,31,0.0,1,11,4,0.26,5.72,141,15.19,0.88,0.73,11,4.0,24100,15.09,44,0.01,41,3,11,12.87,0,1019,2.3,1012.41
2026-03-23 03:00:00.000,55,4.29,0.59,52,11.08,537.12,31,0.0,1,11,5,0.29,5.8,145,14.4,0.67,0.73,11,4.13,24100,15.33,46,0.01,41,4,11,12.92,0,1018,2.56,1121.72
2026-03-23 04:00:00.000,55,4.49,0.6,53,11.38,552.48,31,0.0,1,10,5,0.3,5.9,158,13.68,0.74,0.73,10,4.27,24100,15.78,47,0.02,41,5,10,13.21,0,1018,2.81,1155.46
2026-03-23 05:00:00.000,54,4.73,0.64,60,11.92,566.27,31,0.0,1,0,6,0.31,5.98,169,13.04,0.93,0.74,0,4.38,24100,16.43,48,0.02,41,4,0,13.74,0,1018,3.06,1111.34
2026-03-23 06:00:00.000,54,5.0,0.7,60,12.11,492.91,31,0.0,1,0,7,0.27,6.0,170,12.7,1.18,0.75,0,4.39,24100,16.82,49,0.02,41,4,0,14.15,0,1017,3.21,992.39
2026-03-23 07:00:00.000,54,5.3,0.67,60,12.06,374.88,31,0.0,1,0,6,0.21,5.91,165,12.78,1.42,0.75,0,4.25,24100,16.65,49,0.02,40,2,0,14.21,0,1017,3.22,806.74
2026-03-23 08:00:00.000,57,5.65,0.62,60,11.73,232.59,31,0.0,1,0,6,0.14,5.76,157,13.15,1.66,0.74,0,4.0,24100,16.04,47,0.02,40,1,0,13.98,0,1018,3.14,567.07
2026-03-23 09:00:00.000,60,6.04,0.59,60,11.28,86.32,31,0.0,1,0,6,0.07,5.6,150,13.6,1.86,0.75,0,3.76,24100,15.26,46,0.02,40,0,0,13.58,0,1018,3.04,289.74
2026-03-23 10:00:00.000,64,6.41,0.59,34,10.71,6.07,31,0.0,0,0,5,0.05,5.46,145,14.11,1.98,0.76,0,3.54,24100,14.29,45,0.01,39,0,0,13.0,0,1018,2.93,58.5
2026-03-23 11:00:00.000,68,6.72,0.58,0,10.01,-1.05,31,0.0,0,0,5,0.02,5.33,141,14.69,2.02,0.77,0,3.32,24100,13.14,44,0.01,40,0,0,12.26,0,1018,2.8,0.0
2026-03-23 12:00:00.000,73,6.97,0.55,0,9.41,0.0,31,0.0,0,0,6,0.01,5.2,142,15.2,2.01,0.78,0,3.13,24100,12.18,43,0.01,40,0,0,11.59,0,1018,2.71,0.0
2026-03-23 13:00:00.000,77,7.18,0.55,0,8.95,0.0,31,0.0,0,0,7,0.01,5.09,146,15.57,1.94,0.79,0,2.97,24100,11.51,41,0.01,39,0,0,11.03,0,1018,2.69,0.0
2026-03-23 14:00:00.000,80,7.32,0.55,0,8.59,0.0,31,0.0,0,0,9,0.01,4.98,151,15.86,1.87,0.79,0,2.83,24100,11.05,40,0.01,39,0,0,10.59,0,1018,2.71,0.0
2026-03-23 15:00:00.000,82,7.42,1.11,0,8.36,0.0,31,0.0,0,0,11,0.0,4.9,156,16.1,1.78,0.81,0,2.73,24100,10.78,38,0.01,39,0,0,10.28,0,1018,2.73,0.0
2026-03-23 16:00:00.000,83,7.49,1.07,0,8.26,0.0,31,0.0,0,0,12,0.0,4.85,161,16.34,1.76,0.84,0,2.69,24100,10.7,37,0.01,39,0,0,10.14,0,1018,2.76,0.0
2026-03-23 17:00:00.000,84,7.56,1.03,0,8.28,0.0,31,0.0,0,0,14,0.0,4.83,166,16.54,1.75,0.89,0,2.68,24100,10.79,36,0.01,39,0,0,10.13,0,1017,2.79,0.0
2026-03-23 18:00:00.000,83,7.63,0.98,0,8.42,0.0,31,0.0,0,0,15,0.0,4.8,169,16.6,1.7,1.0,0,2.69,24100,11.0,35,0.01,39,0,0,10.23,0,1017,2.8,0.0
2026-03-23 19:00:00.000,83,7.73,0.87,0,8.72,0.0,31,0.0,0,18,13,0.0,4.76,172,16.47,1.61,1.22,5,2.7,24100,11.33,35,0.01,38,0,0,10.44,0,1017,2.78,0.0
2026-03-23 20:00:00.000,82,7.85,0.78,0,9.15,0.0,31,0.0,0,67,11,0.0,4.72,173,16.2,1.5,1.51,29,2.73,24100,11.79,34,0.01,37,0,29,10.76,0,1017,2.75,0.0
2026-03-23 21:00:00.000,80,7.96,0.74,0,9.74,-1.22,31,0.0,1,100,10,0.0,4.7,175,15.9,1.43,1.78,72,2.78,24100,12.46,34,0.01,37,0,72,11.28,0,1018,2.72,0.0
2026-03-23 22:00:00.000,76,8.04,0.82,0,10.56,2.22,33,0.0,1,100,8,0.03,4.73,177,15.6,1.35,2.03,100,2.87,24100,13.35,34,0.01,36,0,100,12.02,0,1018,2.7,81.29
2026-03-23 23:00:00.000,71,8.05,0.92,0,11.63,44.66,33,0.0,1,100,7,0.05,4.77,178,15.26,1.25,2.25,100,2.99,24100,14.51,35,0.01,36,0,100,13.01,0,1018,2.68,334.24
2026-03-24 00:00:00.000,67,7.98,0.67,0,12.45,115.51,33,0.0,1,100,6,0.08,4.8,172,14.9,1.14,2.34,100,3.09,24100,15.45,35,0.01,37,1,100,13.78,0,1018,2.71,607.55
2026-03-24 01:00:00.000,66,7.76,0.91,0,12.72,162.53,33,0.0,1,100,5,0.11,4.77,161,14.51,0.8,2.21,100,3.14,24100,15.74,35,0.01,37,2,100,13.86,0,1018,2.81,840.65
2026-03-24 02:00:00.000,65,7.56,0.79,0,13.0,190.29,33,0.0,1,100,5,0.12,4.73,149,14.09,0.42,1.95,100,3.16,24100,16.02,35,0.01,38,3,100,13.93,0,1018,2.95,1017.66
2026-03-24 03:00:00.000,64,7.39,0.63,0,13.18,205.78,33,0.0,1,97,6,0.13,4.7,120,13.7,0.1,1.66,100,3.19,24100,16.18,35,0.02,39,4,100,13.92,0,1017,3.09,1126.52
2026-03-24 04:00:00.000,63,7.25,1.03,0,13.42,214.64,33,0.0,1,47,6,0.13,4.72,212,13.33,0.03,1.36,100,3.24,24100,16.55,35,0.02,39,5,100,14.15,10,1017,3.22,1159.83
2026-03-24 05:00:00.000,60,7.11,1.11,0,13.76,216.16,33,0.0,1,0,8,0.14,4.77,227,12.99,0.16,1.04,100,3.28,24100,17.12,36,0.02,40,5,100,14.61,10,1017,3.34,1115.35
2026-03-24 06:00:00.000,59,7.01,0.56,0,13.98,193.29,33,0.0,1,0,10,0.13,4.8,202,12.7,0.28,0.79,100,3.3,24100,17.43,35,0.02,41,4,100,14.94,10,1017,3.4,996.13
2026-03-24 07:00:00.000,59,7.0,0.47,0,13.81,150.43,33,0.0,1,0,11,0.1,4.8,176,12.47,0.46,0.65,100,3.27,24100,17.18,34,0.02,40,3,100,14.9,10,1017,3.36,810.31
2026-03-24 08:00:00.000,60,7.07,0.47,0,13.29,94.2,33,0.0,1,0,13,0.07,4.8,158,12.3,0.72,0.59,100,3.22,24100,16.49,33,0.02,40,1,100,14.55,11,1017,3.25,570.58
2026-03-24 09:00:00.000,63,7.18,0.43,13,12.63,48.01,31,0.0,1,0,16,0.05,4.8,148,12.2,0.97,0.55,73,3.16,24100,15.64,31,0.02,40,0,73,14.04,11,1017,3.14,293.3
2026-03-24 10:00:00.000,66,7.26,0.43,23,11.83,4.88,31,0.0,0,0,18,0.03,4.83,141,12.16,1.17,0.53,30,3.12,24100,14.61,30,0.02,39,0,30,13.36,10,1018,3.02,60.32
2026-03-24 11:00:00.000,70,7.31,0.43,0,10.89,-1.05,31,0.0,0,0,21,0.01,4.87,137,12.19,1.33,0.53,0,3.07,24100,13.41,29,0.02,38,0,0,12.52,0,1018,2.89,0.0
2026-03-24 12:00:00.000,74,7.36,0.43,0,10.11,0.0,31,0.0,0,0,25,0.01,4.9,139,12.3,1.43,0.53,0,3.02,24100,12.4,28,0.02,38,0,0,11.79,0,1018,2.8,0.0
2026-03-24 13:00:00.000,77,7.46,0.42,0,9.52,0.0,31,0.0,0,0,27,0.0,4.9,146,12.53,1.46,0.53,0,2.96,24100,11.68,27,0.02,36,0,0,11.21,0,1018,2.79,0.0
2026-03-24 14:00:00.000,80,7.55,0.42,0,9.08,0.0,31,0.0,0,0,30,0.0,4.9,154,12.84,1.5,0.52,0,2.89,24100,11.19,25,0.01,35,0,0,10.76,0,1018,2.83,0.0
2026-03-24 15:00:00.000,82,7.61,0.42,0,8.78,0.0,31,0.0,0,39,33,0.0,4.9,160,13.2,1.52,0.53,11,2.83,24100,10.89,24,0.01,35,0,0,10.47,0,1018,2.88,0.0
2026-03-24 16:00:00.000,83,7.65,0.41,0,8.63,0.0,31,0.0,0,83,35,0.0,4.93,164,13.59,1.59,0.55,24,2.8,24100,10.8,23,0.01,34,0,0,10.36,0,1017,2.93,0.0
2026-03-24 17:00:00.000,83,7.7,0.41,0,8.62,0.0,31,0.0,0,100,37,0.0,4.96,167,14.03,1.67,0.58,30,2.79,24100,10.89,22,0.01,34,0,0,10.39,0,1017,2.98,0.0
2026-03-24 18:00:00.000,82,7.75,0.4,0,8.75,0.0,31,0.0,0,100,39,0.0,5.0,169,14.5,1.7,0.61,30,2.78,24100,11.14,21,0.01,34,0,0,10.53,0,1017,3.0,0.0
2026-03-24 19:00:00.000,81,7.79,0.4,0,9.03,0.0,31,0.0,0,100,38,0.0,5.03,172,15.03,1.7,0.64,30,2.76,24100,11.56,20,0.01,33,0,0,10.8,0,1017,2.97,0.0
2026-03-24 20:00:00.000,79,7.84,0.39,0,9.43,0.0,3,0.0,0,100,36,0.0,5.06,174,15.59,1.7,0.68,30,2.75,24100,12.14,19,0.0,32,0,0,11.18,0,1017,2.92,0.0
2026-03-24 21:00:00.000,77,7.86,0.39,0,9.99,-1.22,3,0.0,1,100,35,0.01,5.1,176,16.1,1.73,0.72,30,2.78,24100,12.92,18,0.0,32,0,0,11.76,0,1017,2.88,0.0
2026-03-24 22:00:00.000,73,7.87,0.57,30,10.78,10.29,3,0.0,1,100,32,0.03,5.16,179,16.59,1.75,0.77,30,2.86,24100,13.92,17,0.0,32,0,0,12.56,0,1018,2.84,84.59
2026-03-24 23:00:00.000,67,7.79,0.52,40,11.8,95.51,3,0.0,1,100,30,0.07,5.24,181,17.03,1.76,0.83,30,2.97,24100,15.19,17,0.01,32,0,0,13.61,0,1018,2.82,340.66
2026-03-25 00:00:00.000,63,7.68,0.0,40,12.58,222.97,3,0.0,1,100,28,0.14,5.3,178,17.2,1.73,0.9,30,3.09,24100,16.18,17,0.01,33,1,0,14.4,0,1018,2.86,613.61
2026-03-25 01:00:00.000,62,7.51,0.0,40,12.8,316.18,6,0.0,1,100,25,0.18,5.34,173,16.94,1.44,0.97,30,3.21,24100,16.43,17,0.01,33,2,0,14.46,11,1017,3.01,846.29
2026-03-25 02:00:00.000,62,7.4,0.0,24,13.01,307.43,9,0.0,1,100,23,0.19,5.37,171,16.41,1.12,1.04,55,3.35,24100,16.63,17,0.01,34,3,18,14.47,55,1017,3.22,1022.84
2026-03-25 03:00:00.000,62,7.4,0.0,0,13.14,209.69,22,0.0,1,100,22,0.14,5.4,174,15.9,0.85,1.11,96,3.49,24100,16.71,18,0.01,35,4,57,14.41,96,1017,3.43,1131.25
2026-03-25 04:00:00.000,62,7.51,0.0,0,13.33,202.9,22,0.0,1,100,20,0.14,5.46,178,15.42,0.87,1.19,100,3.67,24100,17.0,18,0.02,36,5,96,14.59,100,1016,3.63,1164.15
2026-03-25 05:00:00.000,61,7.68,0.0,0,13.71,199.02,22,0.0,1,100,19,0.14,5.52,182,14.96,0.99,1.27,100,3.86,24100,17.49,19,0.02,37,5,100,15.01,100,1016,3.82,1119.31
2026-03-25 06:00:00.000,61,7.88,0.0,0,13.97,173.21,22,0.0,1,100,18,0.13,5.5,180,14.7,1.16,1.34,100,3.94,24100,17.79,20,0.02,39,4,100,15.34,100,1016,3.93,999.82
2026-03-25 07:00:00.000,61,8.07,0.0,0,13.93,131.51,22,0.0,1,100,16,0.11,5.34,173,14.77,1.35,1.41,100,3.8,24100,17.63,20,0.02,39,3,100,15.38,100,1015,3.91,813.83
2026-03-25 08:00:00.000,63,8.31,0.0,0,13.62,80.09,22,0.0,1,100,13,0.08,5.11,166,15.04,1.57,1.47,100,3.55,24100,17.09,21,0.02,39,1,100,15.16,100,1016,3.82,574.05
2026-03-25 09:00:00.000,66,8.57,0.0,0,13.2,27.27,22,0.0,1,100,12,0.06,4.9,159,15.4,1.74,1.53,100,3.31,24100,16.39,21,0.02,40,0,100,14.79,59,1016,3.7,296.84
2026-03-25 10:00:00.000,69,8.83,0.0,0,12.66,-0.54,22,0.0,0,100,10,0.04,4.73,153,15.83,1.82,1.57,100,3.11,24100,15.5,22,0.01,40,0,100,14.24,36,1016,3.57,62.13
2026-03-25 11:00:00.000,74,9.05,0.0,0,11.99,-1.05,22,0.0,0,100,8,0.01,4.58,149,16.34,1.85,1.61,100,2.92,24100,14.43,22,0.01,40,0,100,13.53,18,1016,3.42,0.0
2026-03-25 12:00:00.000,78,9.2,0.0,0,11.4,0.0,22,0.0,0,100,8,0.01,4.5,149,16.8,1.84,1.63,100,2.78,24100,13.51,23,0.01,40,0,100,12.89,0,1016,3.3,0.0
2026-03-25 13:00:00.000,81,9.27,0.0,0,10.92,0.0,22,0.0,0,100,8,0.0,4.51,153,17.14,1.78,1.63,100,2.69,24100,12.8,22,0.01,39,0,100,12.35,17,1016,3.24,0.0
2026-03-25 14:00:00.000,83,9.28,0.0,0,10.54,0.0,22,0.0,0,100,9,0.0,4.58,158,17.43,1.71,1.6,100,2.64,24100,12.26,21,0.0,38,0,100,11.92,33,1016,3.21,0.0
2026-03-25 15:00:00.000,85,9.26,0.0,0,10.29,0.0,22,0.0,0,100,10,0.0,4.7,162,17.7,1.62,1.57,100,2.64,24100,11.9,21,0.0,38,0,100,11.62,51,1015,3.19,0.0
2026-03-25 16:00:00.000,86,9.25,0.0,0,10.18,0.0,22,0.0,0,100,11,0.0,4.88,164,17.99,1.59,1.53,100,2.71,24100,11.72,20,0.0,37,0,100,11.48,68,1015,3.17,0.0
2026-03-25 17:00:00.000,86,9.24,0.0,0,10.17,0.0,22,0.0,0,100,12,0.0,5.1,166,18.26,1.57,1.48,100,2.83,24100,11.7,20,0.0,37,0,100,11.46,87,1014,3.15,0.0
2026-03-25 18:00:00.000,85,9.25,0.0,0,10.28,0.0,22,0.0,0,100,13,0.0,5.3,168,18.4,1.51,1.41,100,2.95,24100,11.81,20,0.0,37,0,100,11.53,100,1014,3.11,0.0
2026-03-25 19:00:00.000,85,9.29,0.0,0,10.52,0.0,22,0.0,0,100,12,0.0,5.45,170,18.36,1.41,1.3,100,3.05,24100,12.06,21,0.0,36,0,100,11.68,100,1014,3.04,0.0
2026-03-25 20:00:00.000,84,9.35,0.0,0,10.85,0.0,22,0.0,0,100,11,0.0,5.57,172,18.19,1.3,1.16,100,3.15,24100,12.44,21,0.0,36,0,100,11.93,99,1014,2.96,0.0
2026-03-25 21:00:00.000,82,9.38,0.0,0,11.34,-1.22,22,0.0,1,100,11,0.0,5.7,175,18.0,1.23,1.03,100,3.26,24100,13.02,22,0.0,37,0,100,12.36,94,1014,2.89,0.0
2026-03-25 22:00:00.000,78,9.35,0.0,0,12.03,1.39,22,0.0,1,100,10,0.03,5.85,178,17.82,1.16,0.9,100,3.4,24100,13.82,24,0.0,37,0,100,13.0,87,1015,2.82,87.89
2026-03-25 23:00:00.000,73,9.25,0.0,0,12.95,35.02,22,0.0,1,100,10,0.04,6.0,182,17.61,1.06,0.77,100,3.56,24100,14.88,25,0.0,37,0,100,13.89,79,1015,2.77,347.06
2026-03-26 00:00:00.000,69,9.12,0.0,0,13.65,88.49,22,0.0,1,100,10,0.07,6.1,177,17.4,0.93,0.69,100,3.67,24100,15.7,26,0.0,38,1,100,14.53,70,1015,2.75,619.63
